;FLAVOR:Marlin
;TIME:337
;Filament used: 0.163718m
;Layer height: 0.3
;MINX:0
;MINY:0
;MINZ:0.3
;MAXX:82.4
;MAXY:35.096
;MAXZ:18
;TARGET_MACHINE.NAME:Tronxy XY-3
;Generated with Cura_SteamEngine 5.11.0
M104 S208
M105
M109 S208
; XY-3 Start Code
G21 ; Set units to millimeters
G90 ; Set all axis to Absolute
M83 ; Set extrusion to Relative
M107 ; Disable all fans
M220 S100 ; Set feedrate percentage
M190 S60 ; Set bed temperature and wait
G28 ; Home all axis
; Uncomment the line below to enable ABL Mesh probing
;G29 ; Probe bed mesh for ABL
; For best results do not run nozzle heater while performing ABL
;G1 Z5.0 ; Raise nozzle to prevent scratching of heat bed
;G1 X0 Y60 ; Move nozzle to Home before heating
;M109 S208 T0 ; Set nozzle temp and wait
;G92 E0 ; Set Extruder position to zero
; Uncomment the following lines to enable nozzle purge line along left edge of bed
G1 Z2.0 F3000 ; Raise Z axis
G1 X1.1 Y60 Z0.2 F3600.0 ; Move to purge line start position
G1 Y280 F1500.0 E15 ; Draw first purge line
G1 X1.4 F3600.0 ; Move to side
G1 Y60 F1500.0 E10 ; Draw second purge line
G92 E0 ; Reset Extruder
G1 Z2.0 F3000 ; Move Z Axis up little to prevent scratching of Heat Bed
G1 X5 Y60 Z0.2 F3600.0 ; Move over to finish nozzle wipe
G92 E0
M82 ;absolute extrusion mode
G92 E0
G92 E0
G1 F2700 E-6
;LAYER_COUNT:60
;LAYER:0
;note -- min layer time used
M107
G1 F300 Z0.5
;MESH:Body1
G0 F2700 X0.00 Y0.00 Z0.5
G0 X82.4 Y35.096
;TYPE:WALL-OUTER
G1 F300 Z0.3
G1 F2700 E0.31181
G1 F705.9 X27.6 Y35.096 E2.72865
G1 F2700 E-3.27135
;MESH:NONMESH
G0 F300 X27.6 Y35.096 Z0.6
G0 F2700 X27.6 Y35.092
;TIME_ELAPSED:9.322331
;LAYER:1
;note -- min layer time used
M106 S28.1
;TYPE:WALL-OUTER
;MESH:Body1
G1 F2700 E3.04047
G1 F705.9 X82.4 Y35.092 E5.45731
;TIME_ELAPSED:14.435753
;LAYER:2
;note -- min layer time used
G1 F2700 E-0.54269
M106 S56.1
;MESH:Body1
G0 F3600 X82.4 Y35.092 Z0.9
;TYPE:WALL-OUTER
G1 F2700 E5.76912
G1 F705.9 X27.602 Y35.09 E8.18588
G1 F2700 E2.18588
;MESH:NONMESH
G0 F300 X27.602 Y35.09 Z1.2
G0 F3600 X27.6 Y35.088
;TIME_ELAPSED:20.492165
;LAYER:3
;note -- min layer time used
;TYPE:WALL-OUTER
;MESH:Body1
G1 F2700 E8.49769
G1 F705.9 X82.4 Y35.088 E10.91453
G1 F2700 E4.91453
;MESH:NONMESH
G0 F300 X82.4 Y35.088 Z1.5
G0 F3600 X82.4 Y35.084
;TIME_ELAPSED:26.050367
;LAYER:4
;note -- min layer time used
;TYPE:WALL-OUTER
;MESH:Body1
G1 F2700 E11.22634
G1 F705.9 X27.6 Y35.084 E13.64319
G1 F2700 E7.64319
;MESH:NONMESH
G0 F300 X27.6 Y35.084 Z1.8
G0 F3600 X27.6 Y35.08
;TIME_ELAPSED:31.608569
;LAYER:5
;note -- min layer time used
;TYPE:WALL-OUTER
;MESH:Body1
G1 F2700 E13.955
G1 F705.9 X82.4 Y35.08 E16.37184
G1 F2700 E10.37184
;MESH:NONMESH
G0 F300 X82.4 Y35.08 Z2.1
G0 F3600 X82.4 Y35.076
;TIME_ELAPSED:37.166771
;LAYER:6
;note -- min layer time used
;TYPE:WALL-OUTER
;MESH:Body1
G1 F2700 E16.68365
G1 F705.9 X27.6 Y35.076 E19.1005
G1 F2700 E13.1005
;MESH:NONMESH
G0 F300 X27.6 Y35.076 Z2.4
G0 F3600 X27.6 Y35.072
;TIME_ELAPSED:42.724973
;LAYER:7
;note -- min layer time used
;TYPE:WALL-OUTER
;MESH:Body1
G1 F2700 E19.41231
G1 F705.9 X82.4 Y35.072 E21.82915
;TIME_ELAPSED:47.838396
;LAYER:8
;note -- min layer time used
G1 F2700 E15.82915
;MESH:Body1
G0 F3600 X82.4 Y35.072 Z2.7
;TYPE:WALL-OUTER
G1 F2700 E22.14096
G1 F705.9 X27.602 Y35.07 E24.55772
G1 F2700 E18.55772
;MESH:NONMESH
G0 F300 X27.602 Y35.07 Z3
G0 F3600 X27.6 Y35.068
;TIME_ELAPSED:53.894808
;LAYER:9
;note -- min layer time used
;TYPE:WALL-OUTER
;MESH:Body1
G1 F2700 E24.86953
G1 F705.9 X82.4 Y35.068 E27.28637
G1 F2700 E21.28637
;MESH:NONMESH
G0 F300 X82.4 Y35.068 Z3.3
G0 F3600 X82.4 Y35.064
;TIME_ELAPSED:59.453010
;LAYER:10
;note -- min layer time used
;TYPE:WALL-OUTER
;MESH:Body1
G1 F2700 E27.59819
G1 F705.9 X27.6 Y35.064 E30.01503
G1 F2700 E24.01503
;MESH:NONMESH
G0 F300 X27.6 Y35.064 Z3.6
G0 F3600 X27.6 Y35.06
;TIME_ELAPSED:65.011212
;LAYER:11
;note -- min layer time used
;TYPE:WALL-OUTER
;MESH:Body1
G1 F2700 E30.32684
G1 F705.9 X82.4 Y35.06 E32.74368
G1 F2700 E26.74368
;MESH:NONMESH
G0 F300 X82.4 Y35.06 Z3.9
G0 F3600 X82.4 Y35.056
;TIME_ELAPSED:70.569413
;LAYER:12
;note -- min layer time used
;TYPE:WALL-OUTER
;MESH:Body1
G1 F2700 E33.0555
G1 F705.9 X27.6 Y35.056 E35.47234
G1 F2700 E29.47234
;MESH:NONMESH
G0 F300 X27.6 Y35.056 Z4.2
G0 F3600 X27.6 Y35.052
;TIME_ELAPSED:76.127615
;LAYER:13
;note -- min layer time used
;TYPE:WALL-OUTER
;MESH:Body1
G1 F2700 E35.78415
G1 F705.9 X82.4 Y35.052 E38.20099
;TIME_ELAPSED:81.241038
;LAYER:14
;note -- min layer time used
G1 F2700 E32.20099
;MESH:Body1
G0 F3600 X82.4 Y35.052 Z4.5
;TYPE:WALL-OUTER
G1 F2700 E38.5128
G1 F705.9 X27.602 Y35.05 E40.92956
G1 F2700 E34.92956
;MESH:NONMESH
G0 F300 X27.602 Y35.05 Z4.8
G0 F3600 X27.6 Y35.048
;TIME_ELAPSED:87.297450
;LAYER:15
;note -- min layer time used
;TYPE:WALL-OUTER
;MESH:Body1
G1 F2700 E41.24137
G1 F705.9 X82.4 Y35.048 E43.65821
G1 F2700 E37.65821
;MESH:NONMESH
G0 F300 X82.4 Y35.048 Z5.1
G0 F3600 X82.4 Y35.044
;TIME_ELAPSED:92.855652
;LAYER:16
;note -- min layer time used
;TYPE:WALL-OUTER
;MESH:Body1
G1 F2700 E43.97003
G1 F705.9 X27.6 Y35.044 E46.38687
G1 F2700 E40.38687
;MESH:NONMESH
G0 F300 X27.6 Y35.044 Z5.4
G0 F3600 X27.6 Y35.04
;TIME_ELAPSED:98.413854
;LAYER:17
;note -- min layer time used
;TYPE:WALL-OUTER
;MESH:Body1
G1 F2700 E46.69868
G1 F705.9 X82.4 Y35.04 E49.11552
G1 F2700 E43.11552
;MESH:NONMESH
G0 F300 X82.4 Y35.04 Z5.7
G0 F3600 X82.4 Y35.036
;TIME_ELAPSED:103.972056
;LAYER:18
;note -- min layer time used
;TYPE:WALL-OUTER
;MESH:Body1
G1 F2700 E49.42734
G1 F705.9 X27.6 Y35.036 E51.84418
G1 F2700 E45.84418
;MESH:NONMESH
G0 F300 X27.6 Y35.036 Z6
G0 F3600 X27.6 Y35.032
;TIME_ELAPSED:109.530258
;LAYER:19
;note -- min layer time used
;TYPE:WALL-OUTER
;MESH:Body1
G1 F2700 E52.15599
G1 F705.9 X82.4 Y35.032 E54.57283
;TIME_ELAPSED:114.643681
;LAYER:20
;note -- min layer time used
G1 F2700 E48.57283
;MESH:Body1
G0 F3600 X82.4 Y35.032 Z6.3
;TYPE:WALL-OUTER
G1 F2700 E54.88465
G1 F705.9 X27.602 Y35.03 E57.3014
G1 F2700 E51.3014
;MESH:NONMESH
G0 F300 X27.602 Y35.03 Z6.6
G0 F3600 X27.6 Y35.028
;TIME_ELAPSED:120.700093
;LAYER:21
;note -- min layer time used
;TYPE:WALL-OUTER
;MESH:Body1
G1 F2700 E57.61321
G1 F705.9 X82.4 Y35.028 E60.03005
G1 F2700 E54.03005
;MESH:NONMESH
G0 F300 X82.4 Y35.028 Z6.9
G0 F3600 X82.4 Y35.024
;TIME_ELAPSED:126.258294
;LAYER:22
;note -- min layer time used
;TYPE:WALL-OUTER
;MESH:Body1
G1 F2700 E60.34187
G1 F705.9 X27.6 Y35.024 E62.75871
G1 F2700 E56.75871
;MESH:NONMESH
G0 F300 X27.6 Y35.024 Z7.2
G0 F3600 X27.6 Y35.02
;TIME_ELAPSED:131.816496
;LAYER:23
;note -- min layer time used
;TYPE:WALL-OUTER
;MESH:Body1
G1 F2700 E63.07052
G1 F705.9 X82.4 Y35.02 E65.48736
G1 F2700 E59.48736
;MESH:NONMESH
G0 F300 X82.4 Y35.02 Z7.5
G0 F3600 X82.4 Y35.016
;TIME_ELAPSED:137.374698
;LAYER:24
;note -- min layer time used
;TYPE:WALL-OUTER
;MESH:Body1
G1 F2700 E65.79918
G1 F705.9 X27.6 Y35.016 E68.21602
G1 F2700 E62.21602
;MESH:NONMESH
G0 F300 X27.6 Y35.016 Z7.8
G0 F3600 X27.6 Y35.012
;TIME_ELAPSED:142.932900
;LAYER:25
;note -- min layer time used
;TYPE:WALL-OUTER
;MESH:Body1
G1 F2700 E68.52783
G1 F705.9 X82.4 Y35.012 E70.94467
;TIME_ELAPSED:148.046323
;LAYER:26
;note -- min layer time used
G1 F2700 E64.94467
;MESH:Body1
G0 F3600 X82.4 Y35.012 Z8.1
;TYPE:WALL-OUTER
G1 F2700 E71.25649
G1 F705.9 X27.602 Y35.01 E73.67324
G1 F2700 E67.67324
;MESH:NONMESH
G0 F300 X27.602 Y35.01 Z8.4
G0 F3600 X27.602 Y35.006
;TIME_ELAPSED:154.102506
;LAYER:27
;note -- min layer time used
;TYPE:WALL-OUTER
;MESH:Body1
G1 F2700 E73.98505
G1 F705.9 X82.4 Y35.008 E76.40181
G1 F2700 E70.40181
;MESH:NONMESH
G0 F300 X82.4 Y35.008 Z8.7
G0 F3600 X82.4 Y35.004
;TIME_ELAPSED:159.660538
;LAYER:28
;note -- min layer time used
;TYPE:WALL-OUTER
;MESH:Body1
G1 F2700 E76.71362
G1 F705.9 X27.6 Y35.004 E79.13046
G1 F2700 E73.13046
;MESH:NONMESH
G0 F300 X27.6 Y35.004 Z9
G0 F3600 X27.6 Y35
;TIME_ELAPSED:165.218740
;LAYER:29
;note -- min layer time used
;TYPE:WALL-OUTER
;MESH:Body1
G1 F2700 E79.44227
G1 F705.9 X82.4 Y35 E81.85912
G1 F2700 E75.85912
;MESH:NONMESH
G0 F300 X82.4 Y35 Z9.3
G0 F3600 X82.4 Y34.996
;TIME_ELAPSED:170.776942
;LAYER:30
;note -- min layer time used
;TYPE:WALL-OUTER
;MESH:Body1
G1 F2700 E82.17093
G1 F705.9 X27.6 Y34.996 E84.58777
G1 F2700 E78.58777
;MESH:NONMESH
G0 F300 X27.6 Y34.996 Z9.6
G0 F3600 X27.6 Y34.992
;TIME_ELAPSED:176.335144
;LAYER:31
;note -- min layer time used
;TYPE:WALL-OUTER
;MESH:Body1
G1 F2700 E84.89958
G1 F705.9 X82.4 Y34.992 E87.31643
;TIME_ELAPSED:181.448567
;LAYER:32
;note -- min layer time used
G1 F2700 E81.31643
;MESH:Body1
G0 F3600 X82.4 Y34.992 Z9.9
;TYPE:WALL-OUTER
G1 F2700 E87.62824
G1 F705.9 X27.602 Y34.99 E90.04499
G1 F2700 E84.04499
;MESH:NONMESH
G0 F300 X27.602 Y34.99 Z10.2
G0 F3600 X27.602 Y34.986
;TIME_ELAPSED:187.504750
;LAYER:33
;note -- min layer time used
;TYPE:WALL-OUTER
;MESH:Body1
G1 F2700 E90.35681
G1 F705.9 X82.4 Y34.988 E92.77356
G1 F2700 E86.77356
;MESH:NONMESH
G0 F300 X82.4 Y34.988 Z10.5
G0 F3600 X82.4 Y34.984
;TIME_ELAPSED:193.062782
;LAYER:34
;note -- min layer time used
;TYPE:WALL-OUTER
;MESH:Body1
G1 F2700 E93.08537
G1 F705.9 X27.6 Y34.984 E95.50221
G1 F2700 E89.50221
;MESH:NONMESH
G0 F300 X27.6 Y34.984 Z10.8
G0 F3600 X27.6 Y34.98
;TIME_ELAPSED:198.620984
;LAYER:35
;note -- min layer time used
;TYPE:WALL-OUTER
;MESH:Body1
G1 F2700 E95.81403
G1 F705.9 X82.4 Y34.98 E98.23087
G1 F2700 E92.23087
;MESH:NONMESH
G0 F300 X82.4 Y34.98 Z11.1
G0 F3600 X82.4 Y34.976
;TIME_ELAPSED:204.179186
;LAYER:36
;note -- min layer time used
;TYPE:WALL-OUTER
;MESH:Body1
G1 F2700 E98.54268
G1 F705.9 X27.6 Y34.976 E100.95952
G1 F2700 E94.95952
;MESH:NONMESH
G0 F300 X27.6 Y34.976 Z11.4
G0 F3600 X27.6 Y34.972
;TIME_ELAPSED:209.737388
;LAYER:37
;note -- min layer time used
;TYPE:WALL-OUTER
;MESH:Body1
G1 F2700 E101.27134
G1 F705.9 X82.4 Y34.972 E103.68818
;TIME_ELAPSED:214.850811
;LAYER:38
;note -- min layer time used
G1 F2700 E97.68818
;MESH:Body1
G0 F3600 X82.4 Y34.972 Z11.7
;TYPE:WALL-OUTER
G1 F2700 E103.99999
G1 F705.9 X27.602 Y34.97 E106.41674
G1 F2700 E100.41674
;MESH:NONMESH
G0 F300 X27.602 Y34.97 Z12
G0 F3600 X27.602 Y34.966
;TIME_ELAPSED:220.906994
;LAYER:39
;note -- min layer time used
;TYPE:WALL-OUTER
;MESH:Body1
G1 F2700 E106.72856
G1 F705.9 X82.4 Y34.968 E109.14531
G1 F2700 E103.14531
;MESH:NONMESH
G0 F300 X82.4 Y34.968 Z12.3
G0 F3600 X82.4 Y34.964
;TIME_ELAPSED:226.465026
;LAYER:40
;note -- min layer time used
;TYPE:WALL-OUTER
;MESH:Body1
G1 F2700 E109.45712
G1 F705.9 X27.6 Y34.964 E111.87397
G1 F2700 E105.87397
;MESH:NONMESH
G0 F300 X27.6 Y34.964 Z12.6
G0 F3600 X27.6 Y34.96
;TIME_ELAPSED:232.023228
;LAYER:41
;note -- min layer time used
;TYPE:WALL-OUTER
;MESH:Body1
G1 F2700 E112.18578
G1 F705.9 X82.4 Y34.96 E114.60262
G1 F2700 E108.60262
;MESH:NONMESH
G0 F300 X82.4 Y34.96 Z12.9
G0 F3600 X82.4 Y34.956
;TIME_ELAPSED:237.581430
;LAYER:42
;note -- min layer time used
;TYPE:WALL-OUTER
;MESH:Body1
G1 F2700 E114.91443
G1 F705.9 X27.6 Y34.956 E117.33128
G1 F2700 E111.33128
;MESH:NONMESH
G0 F300 X27.6 Y34.956 Z13.2
G0 F3600 X27.6 Y34.952
;TIME_ELAPSED:243.139632
;LAYER:43
;note -- min layer time used
;TYPE:WALL-OUTER
;MESH:Body1
G1 F2700 E117.64309
G1 F705.9 X82.4 Y34.952 E120.05993
;TIME_ELAPSED:248.253055
;LAYER:44
;note -- min layer time used
G1 F2700 E114.05993
;MESH:Body1
G0 F3600 X82.4 Y34.952 Z13.5
;TYPE:WALL-OUTER
G1 F2700 E120.37174
G1 F705.9 X27.602 Y34.95 E122.7885
G1 F2700 E116.7885
;MESH:NONMESH
G0 F300 X27.602 Y34.95 Z13.8
G0 F3600 X27.602 Y34.946
;TIME_ELAPSED:254.309238
;LAYER:45
;note -- min layer time used
;TYPE:WALL-OUTER
;MESH:Body1
G1 F2700 E123.10031
G1 F705.9 X82.4 Y34.948 E125.51706
G1 F2700 E119.51706
;MESH:NONMESH
G0 F300 X82.4 Y34.948 Z14.1
G0 F3600 X82.4 Y34.944
;TIME_ELAPSED:259.867270
;LAYER:46
;note -- min layer time used
;TYPE:WALL-OUTER
;MESH:Body1
G1 F2700 E125.82888
G1 F705.9 X27.6 Y34.944 E128.24572
G1 F2700 E122.24572
;MESH:NONMESH
G0 F300 X27.6 Y34.944 Z14.4
G0 F3600 X27.6 Y34.94
;TIME_ELAPSED:265.425472
;LAYER:47
;note -- min layer time used
;TYPE:WALL-OUTER
;MESH:Body1
G1 F2700 E128.55753
G1 F705.9 X82.4 Y34.94 E130.97437
G1 F2700 E124.97437
;MESH:NONMESH
G0 F300 X82.4 Y34.94 Z14.7
G0 F3600 X82.4 Y34.936
;TIME_ELAPSED:270.983674
;LAYER:48
;note -- min layer time used
;TYPE:WALL-OUTER
;MESH:Body1
G1 F2700 E131.28619
G1 F705.9 X27.6 Y34.936 E133.70303
G1 F2700 E127.70303
;MESH:NONMESH
G0 F300 X27.6 Y34.936 Z15
G0 F3600 X27.6 Y34.932
;TIME_ELAPSED:276.541876
;LAYER:49
;note -- min layer time used
;TYPE:WALL-OUTER
;MESH:Body1
G1 F2700 E134.01484
G1 F705.9 X82.4 Y34.932 E136.43168
;TIME_ELAPSED:281.655298
;LAYER:50
;note -- min layer time used
G1 F2700 E130.43168
;MESH:Body1
G0 F3600 X82.4 Y34.932 Z15.3
;TYPE:WALL-OUTER
G1 F2700 E136.7435
G1 F705.9 X27.602 Y34.93 E139.16025
G1 F2700 E133.16025
;MESH:NONMESH
G0 F300 X27.602 Y34.93 Z15.6
G0 F3600 X27.602 Y34.926
;TIME_ELAPSED:287.711481
;LAYER:51
;note -- min layer time used
;TYPE:WALL-OUTER
;MESH:Body1
G1 F2700 E139.47206
G1 F705.9 X82.4 Y34.928 E141.88882
G1 F2700 E135.88882
;MESH:NONMESH
G0 F300 X82.4 Y34.928 Z15.9
G0 F3600 X82.4 Y34.924
;TIME_ELAPSED:293.269513
;LAYER:52
;note -- min layer time used
;TYPE:WALL-OUTER
;MESH:Body1
G1 F2700 E142.20063
G1 F705.9 X27.6 Y34.924 E144.61747
G1 F2700 E138.61747
;MESH:NONMESH
G0 F300 X27.6 Y34.924 Z16.2
G0 F3600 X27.6 Y34.92
;TIME_ELAPSED:298.827715
;LAYER:53
;note -- min layer time used
;TYPE:WALL-OUTER
;MESH:Body1
G1 F2700 E144.92928
G1 F705.9 X82.4 Y34.92 E147.34613
G1 F2700 E141.34613
;MESH:NONMESH
G0 F300 X82.4 Y34.92 Z16.5
G0 F3600 X82.4 Y34.916
;TIME_ELAPSED:304.385917
;LAYER:54
;note -- min layer time used
;TYPE:WALL-OUTER
;MESH:Body1
G1 F2700 E147.65794
G1 F705.9 X27.6 Y34.916 E150.07478
G1 F2700 E144.07478
;MESH:NONMESH
G0 F300 X27.6 Y34.916 Z16.8
G0 F3600 X27.6 Y34.912
;TIME_ELAPSED:309.944119
;LAYER:55
;note -- min layer time used
;TYPE:WALL-OUTER
;MESH:Body1
G1 F2700 E150.38659
G1 F705.9 X82.4 Y34.912 E152.80344
;TIME_ELAPSED:315.057542
;LAYER:56
;note -- min layer time used
G1 F2700 E146.80344
;MESH:Body1
G0 F3600 X82.4 Y34.912 Z17.1
;TYPE:WALL-OUTER
G1 F2700 E153.11525
G1 F705.9 X27.602 Y34.91 E155.532
G1 F2700 E149.532
;MESH:NONMESH
G0 F300 X27.602 Y34.91 Z17.4
G0 F3600 X27.602 Y34.906
;TIME_ELAPSED:321.113725
;LAYER:57
;note -- min layer time used
;TYPE:WALL-OUTER
;MESH:Body1
G1 F2700 E155.84382
G1 F705.9 X82.4 Y34.908 E158.26057
G1 F2700 E152.26057
;MESH:NONMESH
G0 F300 X82.4 Y34.908 Z17.7
G0 F3600 X82.4 Y34.904
;TIME_ELAPSED:326.671757
;LAYER:58
;note -- min layer time used
;TYPE:WALL-OUTER
;MESH:Body1
G1 F2700 E158.57238
G1 F705.9 X27.6 Y34.904 E160.98922
G1 F2700 E154.98922
;MESH:NONMESH
G0 F300 X27.6 Y34.904 Z18
G0 F3600 X27.6 Y34.9
;TIME_ELAPSED:332.229959
;LAYER:59
;note -- min layer time used
;TYPE:WALL-OUTER
;MESH:Body1
G1 F2700 E161.30104
G1 F705.9 X82.4 Y34.9 E163.71788
;TIME_ELAPSED:337.343382
G1 F2700 E157.71788
M107
; XY-3 End Code
M83 ; Set extrder to Relative
G1 E-5 F3000 ; Retract 5mm of filament at 50mm/s
G90 ; Set all axis to Absolute
G1 X0 Y300 ; Park print head
G1 Z10 ; Move up 10mm
M106 S0 ; Set fan speed to 0
M104 S208 ; Set Final Nozzle temp to 200
M109 S208 ; Wait for Nozzle temp
M140 S35 ; Set Bed temp
M84 ; Disable all stepper motors
M82 ;absolute extrusion mode
M104 S0
;End of Gcode
;SETTING_3 {"global_quality": "[general]\\nversion = 4\\nname = No Travel Joint 
;SETTING_3 Section 0.3\\ndefinition = tronxy_xy3\\n\\n[metadata]\\ntype = qualit
;SETTING_3 y_changes\\nquality_type = normal\\nsetting_version = 25\\n\\n[values
;SETTING_3 ]\\nacceleration_enabled = False\\nadhesion_type = none\\njerk_enable
;SETTING_3 d = False\\nlayer_height = 0.3\\nlayer_height_0 = 0.3\\nmaterial_bed_
;SETTING_3 temperature = 60\\nretraction_combing = no_outer_surfaces\\nspeed_slo
;SETTING_3 wdown_layers = 1\\nsupport_enable = False\\nsupport_structure = tree\
;SETTING_3 \nsupport_type = buildplate\\n\\n", "extruder_quality": ["[general]\\
;SETTING_3 nversion = 4\\nname = No Travel Joint Section 0.3\\ndefinition = tron
;SETTING_3 xy_xy3\\n\\n[metadata]\\ntype = quality_changes\\nquality_type = norm
;SETTING_3 al\\nintent_category = default\\nposition = 0\\nsetting_version = 25\
;SETTING_3 \n\\n[values]\\nacceleration_layer_0 = 200\\nacceleration_print = 500
;SETTING_3 \\nacceleration_travel = 600\\nbottom_layers = =999999 if infill_spar
;SETTING_3 se_density == 100 and not magic_spiralize else math.ceil(round(bottom
;SETTING_3 _thickness / resolveOrValue('layer_height'), 4))\\nbrim_gap = 0.2\\nb
;SETTING_3 rim_width = 4\\ncool_fan_speed = 22\\ninfill_material_flow = 108\\nin
;SETTING_3 fill_overlap_mm = 0.24\\ninfill_pattern = cubicsubdiv\\ninfill_random
;SETTING_3 ize_start_location = True\\ninfill_sparse_density = 24\\ninfill_wipe_
;SETTING_3 dist = 0.04\\nmaterial_alternate_walls = True\\nmaterial_flow = 104.0
;SETTING_3 \\nmaterial_flow_layer_0 = 100\\nmaterial_initial_print_temperature =
;SETTING_3  =material_print_temperature\\nmaterial_print_temperature = 208\\nmat
;SETTING_3 erial_print_temperature_layer_0 = =material_print_temperature\\nretra
;SETTING_3 ction_amount = 6\\nretraction_extra_prime_amount = 0.75\\nretraction_
;SETTING_3 hop_only_when_collides = True\\nskin_material_flow = 100.0\\nskirt_br
;SETTING_3 im_material_flow = 92\\nspeed_print = 45\\nspeed_travel = 60\\nspeed_
;SETTING_3 wall = 45\\nsupport_angle = 60\\nsupport_bottom_enable = False\\nsupp
;SETTING_3 ort_interface_enable = True\\nsupport_material_flow = 92.0\\nsupport_
;SETTING_3 xy_distance = 0.6\\ntop_bottom_thickness = 1.6\\ntop_layers = =0 if i
;SETTING_3 nfill_sparse_density == 100 else math.ceil(round(top_thickness / reso
;SETTING_3 lveOrValue('layer_height'), 4))\\ntop_thickness = =top_bottom_thickne
;SETTING_3 ss\\ntravel_avoid_other_parts = False\\nwall_0_wipe_dist = 0\\nwall_l
;SETTING_3 ine_count = 5\\nwall_thickness = 1.2\\nwall_x_material_flow = 105.0\\
;SETTING_3 nz_seam_corner = z_seam_corner_none\\nz_seam_on_vertex = True\\n\\n"]
;SETTING_3 }
