;FLAVOR:Marlin
;TIME:1080
;Filament used: 1.52561m
;Layer height: 0.3
;MINX:73.345
;MINY:76.38
;MINZ:0.3
;MAXX:161.705
;MAXY:102.809
;MAXZ:21.9
;TARGET_MACHINE.NAME:Creality Ender-3
;Generated with Cura_SteamEngine 5.11.0
M140 S60
M105
M190 S60
M104 S212
M105
M109 S212
; Ender 3 Custom Start G-code
G92 E0 ; Reset Extruder
G28 ; Home all axes
G1 Z2.0 F3000 ; Move Z Axis up little to prevent scratching of Heat Bed
G1 X0.1 Y20 Z0.3 F5000.0 ; Move to start position
G1 X0.1 Y200.0 Z0.3 F1500.0 E15 ; Draw the first line
G1 X0.4 Y200.0 Z0.3 F5000.0 ; Move to side a little
G1 X0.4 Y20 Z0.3 F1500.0 E30 ; Draw the second line
G92 E0 ; Reset Extruder
G1 Z2.0 F3000 ; Move Z Axis up little to prevent scratching of Heat Bed
G1 X5 Y20 Z0.3 F5000.0 ; Move over to prevent blob squish
M82 ;absolute extrusion mode
G92 E0
G92 E0
G1 F1500 E-6.5
;LAYER_COUNT:73
;LAYER:0
M107
G0 F6000 X74.168 Y78.014 Z0.3
;TYPE:SKIRT
G1 F1500 E0
G1 F1200 X75.003 Y77.236 E0.05694
G1 X76.096 Y76.584 E0.12043
G1 X77.151 Y76.41 E0.17378
G1 X157.941 Y76.38 E4.20441
G1 X158.97 Y76.633 E4.25727
G1 X160.071 Y77.203 E4.31913
G1 X160.848 Y78.037 E4.376
G1 X161.462 Y79.07 E4.43595
G1 X161.513 Y79.214 E4.44357
G1 X161.695 Y80.435 E4.50516
G1 X161.705 Y81.777 E4.57211
G1 X161.458 Y82.793 E4.62428
G1 X160.882 Y83.906 E4.6868
G1 X160.047 Y84.684 E4.74374
G1 X158.954 Y85.336 E4.80724
G1 X157.899 Y85.51 E4.86058
G1 X77.109 Y85.54 E8.89121
G1 X76.08 Y85.287 E8.94408
G1 X74.979 Y84.717 E9.00593
G1 X74.202 Y83.883 E9.0628
G1 X73.588 Y82.85 E9.12275
G1 X73.537 Y82.706 E9.13037
G1 X73.355 Y81.485 E9.19196
G1 X73.345 Y80.143 E9.25892
G1 X73.592 Y79.127 E9.31108
G1 X74.168 Y78.014 E9.3736
G0 F6000 X74.49 Y78.261
G1 F1200 X75.245 Y77.558 E9.42507
G1 X76.236 Y76.967 E9.48264
G1 X77.216 Y76.805 E9.53219
G1 X157.895 Y76.78 E13.55729
G1 X158.827 Y77.009 E13.60517
G1 X159.824 Y77.525 E13.66117
G1 X160.527 Y78.28 E13.71264
G1 X161.118 Y79.274 E13.77034
G1 X161.295 Y80.438 E13.82907
G1 X161.305 Y81.729 E13.89349
G1 X161.08 Y82.654 E13.94098
G1 X160.56 Y83.659 E13.99743
G1 X159.805 Y84.362 E14.0489
G1 X158.814 Y84.953 E14.10647
G1 X157.834 Y85.115 E14.15602
G1 X77.155 Y85.14 E18.18111
G1 X76.223 Y84.911 E18.22899
G1 X75.226 Y84.395 E18.285
G1 X74.523 Y83.64 E18.33647
G1 X73.932 Y82.646 E18.39416
G1 X73.755 Y81.482 E18.4529
G1 X73.745 Y80.191 E18.51731
G1 X73.97 Y79.266 E18.56481
G1 X74.49 Y78.261 E18.62126
G0 F6000 X74.813 Y78.506
G1 F1200 X75.484 Y77.882 E18.66698
G1 X76.376 Y77.35 E18.71879
G1 X77.281 Y77.2 E18.76456
G1 X157.849 Y77.18 E22.78411
G1 X158.684 Y77.385 E22.82701
G1 X159.579 Y77.848 E22.87728
G1 X160.203 Y78.519 E22.923
G1 X160.735 Y79.413 E22.9749
G1 X160.895 Y80.441 E23.0268
G1 X160.905 Y81.681 E23.08867
G1 X160.702 Y82.515 E23.13149
G1 X160.237 Y83.414 E23.18199
G1 X159.566 Y84.038 E23.2277
G1 X158.674 Y84.57 E23.27952
G1 X157.769 Y84.72 E23.32528
G1 X77.201 Y84.74 E27.34484
G1 X76.366 Y84.535 E27.38773
G1 X75.471 Y84.072 E27.43801
G1 X74.847 Y83.401 E27.48372
G1 X74.315 Y82.507 E27.53562
G1 X74.155 Y81.479 E27.58753
G1 X74.145 Y80.239 E27.64939
G1 X74.348 Y79.405 E27.69222
G1 X74.813 Y78.506 E27.74271
G0 F6000 X75.136 Y78.751
G1 F1200 X75.723 Y78.206 E27.78267
G1 X76.516 Y77.733 E27.82874
G1 X77.347 Y77.595 E27.87077
G1 X157.803 Y77.58 E31.88473
G1 X158.541 Y77.761 E31.92264
G1 X159.334 Y78.171 E31.96718
G1 X159.879 Y78.758 E32.00714
G1 X160.352 Y79.552 E32.05325
G1 X160.495 Y80.444 E32.09832
G1 X160.505 Y81.633 E32.15764
G1 X160.324 Y82.376 E32.1958
G1 X159.914 Y83.169 E32.24033
G1 X159.327 Y83.714 E32.2803
G1 X158.534 Y84.187 E32.32636
G1 X157.703 Y84.325 E32.36839
G1 X77.247 Y84.34 E36.38236
G1 X76.509 Y84.159 E36.42027
G1 X75.716 Y83.749 E36.4648
G1 X75.171 Y83.162 E36.50476
G1 X74.698 Y82.368 E36.55087
G1 X74.555 Y81.476 E36.59594
G1 X74.545 Y80.287 E36.65527
G1 X74.726 Y79.544 E36.69342
G1 X75.136 Y78.751 E36.73796
G0 F6000 X75.459 Y78.996
G1 F1200 X75.962 Y78.53 E36.77217
G1 X76.656 Y78.116 E36.81248
G1 X77.413 Y77.99 E36.85077
G1 X157.753 Y77.98 E40.85895
G1 X158.402 Y78.139 E40.89228
G1 X159.089 Y78.494 E40.93086
G1 X159.555 Y78.997 E40.96507
G1 X159.969 Y79.691 E41.00539
G1 X160.095 Y80.448 E41.04368
G1 X160.105 Y81.585 E41.1004
G1 X159.946 Y82.237 E41.13388
G1 X159.591 Y82.924 E41.17246
G1 X159.088 Y83.39 E41.20667
G1 X158.394 Y83.804 E41.24699
G1 X157.637 Y83.93 E41.28528
G1 X77.297 Y83.94 E45.29346
G1 X76.648 Y83.781 E45.32679
G1 X75.961 Y83.426 E45.36537
G1 X75.495 Y82.923 E45.39958
G1 X75.081 Y82.229 E45.4399
G1 X74.955 Y81.472 E45.47818
G1 X74.945 Y80.335 E45.53491
G1 X75.104 Y79.683 E45.56839
G1 X75.459 Y78.996 E45.60697
G0 F6000 X75.782 Y79.242
G1 F1200 X76.201 Y78.854 E45.63546
G1 X76.796 Y78.499 E45.67003
G1 X77.479 Y78.385 E45.70458
G1 X157.703 Y78.38 E49.70697
G1 X158.263 Y78.517 E49.73573
G1 X158.843 Y78.817 E49.76831
G1 X159.231 Y79.236 E49.7968
G1 X159.586 Y79.831 E49.83137
G1 X159.7 Y80.514 E49.86591
G1 X159.705 Y81.537 E49.91695
G1 X159.568 Y82.098 E49.94576
G1 X159.268 Y82.678 E49.97834
G1 X158.849 Y83.066 E50.00683
G1 X158.254 Y83.421 E50.0414
G1 X157.571 Y83.535 E50.07594
G1 X77.347 Y83.54 E54.07833
G1 X76.787 Y83.403 E54.1071
G1 X76.207 Y83.103 E54.13967
G1 X75.819 Y82.684 E54.16816
G1 X75.464 Y82.089 E54.20273
G1 X75.35 Y81.406 E54.23728
G1 X75.345 Y80.383 E54.28832
G1 X75.482 Y79.822 E54.31713
G1 X75.782 Y79.242 E54.3497
G0 F6000 X76.105 Y79.488
G1 F1200 X75.86 Y79.961 E54.37628
G1 X75.745 Y80.432 E54.40047
G1 X75.745 Y81.34 E54.44577
G1 X75.847 Y81.951 E54.47667
G1 X76.14 Y82.442 E54.5052
G1 X76.453 Y82.78 E54.52818
G1 X76.926 Y83.025 E54.55476
G1 X77.397 Y83.14 E54.57895
G1 X157.505 Y83.14 E58.57555
G1 X158.116 Y83.038 E58.60646
G1 X158.607 Y82.745 E58.63498
G1 X158.945 Y82.432 E58.65796
G1 X159.19 Y81.959 E58.68454
G1 X159.305 Y81.488 E58.70873
G1 X159.305 Y80.58 E58.75403
G1 X159.203 Y79.969 E58.78493
G1 X158.91 Y79.478 E58.81346
G1 X158.597 Y79.14 E58.83644
G1 X158.124 Y78.895 E58.86302
G1 X157.653 Y78.78 E58.88721
G1 X77.545 Y78.78 E62.88381
G1 X76.934 Y78.882 E62.91472
G1 X76.443 Y79.175 E62.94324
G1 X76.105 Y79.488 E62.96623
G0 F6000 X76.428 Y79.734
G1 F1200 X76.238 Y80.1 E62.9868
G1 X76.145 Y80.482 E63.00641
G1 X76.145 Y81.34 E63.04922
G1 X76.23 Y81.813 E63.0732
G1 X76.461 Y82.2 E63.09568
G1 X76.699 Y82.457 E63.11316
G1 X77.065 Y82.647 E63.13373
G1 X77.447 Y82.74 E63.15334
G1 X157.505 Y82.74 E67.14745
G1 X157.978 Y82.655 E67.17143
G1 X158.365 Y82.424 E67.19392
G1 X158.622 Y82.186 E67.21139
G1 X158.812 Y81.82 E67.23197
G1 X158.905 Y81.438 E67.25158
G1 X158.905 Y80.58 E67.29439
G1 X158.82 Y80.107 E67.31836
G1 X158.589 Y79.72 E67.34085
G1 X158.351 Y79.463 E67.35832
G1 X157.985 Y79.273 E67.3789
G1 X157.603 Y79.18 E67.39851
G1 X77.545 Y79.18 E71.39262
G1 X77.072 Y79.265 E71.4166
G1 X76.685 Y79.496 E71.43908
G1 X76.428 Y79.734 E71.45656
G0 F6000 X76.752 Y79.979
G1 F1200 X76.615 Y80.242 E71.47135
G1 X76.545 Y80.531 E71.48619
G1 X76.545 Y81.34 E71.52655
G1 X76.61 Y81.668 E71.54323
G1 X76.805 Y81.995 E71.56223
G1 X76.944 Y82.133 E71.572
G1 X77.207 Y82.27 E71.58679
G1 X77.496 Y82.34 E71.60163
G1 X157.505 Y82.34 E75.59329
G1 X157.833 Y82.275 E75.60997
G1 X158.16 Y82.08 E75.62897
G1 X158.298 Y81.941 E75.63874
G1 X158.435 Y81.678 E75.65354
G1 X158.505 Y81.389 E75.66837
G1 X158.505 Y80.58 E75.70873
G1 X158.44 Y80.252 E75.72541
G1 X158.245 Y79.925 E75.74441
G1 X158.106 Y79.787 E75.75418
G1 X157.843 Y79.65 E75.76898
G1 X157.554 Y79.58 E75.78381
G1 X77.545 Y79.58 E79.77548
G1 X77.217 Y79.645 E79.79216
G1 X76.89 Y79.84 E79.81115
G1 X76.752 Y79.979 E79.82092
G0 F6000 X77.384 Y80.461
G1 F1200 X77.545 Y80.38 E79.82992
G1 X157.505 Y80.38 E83.81914
G1 X157.624 Y80.419 E83.82538
G1 X157.705 Y80.58 E83.83438
G1 X157.705 Y81.34 E83.87229
G1 X157.666 Y81.459 E83.87854
G1 X157.505 Y81.54 E83.88753
G1 X77.545 Y81.54 E87.87675
G1 X77.426 Y81.501 E87.883
G1 X77.345 Y81.34 E87.89199
G1 X77.345 Y80.58 E87.92991
G1 X77.384 Y80.461 E87.93616
G0 F6000 X77.004 Y80.336
G1 F1200 X76.945 Y80.58 E87.94868
G1 X76.945 Y81.34 E87.9866
G1 X76.988 Y81.52 E87.99583
G1 X77.149 Y81.79 E88.01151
G1 X77.301 Y81.881 E88.02035
G1 X77.545 Y81.94 E88.03288
G1 X157.505 Y81.94 E92.0221
G1 X157.685 Y81.897 E92.03133
G1 X157.955 Y81.736 E92.04701
G1 X158.046 Y81.584 E92.05585
G1 X158.105 Y81.34 E92.06837
G1 X158.105 Y80.58 E92.10629
G1 X158.062 Y80.4 E92.11552
G1 X157.901 Y80.13 E92.13121
G1 X157.749 Y80.039 E92.14005
G1 X157.505 Y79.98 E92.15257
G1 X77.545 Y79.98 E96.14179
G1 X77.365 Y80.023 E96.15102
G1 X77.095 Y80.184 E96.16671
G1 X77.004 Y80.336 E96.17555
G1 F1500 E89.67555
G0 F6000 X76.88 Y80.336
G0 X77.151 Y93.679
G1 F1500 E96.17555
G1 F1200 X157.941 Y93.649 E100.20618
G1 X158.97 Y93.902 E100.25904
G1 X160.071 Y94.472 E100.3209
G1 X160.848 Y95.306 E100.37776
G1 X161.462 Y96.339 E100.43772
G1 X161.513 Y96.483 E100.44534
G1 X161.695 Y97.704 E100.50693
G1 X161.705 Y99.046 E100.57388
G1 X161.458 Y100.062 E100.62605
G1 X160.882 Y101.175 E100.68857
G1 X160.047 Y101.953 E100.74551
G1 X158.954 Y102.605 E100.809
G1 X157.899 Y102.779 E100.86235
G1 X77.109 Y102.809 E104.89298
G1 X76.08 Y102.556 E104.94584
G1 X74.979 Y101.986 E105.0077
G1 X74.202 Y101.152 E105.06457
G1 X73.588 Y100.119 E105.12452
G1 X73.537 Y99.975 E105.13214
G1 X73.355 Y98.754 E105.19373
G1 X73.345 Y97.412 E105.26068
G1 X73.592 Y96.396 E105.31285
G1 X74.168 Y95.283 E105.37537
G1 X75.003 Y94.505 E105.43231
G1 X76.096 Y93.853 E105.4958
G1 X77.151 Y93.679 E105.54915
G0 F6000 X77.216 Y94.074
G1 F1200 X157.895 Y94.049 E109.57424
G1 X158.827 Y94.278 E109.62212
G1 X159.824 Y94.794 E109.67813
G1 X160.527 Y95.549 E109.7296
G1 X161.118 Y96.543 E109.78729
G1 X161.295 Y97.707 E109.84603
G1 X161.305 Y98.998 E109.91044
G1 X161.08 Y99.923 E109.95794
G1 X160.56 Y100.928 E110.01439
G1 X159.805 Y101.631 E110.06586
G1 X158.814 Y102.222 E110.12342
G1 X157.834 Y102.384 E110.17298
G1 X77.155 Y102.409 E114.19807
G1 X76.223 Y102.18 E114.24595
G1 X75.226 Y101.664 E114.30196
G1 X74.523 Y100.909 E114.35343
G1 X73.932 Y99.915 E114.41112
G1 X73.755 Y98.751 E114.46986
G1 X73.745 Y97.46 E114.53427
G1 X73.97 Y96.535 E114.58176
G1 X74.49 Y95.53 E114.63822
G1 X75.245 Y94.827 E114.68969
G1 X76.236 Y94.236 E114.74725
G1 X77.216 Y94.074 E114.79681
G0 F6000 X77.281 Y94.469
G1 F1200 X157.849 Y94.449 E118.81636
G1 X158.684 Y94.654 E118.85926
G1 X159.579 Y95.117 E118.90953
G1 X160.203 Y95.788 E118.95524
G1 X160.735 Y96.682 E119.00715
G1 X160.895 Y97.71 E119.05905
G1 X160.905 Y98.95 E119.12092
G1 X160.702 Y99.784 E119.16374
G1 X160.237 Y100.683 E119.21424
G1 X159.566 Y101.307 E119.25995
G1 X158.674 Y101.839 E119.31177
G1 X157.769 Y101.989 E119.35753
G1 X77.201 Y102.009 E123.37709
G1 X76.366 Y101.804 E123.41998
G1 X75.471 Y101.341 E123.47025
G1 X74.847 Y100.67 E123.51597
G1 X74.315 Y99.776 E123.56787
G1 X74.155 Y98.748 E123.61978
G1 X74.145 Y97.508 E123.68164
G1 X74.348 Y96.674 E123.72446
G1 X74.813 Y95.775 E123.77496
G1 X75.484 Y95.151 E123.82068
G1 X76.376 Y94.619 E123.87249
G1 X77.281 Y94.469 E123.91826
G0 F6000 X77.347 Y94.864
G1 F1200 X157.803 Y94.849 E127.93222
G1 X158.541 Y95.03 E127.97013
G1 X159.334 Y95.44 E128.01467
G1 X159.879 Y96.027 E128.05463
G1 X160.352 Y96.821 E128.10074
G1 X160.495 Y97.713 E128.14581
G1 X160.505 Y98.902 E128.20513
G1 X160.324 Y99.645 E128.24329
G1 X159.914 Y100.438 E128.28783
G1 X159.327 Y100.983 E128.32779
G1 X158.534 Y101.456 E128.37385
G1 X157.703 Y101.594 E128.41588
G1 X77.247 Y101.609 E132.42985
G1 X76.509 Y101.428 E132.46776
G1 X75.716 Y101.018 E132.51229
G1 X75.171 Y100.431 E132.55226
G1 X74.698 Y99.637 E132.59837
G1 X74.555 Y98.745 E132.64344
G1 X74.545 Y97.556 E132.70276
G1 X74.726 Y96.813 E132.74091
G1 X75.136 Y96.02 E132.78545
G1 X75.723 Y95.475 E132.82541
G1 X76.516 Y95.002 E132.87148
G1 X77.347 Y94.864 E132.9135
G0 F6000 X77.413 Y95.259
G1 F1200 X157.753 Y95.249 E136.92168
G1 X158.402 Y95.408 E136.95502
G1 X159.089 Y95.763 E136.9936
G1 X159.555 Y96.266 E137.02781
G1 X159.969 Y96.96 E137.06812
G1 X160.095 Y97.717 E137.10641
G1 X160.105 Y98.854 E137.16314
G1 X159.946 Y99.506 E137.19662
G1 X159.591 Y100.193 E137.2352
G1 X159.088 Y100.659 E137.26941
G1 X158.394 Y101.073 E137.30972
G1 X157.637 Y101.199 E137.34801
G1 X77.297 Y101.209 E141.35619
G1 X76.648 Y101.05 E141.38953
G1 X75.961 Y100.695 E141.42811
G1 X75.495 Y100.192 E141.46231
G1 X75.081 Y99.498 E141.50263
G1 X74.955 Y98.741 E141.54092
G1 X74.945 Y97.604 E141.59764
G1 X75.104 Y96.952 E141.63113
G1 X75.459 Y96.265 E141.66971
G1 X75.962 Y95.799 E141.70392
G1 X76.656 Y95.385 E141.74423
G1 X77.413 Y95.259 E141.78252
G0 F6000 X77.479 Y95.654
G1 F1200 X157.703 Y95.649 E145.78491
G1 X158.263 Y95.786 E145.81367
G1 X158.843 Y96.086 E145.84625
G1 X159.231 Y96.505 E145.87474
G1 X159.586 Y97.1 E145.90931
G1 X159.7 Y97.783 E145.94385
G1 X159.705 Y98.806 E145.99489
G1 X159.568 Y99.367 E146.0237
G1 X159.268 Y99.947 E146.05628
G1 X158.849 Y100.335 E146.08477
G1 X158.254 Y100.69 E146.11934
G1 X157.571 Y100.804 E146.15388
G1 X77.347 Y100.809 E150.15628
G1 X76.787 Y100.672 E150.18504
G1 X76.207 Y100.372 E150.21762
G1 X75.819 Y99.953 E150.24611
G1 X75.464 Y99.358 E150.28067
G1 X75.35 Y98.675 E150.31522
G1 X75.345 Y97.652 E150.36626
G1 X75.482 Y97.091 E150.39507
G1 X75.782 Y96.511 E150.42765
G1 X76.201 Y96.123 E150.45614
G1 X76.796 Y95.768 E150.4907
G1 X77.479 Y95.654 E150.52525
G0 F6000 X77.545 Y96.049
G1 F1200 X157.653 Y96.049 E154.52185
G1 X158.124 Y96.164 E154.54604
G1 X158.597 Y96.409 E154.57262
G1 X158.91 Y96.747 E154.5956
G1 X159.203 Y97.238 E154.62413
G1 X159.305 Y97.849 E154.65503
G1 X159.305 Y98.757 E154.70033
G1 X159.19 Y99.228 E154.72452
G1 X158.945 Y99.701 E154.7511
G1 X158.607 Y100.014 E154.77408
G1 X158.116 Y100.307 E154.80261
G1 X157.505 Y100.409 E154.83351
G1 X77.397 Y100.409 E158.83011
G1 X76.926 Y100.294 E158.8543
G1 X76.453 Y100.049 E158.88088
G1 X76.14 Y99.711 E158.90386
G1 X75.847 Y99.22 E158.93239
G1 X75.745 Y98.609 E158.96329
G1 X75.745 Y97.701 E159.00859
G1 X75.86 Y97.23 E159.03278
G1 X76.105 Y96.757 E159.05936
G1 X76.443 Y96.444 E159.08234
G1 X76.934 Y96.151 E159.11087
G1 X77.545 Y96.049 E159.14177
G0 F6000 X77.545 Y96.449
G1 F1200 X157.603 Y96.449 E163.13588
G1 X157.985 Y96.542 E163.1555
G1 X158.351 Y96.732 E163.17607
G1 X158.589 Y96.989 E163.19354
G1 X158.82 Y97.376 E163.21603
G1 X158.905 Y97.849 E163.24001
G1 X158.905 Y98.707 E163.28281
G1 X158.812 Y99.089 E163.30243
G1 X158.622 Y99.455 E163.323
G1 X158.365 Y99.693 E163.34048
G1 X157.978 Y99.924 E163.36296
G1 X157.505 Y100.009 E163.38694
G1 X77.447 Y100.009 E167.38105
G1 X77.065 Y99.916 E167.40066
G1 X76.699 Y99.726 E167.42124
G1 X76.461 Y99.469 E167.43871
G1 X76.23 Y99.082 E167.4612
G1 X76.145 Y98.609 E167.48517
G1 X76.145 Y97.751 E167.52798
G1 X76.238 Y97.369 E167.54759
G1 X76.428 Y97.003 E167.56817
G1 X76.685 Y96.765 E167.58564
G1 X77.072 Y96.534 E167.60813
G1 X77.545 Y96.449 E167.6321
G0 F6000 X77.545 Y96.849
G1 F1200 X77.217 Y96.914 E167.64879
G1 X76.89 Y97.109 E167.66778
G1 X76.752 Y97.248 E167.67755
G1 X76.615 Y97.511 E167.69235
G1 X76.545 Y97.8 E167.70718
G1 X76.545 Y98.609 E167.74754
G1 X76.61 Y98.937 E167.76423
G1 X76.805 Y99.264 E167.78322
G1 X76.944 Y99.402 E167.79299
G1 X77.207 Y99.539 E167.80779
G1 X77.496 Y99.609 E167.82262
G1 X157.505 Y99.609 E171.81429
G1 X157.833 Y99.544 E171.83097
G1 X158.16 Y99.349 E171.84996
G1 X158.298 Y99.21 E171.85974
G1 X158.435 Y98.947 E171.87453
G1 X158.505 Y98.658 E171.88937
G1 X158.505 Y97.849 E171.92973
G1 X158.44 Y97.521 E171.94641
G1 X158.245 Y97.194 E171.9654
G1 X158.106 Y97.056 E171.97518
G1 X157.843 Y96.919 E171.98997
G1 X157.554 Y96.849 E172.00481
G1 X77.545 Y96.849 E175.99647
G0 F6000 X77.545 Y97.649
G1 F1200 X157.505 Y97.649 E179.98569
G1 X157.624 Y97.688 E179.99194
G1 X157.705 Y97.849 E180.00093
G1 X157.705 Y98.609 E180.03885
G1 X157.666 Y98.728 E180.04509
G1 X157.505 Y98.809 E180.05409
G1 X77.545 Y98.809 E184.04331
G1 X77.426 Y98.77 E184.04955
G1 X77.345 Y98.609 E184.05855
G1 X77.345 Y97.849 E184.09646
G1 X77.384 Y97.73 E184.10271
G1 X77.545 Y97.649 E184.1117
G0 F6000 X77.365 Y97.292
G1 F1200 X77.545 Y97.249 E184.12093
G1 X157.505 Y97.249 E188.11016
G1 X157.749 Y97.308 E188.12268
G1 X157.901 Y97.399 E188.13152
G1 X158.062 Y97.669 E188.1472
G1 X158.105 Y97.849 E188.15643
G1 X158.105 Y98.609 E188.19435
G1 X158.046 Y98.853 E188.20687
G1 X157.955 Y99.005 E188.21571
G1 X157.685 Y99.166 E188.2314
G1 X157.505 Y99.209 E188.24063
G1 X77.545 Y99.209 E192.22985
G1 X77.301 Y99.15 E192.24237
G1 X77.149 Y99.059 E192.25121
G1 X76.988 Y98.789 E192.2669
G1 X76.945 Y98.609 E192.27613
G1 X76.945 Y97.849 E192.31405
G1 X77.004 Y97.605 E192.32657
G1 X77.095 Y97.453 E192.33541
G1 X77.365 Y97.292 E192.35109
G1 F1500 E185.85109
;MESH:90deg_h40_w80_t36.STL
G0 F6000 X77.365 Y97.184
G0 X157.314 Y82.005
G0 X157.314 Y81.15
;TYPE:WALL-OUTER
G1 F1500 E192.35109
G1 F1263.2 X77.734 Y81.15 E196.6886
G1 X77.734 Y80.77 E196.70931
G1 X156.969 Y80.77 E201.02802
G0 F1080 X157.314 Y80.77
G0 X157.314 Y81.15
G0 F6000 X156.714 Y81.15
G1 F1500 E194.52802
;MESH:90deg_h40_w80_t36.STL(1)
G0 F6000 X156.714 Y82.005
G0 X158.158 Y97.196
G0 X158.17 Y98.418
G0 X157.314 Y98.418
G1 F1500 E201.02802
G1 F1263.2 X77.734 Y98.418 E205.36553
G1 X77.734 Y98.038 E205.38625
G1 X156.969 Y98.038 E209.70495
G0 F1080 X157.314 Y98.038
G0 X157.314 Y98.418
G0 F6000 X156.714 Y98.418
G1 F1500 E203.20495
;MESH:NONMESH
G0 F300 X156.714 Y98.418 Z0.6
G0 F6000 X156.714 Y97.184
G0 X157.324 Y82.005
G0 X157.324 Y81.16
;TIME_ELAPSED:218.310916
;LAYER:1
;note -- min layer time used
M106 S12.8
;TYPE:WALL-OUTER
;MESH:90deg_h40_w80_t36.STL
G1 F1500 E209.70495
G1 F2014.6 X77.724 Y81.16 E214.2719
G1 X77.724 Y80.76 E214.29485
G1 X156.999 Y80.76 E218.84315
G0 F1890 X157.324 Y80.76
G0 X157.324 Y81.16
G0 F10500 X156.724 Y81.16
G1 F1500 E212.34315
;MESH:90deg_h40_w80_t36.STL(1)
G0 F10500 X156.724 Y82.025
G0 X158.178 Y97.176
G0 X158.19 Y98.428
G0 X157.324 Y98.428
G1 F1500 E218.84315
G1 F2014.6 X77.724 Y98.428 E223.4101
G1 X77.724 Y98.028 E223.43305
G1 X156.999 Y98.028 E227.98136
G0 F1890 X157.324 Y98.028
G0 X157.324 Y98.428
G0 F10500 X156.724 Y98.428
G1 F1500 E221.48136
;MESH:NONMESH
G0 F300 X156.724 Y98.428 Z0.9
G0 F10500 X156.724 Y97.164
G0 X157.324 Y82.025
G0 X157.324 Y81.16
;TIME_ELAPSED:230.236569
;LAYER:2
;note -- min layer time used
M106 S25.5
;TYPE:WALL-OUTER
;MESH:90deg_h40_w80_t36.STL
G1 F1500 E227.98136
G1 F2001.4 X77.724 Y81.16 E232.5483
G1 X77.724 Y80.76 E232.57125
G1 X156.999 Y80.76 E237.11956
G0 F2700 X157.324 Y80.76
G0 X157.324 Y81.16
G0 F15000 X156.724 Y81.16
G1 F1500 E230.61956
;MESH:90deg_h40_w80_t36.STL(1)
G0 F15000 X156.724 Y82.025
G0 X158.178 Y97.176
G0 X158.19 Y98.428
G0 X157.324 Y98.428
G1 F1500 E237.11956
G1 F2001.4 X77.724 Y98.428 E241.68651
G1 X77.724 Y98.028 E241.70946
G1 X156.999 Y98.028 E246.25776
G0 F2700 X157.324 Y98.028
G0 X157.324 Y98.428
G0 F15000 X156.724 Y98.428
G1 F1500 E239.75776
;MESH:NONMESH
G0 F300 X156.724 Y98.428 Z1.2
G0 F15000 X156.724 Y97.164
G0 X157.324 Y82.025
G0 X157.324 Y81.16
;TIME_ELAPSED:242.228224
;LAYER:3
;note -- min layer time used
;TYPE:WALL-OUTER
;MESH:90deg_h40_w80_t36.STL
G1 F1500 E246.25776
G1 F2001.4 X77.724 Y81.16 E250.82471
G1 X77.724 Y80.76 E250.84766
G1 X156.999 Y80.76 E255.39596
G0 F2700 X157.324 Y80.76
G0 X157.324 Y81.16
G0 F15000 X156.724 Y81.16
G1 F1500 E248.89596
;MESH:90deg_h40_w80_t36.STL(1)
G0 F15000 X156.724 Y82.025
G0 X158.178 Y97.176
G0 X158.19 Y98.428
G0 X157.324 Y98.428
G1 F1500 E255.39596
G1 F2001.4 X77.724 Y98.428 E259.96291
G1 X77.724 Y98.028 E259.98586
G1 X156.999 Y98.028 E264.53416
G0 F2700 X157.324 Y98.028
G0 X157.324 Y98.428
G0 F15000 X156.724 Y98.428
G1 F1500 E258.03416
;MESH:NONMESH
G0 F300 X156.724 Y98.428 Z1.5
G0 F15000 X156.724 Y97.164
G0 X157.324 Y82.025
G0 X157.324 Y81.16
;TIME_ELAPSED:254.219878
;LAYER:4
;note -- min layer time used
;TYPE:WALL-OUTER
;MESH:90deg_h40_w80_t36.STL
G1 F1500 E264.53416
G1 F2001.4 X77.724 Y81.16 E269.10111
G1 X77.724 Y80.76 E269.12406
G1 X156.999 Y80.76 E273.67236
G0 F2700 X157.324 Y80.76
G0 X157.324 Y81.16
G0 F15000 X156.724 Y81.16
G1 F1500 E267.17236
;MESH:90deg_h40_w80_t36.STL(1)
G0 F15000 X156.724 Y82.025
G0 X158.178 Y97.176
G0 X158.19 Y98.428
G0 X157.324 Y98.428
G1 F1500 E273.67236
G1 F2001.4 X77.724 Y98.428 E278.23931
G1 X77.724 Y98.028 E278.26226
G1 X156.999 Y98.028 E282.81056
G0 F2700 X157.324 Y98.028
G0 X157.324 Y98.428
G0 F15000 X156.724 Y98.428
G1 F1500 E276.31056
;MESH:NONMESH
G0 F300 X156.724 Y98.428 Z1.8
G0 F15000 X156.724 Y97.164
G0 X157.324 Y82.025
G0 X157.324 Y81.16
;TIME_ELAPSED:266.211532
;LAYER:5
;note -- min layer time used
;TYPE:WALL-OUTER
;MESH:90deg_h40_w80_t36.STL
G1 F1500 E282.81056
G1 F2001.4 X77.724 Y81.16 E287.37751
G1 X77.724 Y80.76 E287.40046
G1 X156.999 Y80.76 E291.94876
G0 F2700 X157.324 Y80.76
G0 X157.324 Y81.16
G0 F15000 X156.724 Y81.16
G1 F1500 E285.44876
;MESH:90deg_h40_w80_t36.STL(1)
G0 F15000 X156.724 Y82.025
G0 X158.178 Y97.176
G0 X158.19 Y98.428
G0 X157.324 Y98.428
G1 F1500 E291.94876
G1 F2001.4 X77.724 Y98.428 E296.51571
G1 X77.724 Y98.028 E296.53866
G1 X156.999 Y98.028 E301.08697
G0 F2700 X157.324 Y98.028
G0 X157.324 Y98.428
G0 F15000 X156.724 Y98.428
G1 F1500 E294.58697
;MESH:NONMESH
G0 F300 X156.724 Y98.428 Z2.1
G0 F15000 X156.724 Y97.164
G0 X157.324 Y82.025
G0 X157.324 Y81.16
;TIME_ELAPSED:278.203187
;LAYER:6
;note -- min layer time used
;TYPE:WALL-OUTER
;MESH:90deg_h40_w80_t36.STL
G1 F1500 E301.08697
G1 F2001.4 X77.724 Y81.16 E305.65392
G1 X77.724 Y80.76 E305.67686
G1 X156.999 Y80.76 E310.22517
G0 F2700 X157.324 Y80.76
G0 X157.324 Y81.16
G0 F15000 X156.724 Y81.16
G1 F1500 E303.72517
;MESH:90deg_h40_w80_t36.STL(1)
G0 F15000 X156.724 Y82.025
G0 X158.178 Y97.176
G0 X158.19 Y98.428
G0 X157.324 Y98.428
G1 F1500 E310.22517
G1 F2001.4 X77.724 Y98.428 E314.79212
G1 X77.724 Y98.028 E314.81507
G1 X156.999 Y98.028 E319.36337
G0 F2700 X157.324 Y98.028
G0 X157.324 Y98.428
G0 F15000 X156.724 Y98.428
G1 F1500 E312.86337
;MESH:NONMESH
G0 F300 X156.724 Y98.428 Z2.4
G0 F15000 X156.724 Y97.164
G0 X157.324 Y82.025
G0 X157.324 Y81.16
;TIME_ELAPSED:290.194841
;LAYER:7
;note -- min layer time used
;TYPE:WALL-OUTER
;MESH:90deg_h40_w80_t36.STL
G1 F1500 E319.36337
G1 F2001.4 X77.724 Y81.16 E323.93032
G1 X77.724 Y80.76 E323.95327
G1 X156.999 Y80.76 E328.50157
G0 F2700 X157.324 Y80.76
G0 X157.324 Y81.16
G0 F15000 X156.724 Y81.16
G1 F1500 E322.00157
;MESH:90deg_h40_w80_t36.STL(1)
G0 F15000 X156.724 Y82.025
G0 X158.178 Y97.176
G0 X158.19 Y98.428
G0 X157.324 Y98.428
G1 F1500 E328.50157
G1 F2001.4 X77.724 Y98.428 E333.06852
G1 X77.724 Y98.028 E333.09147
G1 X156.999 Y98.028 E337.63977
G0 F2700 X157.324 Y98.028
G0 X157.324 Y98.428
G0 F15000 X156.724 Y98.428
G1 F1500 E331.13977
;MESH:NONMESH
G0 F300 X156.724 Y98.428 Z2.7
G0 F15000 X156.724 Y97.164
G0 X157.324 Y82.025
G0 X157.324 Y81.16
;TIME_ELAPSED:302.186496
;LAYER:8
;note -- min layer time used
;TYPE:WALL-OUTER
;MESH:90deg_h40_w80_t36.STL
G1 F1500 E337.63977
G1 F2001.4 X77.724 Y81.16 E342.20672
G1 X77.724 Y80.76 E342.22967
G1 X156.999 Y80.76 E346.77797
G0 F2700 X157.324 Y80.76
G0 X157.324 Y81.16
G0 F15000 X156.724 Y81.16
G1 F1500 E340.27797
;MESH:90deg_h40_w80_t36.STL(1)
G0 F15000 X156.724 Y82.025
G0 X158.178 Y97.176
G0 X158.19 Y98.428
G0 X157.324 Y98.428
G1 F1500 E346.77797
G1 F2001.4 X77.724 Y98.428 E351.34492
G1 X77.724 Y98.028 E351.36787
G1 X156.999 Y98.028 E355.91617
G0 F2700 X157.324 Y98.028
G0 X157.324 Y98.428
G0 F15000 X156.724 Y98.428
G1 F1500 E349.41617
;MESH:NONMESH
G0 F300 X156.724 Y98.428 Z3
G0 F15000 X156.724 Y97.164
G0 X157.324 Y82.025
G0 X157.324 Y81.16
;TIME_ELAPSED:314.178150
;LAYER:9
;note -- min layer time used
;TYPE:WALL-OUTER
;MESH:90deg_h40_w80_t36.STL
G1 F1500 E355.91617
G1 F2001.4 X77.724 Y81.16 E360.48312
G1 X77.724 Y80.76 E360.50607
G1 X156.999 Y80.76 E365.05438
G0 F2700 X157.324 Y80.76
G0 X157.324 Y81.16
G0 F15000 X156.724 Y81.16
G1 F1500 E358.55438
;MESH:90deg_h40_w80_t36.STL(1)
G0 F15000 X156.724 Y82.025
G0 X158.178 Y97.176
G0 X158.19 Y98.428
G0 X157.324 Y98.428
G1 F1500 E365.05438
G1 F2001.4 X77.724 Y98.428 E369.62132
G1 X77.724 Y98.028 E369.64427
G1 X156.999 Y98.028 E374.19258
G0 F2700 X157.324 Y98.028
G0 X157.324 Y98.428
G0 F15000 X156.724 Y98.428
G1 F1500 E367.69258
;MESH:NONMESH
G0 F300 X156.724 Y98.428 Z3.3
G0 F15000 X156.724 Y97.164
G0 X157.324 Y82.025
G0 X157.324 Y81.16
;TIME_ELAPSED:326.169804
;LAYER:10
;note -- min layer time used
;TYPE:WALL-OUTER
;MESH:90deg_h40_w80_t36.STL
G1 F1500 E374.19258
G1 F2001.4 X77.724 Y81.16 E378.75953
G1 X77.724 Y80.76 E378.78248
G1 X156.999 Y80.76 E383.33078
G0 F2700 X157.324 Y80.76
G0 X157.324 Y81.16
G0 F15000 X156.724 Y81.16
G1 F1500 E376.83078
;MESH:90deg_h40_w80_t36.STL(1)
G0 F15000 X156.724 Y82.025
G0 X158.178 Y97.176
G0 X158.19 Y98.428
G0 X157.324 Y98.428
G1 F1500 E383.33078
G1 F2001.4 X77.724 Y98.428 E387.89773
G1 X77.724 Y98.028 E387.92068
G1 X156.999 Y98.028 E392.46898
G0 F2700 X157.324 Y98.028
G0 X157.324 Y98.428
G0 F15000 X156.724 Y98.428
G1 F1500 E385.96898
;MESH:NONMESH
G0 F300 X156.724 Y98.428 Z3.6
G0 F15000 X156.724 Y97.164
G0 X157.324 Y82.025
G0 X157.324 Y81.16
;TIME_ELAPSED:338.161459
;LAYER:11
;note -- min layer time used
;TYPE:WALL-OUTER
;MESH:90deg_h40_w80_t36.STL
G1 F1500 E392.46898
G1 F2001.4 X77.724 Y81.16 E397.03593
G1 X77.724 Y80.76 E397.05888
G1 X156.999 Y80.76 E401.60718
G0 F2700 X157.324 Y80.76
G0 X157.324 Y81.16
G0 F15000 X156.724 Y81.16
G1 F1500 E395.10718
;MESH:90deg_h40_w80_t36.STL(1)
G0 F15000 X156.724 Y82.025
G0 X158.178 Y97.176
G0 X158.19 Y98.428
G0 X157.324 Y98.428
G1 F1500 E401.60718
G1 F2001.4 X77.724 Y98.428 E406.17413
G1 X77.724 Y98.028 E406.19708
G1 X156.999 Y98.028 E410.74538
G0 F2700 X157.324 Y98.028
G0 X157.324 Y98.428
G0 F15000 X156.724 Y98.428
G1 F1500 E404.24538
;MESH:NONMESH
G0 F300 X156.724 Y98.428 Z3.9
G0 F15000 X156.724 Y97.164
G0 X157.324 Y82.025
G0 X157.324 Y81.16
;TIME_ELAPSED:350.153113
;LAYER:12
;note -- min layer time used
;TYPE:WALL-OUTER
;MESH:90deg_h40_w80_t36.STL
G1 F1500 E410.74538
G1 F2001.4 X77.724 Y81.16 E415.31233
G1 X77.724 Y80.76 E415.33528
G1 X156.999 Y80.76 E419.88358
G0 F2700 X157.324 Y80.76
G0 X157.324 Y81.16
G0 F15000 X156.724 Y81.16
G1 F1500 E413.38358
;MESH:90deg_h40_w80_t36.STL(1)
G0 F15000 X156.724 Y82.025
G0 X158.178 Y97.176
G0 X158.19 Y98.428
G0 X157.324 Y98.428
G1 F1500 E419.88358
G1 F2001.4 X77.724 Y98.428 E424.45053
G1 X77.724 Y98.028 E424.47348
G1 X156.999 Y98.028 E429.02178
G0 F2700 X157.324 Y98.028
G0 X157.324 Y98.428
G0 F15000 X156.724 Y98.428
G1 F1500 E422.52178
;MESH:NONMESH
G0 F300 X156.724 Y98.428 Z4.2
G0 F15000 X156.724 Y97.164
G0 X157.324 Y82.025
G0 X157.324 Y81.16
;TIME_ELAPSED:362.144767
;LAYER:13
;note -- min layer time used
;TYPE:WALL-OUTER
;MESH:90deg_h40_w80_t36.STL
G1 F1500 E429.02178
G1 F2001.4 X77.724 Y81.16 E433.58873
G1 X77.724 Y80.76 E433.61168
G1 X156.999 Y80.76 E438.15999
G0 F2700 X157.324 Y80.76
G0 X157.324 Y81.16
G0 F15000 X156.724 Y81.16
G1 F1500 E431.65999
;MESH:90deg_h40_w80_t36.STL(1)
G0 F15000 X156.724 Y82.025
G0 X158.178 Y97.176
G0 X158.19 Y98.428
G0 X157.324 Y98.428
G1 F1500 E438.15999
G1 F2001.4 X77.724 Y98.428 E442.72693
G1 X77.724 Y98.028 E442.74988
G1 X156.999 Y98.028 E447.29819
G0 F2700 X157.324 Y98.028
G0 X157.324 Y98.428
G0 F15000 X156.724 Y98.428
G1 F1500 E440.79819
;MESH:NONMESH
G0 F300 X156.724 Y98.428 Z4.5
G0 F15000 X156.724 Y97.164
G0 X157.324 Y82.025
G0 X157.324 Y81.16
;TIME_ELAPSED:374.136422
;LAYER:14
;note -- min layer time used
;TYPE:WALL-OUTER
;MESH:90deg_h40_w80_t36.STL
G1 F1500 E447.29819
G1 F2001.4 X77.724 Y81.16 E451.86514
G1 X77.724 Y80.76 E451.88809
G1 X156.999 Y80.76 E456.43639
G0 F2700 X157.324 Y80.76
G0 X157.324 Y81.16
G0 F15000 X156.724 Y81.16
G1 F1500 E449.93639
;MESH:90deg_h40_w80_t36.STL(1)
G0 F15000 X156.724 Y82.025
G0 X158.178 Y97.176
G0 X158.19 Y98.428
G0 X157.324 Y98.428
G1 F1500 E456.43639
G1 F2001.4 X77.724 Y98.428 E461.00334
G1 X77.724 Y98.028 E461.02629
G1 X156.999 Y98.028 E465.57459
G0 F2700 X157.324 Y98.028
G0 X157.324 Y98.428
G0 F15000 X156.724 Y98.428
G1 F1500 E459.07459
;MESH:NONMESH
G0 F300 X156.724 Y98.428 Z4.8
G0 F15000 X156.724 Y97.164
G0 X157.324 Y82.025
G0 X157.324 Y81.16
;TIME_ELAPSED:386.128076
;LAYER:15
;note -- min layer time used
;TYPE:WALL-OUTER
;MESH:90deg_h40_w80_t36.STL
G1 F1500 E465.57459
G1 F2001.4 X77.724 Y81.16 E470.14154
G1 X77.724 Y80.76 E470.16449
G1 X156.999 Y80.76 E474.71279
G0 F2700 X157.324 Y80.76
G0 X157.324 Y81.16
G0 F15000 X156.724 Y81.16
G1 F1500 E468.21279
;MESH:90deg_h40_w80_t36.STL(1)
G0 F15000 X156.724 Y82.025
G0 X158.178 Y97.176
G0 X158.19 Y98.428
G0 X157.324 Y98.428
G1 F1500 E474.71279
G1 F2001.4 X77.724 Y98.428 E479.27974
G1 X77.724 Y98.028 E479.30269
G1 X156.999 Y98.028 E483.85099
G0 F2700 X157.324 Y98.028
G0 X157.324 Y98.428
G0 F15000 X156.724 Y98.428
G1 F1500 E477.35099
;MESH:NONMESH
G0 F300 X156.724 Y98.428 Z5.1
G0 F15000 X156.724 Y97.164
G0 X157.324 Y82.025
G0 X157.324 Y81.16
;TIME_ELAPSED:398.119731
;LAYER:16
;note -- min layer time used
;TYPE:WALL-OUTER
;MESH:90deg_h40_w80_t36.STL
G1 F1500 E483.85099
G1 F2001.4 X77.724 Y81.16 E488.41794
G1 X77.724 Y80.76 E488.44089
G1 X156.999 Y80.76 E492.98919
G0 F2700 X157.324 Y80.76
G0 X157.324 Y81.16
G0 F15000 X156.724 Y81.16
G1 F1500 E486.48919
;MESH:90deg_h40_w80_t36.STL(1)
G0 F15000 X156.724 Y82.025
G0 X158.178 Y97.176
G0 X158.19 Y98.428
G0 X157.324 Y98.428
G1 F1500 E492.98919
G1 F2001.4 X77.724 Y98.428 E497.55614
G1 X77.724 Y98.028 E497.57909
G1 X156.999 Y98.028 E502.12739
G0 F2700 X157.324 Y98.028
G0 X157.324 Y98.428
G0 F15000 X156.724 Y98.428
G1 F1500 E495.62739
;MESH:NONMESH
G0 F300 X156.724 Y98.428 Z5.4
G0 F15000 X156.724 Y97.164
G0 X157.324 Y82.025
G0 X157.324 Y81.16
;TIME_ELAPSED:410.111385
;LAYER:17
;note -- min layer time used
;TYPE:WALL-OUTER
;MESH:90deg_h40_w80_t36.STL
G1 F1500 E502.12739
G1 F2001.4 X77.724 Y81.16 E506.69434
G1 X77.724 Y80.76 E506.71729
G1 X156.999 Y80.76 E511.2656
G0 F2700 X157.324 Y80.76
G0 X157.324 Y81.16
G0 F15000 X156.724 Y81.16
G1 F1500 E504.7656
;MESH:90deg_h40_w80_t36.STL(1)
G0 F15000 X156.724 Y82.025
G0 X158.178 Y97.176
G0 X158.19 Y98.428
G0 X157.324 Y98.428
G1 F1500 E511.2656
G1 F2001.4 X77.724 Y98.428 E515.83255
G1 X77.724 Y98.028 E515.85549
G1 X156.999 Y98.028 E520.4038
G0 F2700 X157.324 Y98.028
G0 X157.324 Y98.428
G0 F15000 X156.724 Y98.428
G1 F1500 E513.9038
;MESH:NONMESH
G0 F300 X156.724 Y98.428 Z5.7
G0 F15000 X156.724 Y97.164
G0 X157.324 Y82.025
G0 X157.324 Y81.16
;TIME_ELAPSED:422.103039
;LAYER:18
;note -- min layer time used
;TYPE:WALL-OUTER
;MESH:90deg_h40_w80_t36.STL
G1 F1500 E520.4038
G1 F2001.4 X77.724 Y81.16 E524.97075
G1 X77.724 Y80.76 E524.9937
G1 X156.999 Y80.76 E529.542
G0 F2700 X157.324 Y80.76
G0 X157.324 Y81.16
G0 F15000 X156.724 Y81.16
G1 F1500 E523.042
;MESH:90deg_h40_w80_t36.STL(1)
G0 F15000 X156.724 Y82.025
G0 X158.178 Y97.176
G0 X158.19 Y98.428
G0 X157.324 Y98.428
G1 F1500 E529.542
G1 F2001.4 X77.724 Y98.428 E534.10895
G1 X77.724 Y98.028 E534.1319
G1 X156.999 Y98.028 E538.6802
G0 F2700 X157.324 Y98.028
G0 X157.324 Y98.428
G0 F15000 X156.724 Y98.428
G1 F1500 E532.1802
;MESH:NONMESH
G0 F300 X156.724 Y98.428 Z6
G0 F15000 X156.724 Y97.164
G0 X157.324 Y82.025
G0 X157.324 Y81.16
;TIME_ELAPSED:434.094694
;LAYER:19
;note -- min layer time used
;TYPE:WALL-OUTER
;MESH:90deg_h40_w80_t36.STL
G1 F1500 E538.6802
G1 F2001.4 X77.724 Y81.16 E543.24715
G1 X77.724 Y80.76 E543.2701
G1 X156.999 Y80.76 E547.8184
G0 F2700 X157.324 Y80.76
G0 X157.324 Y81.16
G0 F15000 X156.724 Y81.16
G1 F1500 E541.3184
;MESH:90deg_h40_w80_t36.STL(1)
G0 F15000 X156.724 Y82.025
G0 X158.178 Y97.176
G0 X158.19 Y98.428
G0 X157.324 Y98.428
G1 F1500 E547.8184
G1 F2001.4 X77.724 Y98.428 E552.38535
G1 X77.724 Y98.028 E552.4083
G1 X156.999 Y98.028 E556.9566
G0 F2700 X157.324 Y98.028
G0 X157.324 Y98.428
G0 F15000 X156.724 Y98.428
G1 F1500 E550.4566
;MESH:NONMESH
G0 F300 X156.724 Y98.428 Z6.3
G0 F15000 X156.724 Y97.164
G0 X157.324 Y82.025
G0 X157.324 Y81.16
;TIME_ELAPSED:446.086348
;LAYER:20
;note -- min layer time used
;TYPE:WALL-OUTER
;MESH:90deg_h40_w80_t36.STL
G1 F1500 E556.9566
G1 F2001.4 X77.724 Y81.16 E561.52355
G1 X77.724 Y80.76 E561.5465
G1 X156.999 Y80.76 E566.0948
G0 F2700 X157.324 Y80.76
G0 X157.324 Y81.16
G0 F15000 X156.724 Y81.16
G1 F1500 E559.5948
;MESH:90deg_h40_w80_t36.STL(1)
G0 F15000 X156.724 Y82.025
G0 X158.178 Y97.176
G0 X158.19 Y98.428
G0 X157.324 Y98.428
G1 F1500 E566.0948
G1 F2001.4 X77.724 Y98.428 E570.66175
G1 X77.724 Y98.028 E570.6847
G1 X156.999 Y98.028 E575.23301
G0 F2700 X157.324 Y98.028
G0 X157.324 Y98.428
G0 F15000 X156.724 Y98.428
G1 F1500 E568.73301
;MESH:NONMESH
G0 F300 X156.724 Y98.428 Z6.6
G0 F15000 X156.724 Y97.164
G0 X157.324 Y82.025
G0 X157.324 Y81.16
;TIME_ELAPSED:458.078002
;LAYER:21
;note -- min layer time used
;TYPE:WALL-OUTER
;MESH:90deg_h40_w80_t36.STL
G1 F1500 E575.23301
G1 F2001.4 X77.724 Y81.16 E579.79995
G1 X77.724 Y80.76 E579.8229
G1 X156.999 Y80.76 E584.37121
G0 F2700 X157.324 Y80.76
G0 X157.324 Y81.16
G0 F15000 X156.724 Y81.16
G1 F1500 E577.87121
;MESH:90deg_h40_w80_t36.STL(1)
G0 F15000 X156.724 Y82.025
G0 X158.178 Y97.176
G0 X158.19 Y98.428
G0 X157.324 Y98.428
G1 F1500 E584.37121
G1 F2001.4 X77.724 Y98.428 E588.93816
G1 X77.724 Y98.028 E588.96111
G1 X156.999 Y98.028 E593.50941
G0 F2700 X157.324 Y98.028
G0 X157.324 Y98.428
G0 F15000 X156.724 Y98.428
G1 F1500 E587.00941
;MESH:NONMESH
G0 F300 X156.724 Y98.428 Z6.9
G0 F15000 X156.724 Y97.164
G0 X157.324 Y82.025
G0 X157.324 Y81.16
;TIME_ELAPSED:470.069657
;LAYER:22
;note -- min layer time used
;TYPE:WALL-OUTER
;MESH:90deg_h40_w80_t36.STL
G1 F1500 E593.50941
G1 F2001.4 X77.724 Y81.16 E598.07636
G1 X77.724 Y80.76 E598.09931
G1 X156.999 Y80.76 E602.64761
G0 F2700 X157.324 Y80.76
G0 X157.324 Y81.16
G0 F15000 X156.724 Y81.16
G1 F1500 E596.14761
;MESH:90deg_h40_w80_t36.STL(1)
G0 F15000 X156.724 Y82.025
G0 X158.178 Y97.176
G0 X158.19 Y98.428
G0 X157.324 Y98.428
G1 F1500 E602.64761
G1 F2001.4 X77.724 Y98.428 E607.21456
G1 X77.724 Y98.028 E607.23751
G1 X156.999 Y98.028 E611.78581
G0 F2700 X157.324 Y98.028
G0 X157.324 Y98.428
G0 F15000 X156.724 Y98.428
G1 F1500 E605.28581
;MESH:NONMESH
G0 F300 X156.724 Y98.428 Z7.2
G0 F15000 X156.724 Y97.164
G0 X157.324 Y82.025
G0 X157.324 Y81.16
;TIME_ELAPSED:482.061311
;LAYER:23
;note -- min layer time used
;TYPE:WALL-OUTER
;MESH:90deg_h40_w80_t36.STL
G1 F1500 E611.78581
G1 F2001.4 X77.724 Y81.16 E616.35276
G1 X77.724 Y80.76 E616.37571
G1 X156.999 Y80.76 E620.92401
G0 F2700 X157.324 Y80.76
G0 X157.324 Y81.16
G0 F15000 X156.724 Y81.16
G1 F1500 E614.42401
;MESH:90deg_h40_w80_t36.STL(1)
G0 F15000 X156.724 Y82.025
G0 X158.178 Y97.176
G0 X158.19 Y98.428
G0 X157.324 Y98.428
G1 F1500 E620.92401
G1 F2001.4 X77.724 Y98.428 E625.49096
G1 X77.724 Y98.028 E625.51391
G1 X156.999 Y98.028 E630.06221
G0 F2700 X157.324 Y98.028
G0 X157.324 Y98.428
G0 F15000 X156.724 Y98.428
G1 F1500 E623.56221
;MESH:NONMESH
G0 F300 X156.724 Y98.428 Z7.5
G0 F15000 X156.724 Y97.164
G0 X157.324 Y82.025
G0 X157.324 Y81.16
;TIME_ELAPSED:494.052966
;LAYER:24
;note -- min layer time used
;TYPE:WALL-OUTER
;MESH:90deg_h40_w80_t36.STL
G1 F1500 E630.06221
G1 F2001.4 X77.724 Y81.16 E634.62916
G1 X77.724 Y80.76 E634.65211
G1 X156.999 Y80.76 E639.20041
G0 F2700 X157.324 Y80.76
G0 X157.324 Y81.16
G0 F15000 X156.724 Y81.16
G1 F1500 E632.70041
;MESH:90deg_h40_w80_t36.STL(1)
G0 F15000 X156.724 Y82.025
G0 X158.178 Y97.176
G0 X158.19 Y98.428
G0 X157.324 Y98.428
G1 F1500 E639.20041
G1 F2001.4 X77.724 Y98.428 E643.76736
G1 X77.724 Y98.028 E643.79031
G1 X156.999 Y98.028 E648.33862
G0 F2700 X157.324 Y98.028
G0 X157.324 Y98.428
G0 F15000 X156.724 Y98.428
G1 F1500 E641.83862
;MESH:NONMESH
G0 F300 X156.724 Y98.428 Z7.8
G0 F15000 X156.724 Y97.164
G0 X157.324 Y82.025
G0 X157.324 Y81.16
;TIME_ELAPSED:506.044620
;LAYER:25
;note -- min layer time used
;TYPE:WALL-OUTER
;MESH:90deg_h40_w80_t36.STL
G1 F1500 E648.33862
G1 F2001.4 X77.724 Y81.16 E652.90557
G1 X77.724 Y80.76 E652.92851
G1 X156.999 Y80.76 E657.47682
G0 F2700 X157.324 Y80.76
G0 X157.324 Y81.16
G0 F15000 X156.724 Y81.16
G1 F1500 E650.97682
;MESH:90deg_h40_w80_t36.STL(1)
G0 F15000 X156.724 Y82.025
G0 X158.178 Y97.176
G0 X158.19 Y98.428
G0 X157.324 Y98.428
G1 F1500 E657.47682
G1 F2001.4 X77.724 Y98.428 E662.04377
G1 X77.724 Y98.028 E662.06672
G1 X156.999 Y98.028 E666.61502
G0 F2700 X157.324 Y98.028
G0 X157.324 Y98.428
G0 F15000 X156.724 Y98.428
G1 F1500 E660.11502
;MESH:NONMESH
G0 F300 X156.724 Y98.428 Z8.1
G0 F15000 X156.724 Y97.164
G0 X157.324 Y82.025
G0 X157.324 Y81.16
;TIME_ELAPSED:518.036274
;LAYER:26
;note -- min layer time used
;TYPE:WALL-OUTER
;MESH:90deg_h40_w80_t36.STL
G1 F1500 E666.61502
G1 F2001.4 X77.724 Y81.16 E671.18197
G1 X77.724 Y80.76 E671.20492
G1 X156.999 Y80.76 E675.75322
G0 F2700 X157.324 Y80.76
G0 X157.324 Y81.16
G0 F15000 X156.724 Y81.16
G1 F1500 E669.25322
;MESH:90deg_h40_w80_t36.STL(1)
G0 F15000 X156.724 Y82.025
G0 X158.178 Y97.176
G0 X158.19 Y98.428
G0 X157.324 Y98.428
G1 F1500 E675.75322
G1 F2001.4 X77.724 Y98.428 E680.32017
G1 X77.724 Y98.028 E680.34312
G1 X156.999 Y98.028 E684.89142
G0 F2700 X157.324 Y98.028
G0 X157.324 Y98.428
G0 F15000 X156.724 Y98.428
G1 F1500 E678.39142
;MESH:NONMESH
G0 F300 X156.724 Y98.428 Z8.4
G0 F15000 X156.724 Y97.164
G0 X157.324 Y82.025
G0 X157.324 Y81.16
;TIME_ELAPSED:530.027929
;LAYER:27
;note -- min layer time used
;TYPE:WALL-OUTER
;MESH:90deg_h40_w80_t36.STL
G1 F1500 E684.89142
G1 F2001.4 X77.724 Y81.16 E689.45837
G1 X77.724 Y80.76 E689.48132
G1 X156.999 Y80.76 E694.02962
G0 F2700 X157.324 Y80.76
G0 X157.324 Y81.16
G0 F15000 X156.724 Y81.16
G1 F1500 E687.52962
;MESH:90deg_h40_w80_t36.STL(1)
G0 F15000 X156.724 Y82.025
G0 X158.178 Y97.176
G0 X158.19 Y98.428
G0 X157.324 Y98.428
G1 F1500 E694.02962
G1 F2001.4 X77.724 Y98.428 E698.59657
G1 X77.724 Y98.028 E698.61952
G1 X156.999 Y98.028 E703.16782
G0 F2700 X157.324 Y98.028
G0 X157.324 Y98.428
G0 F15000 X156.724 Y98.428
G1 F1500 E696.66782
;MESH:NONMESH
G0 F300 X156.724 Y98.428 Z8.7
G0 F15000 X156.724 Y97.164
G0 X157.324 Y82.025
G0 X157.324 Y81.16
;TIME_ELAPSED:542.019583
;LAYER:28
;note -- min layer time used
;TYPE:WALL-OUTER
;MESH:90deg_h40_w80_t36.STL
G1 F1500 E703.16782
G1 F2001.4 X77.724 Y81.16 E707.73477
G1 X77.724 Y80.76 E707.75772
G1 X156.999 Y80.76 E712.30603
G0 F2700 X157.324 Y80.76
G0 X157.324 Y81.16
G0 F15000 X156.724 Y81.16
G1 F1500 E705.80603
;MESH:90deg_h40_w80_t36.STL(1)
G0 F15000 X156.724 Y82.025
G0 X158.178 Y97.176
G0 X158.19 Y98.428
G0 X157.324 Y98.428
G1 F1500 E712.30603
G1 F2001.4 X77.724 Y98.428 E716.87297
G1 X77.724 Y98.028 E716.89592
G1 X156.999 Y98.028 E721.44423
G0 F2700 X157.324 Y98.028
G0 X157.324 Y98.428
G0 F15000 X156.724 Y98.428
G1 F1500 E714.94423
;MESH:NONMESH
G0 F300 X156.724 Y98.428 Z9
G0 F15000 X156.724 Y97.164
G0 X157.324 Y82.025
G0 X157.324 Y81.16
;TIME_ELAPSED:554.011238
;LAYER:29
;note -- min layer time used
;TYPE:WALL-OUTER
;MESH:90deg_h40_w80_t36.STL
G1 F1500 E721.44423
G1 F2001.4 X77.724 Y81.16 E726.01118
G1 X77.724 Y80.76 E726.03413
G1 X156.999 Y80.76 E730.58243
G0 F2700 X157.324 Y80.76
G0 X157.324 Y81.16
G0 F15000 X156.724 Y81.16
G1 F1500 E724.08243
;MESH:90deg_h40_w80_t36.STL(1)
G0 F15000 X156.724 Y82.025
G0 X158.178 Y97.176
G0 X158.19 Y98.428
G0 X157.324 Y98.428
G1 F1500 E730.58243
G1 F2001.4 X77.724 Y98.428 E735.14938
G1 X77.724 Y98.028 E735.17233
G1 X156.999 Y98.028 E739.72063
G0 F2700 X157.324 Y98.028
G0 X157.324 Y98.428
G0 F15000 X156.724 Y98.428
G1 F1500 E733.22063
;MESH:NONMESH
G0 F300 X156.724 Y98.428 Z9.3
G0 F15000 X156.724 Y97.164
G0 X157.324 Y82.025
G0 X157.324 Y81.16
;TIME_ELAPSED:566.002892
;LAYER:30
;note -- min layer time used
;TYPE:WALL-OUTER
;MESH:90deg_h40_w80_t36.STL
G1 F1500 E739.72063
G1 F2001.4 X77.724 Y81.16 E744.28758
G1 X77.724 Y80.76 E744.31053
G1 X156.999 Y80.76 E748.85883
G0 F2700 X157.324 Y80.76
G0 X157.324 Y81.16
G0 F15000 X156.724 Y81.16
G1 F1500 E742.35883
;MESH:90deg_h40_w80_t36.STL(1)
G0 F15000 X156.724 Y82.025
G0 X158.178 Y97.176
G0 X158.19 Y98.428
G0 X157.324 Y98.428
G1 F1500 E748.85883
G1 F2001.4 X77.724 Y98.428 E753.42578
G1 X77.724 Y98.028 E753.44873
G1 X156.999 Y98.028 E757.99703
G0 F2700 X157.324 Y98.028
G0 X157.324 Y98.428
G0 F15000 X156.724 Y98.428
G1 F1500 E751.49703
;MESH:NONMESH
G0 F300 X156.724 Y98.428 Z9.6
G0 F15000 X156.724 Y97.164
G0 X157.324 Y82.025
G0 X157.324 Y81.16
;TIME_ELAPSED:577.994546
;LAYER:31
;note -- min layer time used
;TYPE:WALL-OUTER
;MESH:90deg_h40_w80_t36.STL
G1 F1500 E757.99703
G1 F2001.4 X77.724 Y81.16 E762.56398
G1 X77.724 Y80.76 E762.58693
G1 X156.999 Y80.76 E767.13523
G0 F2700 X157.324 Y80.76
G0 X157.324 Y81.16
G0 F15000 X156.724 Y81.16
G1 F1500 E760.63523
;MESH:90deg_h40_w80_t36.STL(1)
G0 F15000 X156.724 Y82.025
G0 X158.178 Y97.176
G0 X158.19 Y98.428
G0 X157.324 Y98.428
G1 F1500 E767.13523
G1 F2001.4 X77.724 Y98.428 E771.70218
G1 X77.724 Y98.028 E771.72513
G1 X156.999 Y98.028 E776.27343
G0 F2700 X157.324 Y98.028
G0 X157.324 Y98.428
G0 F15000 X156.724 Y98.428
G1 F1500 E769.77343
;MESH:NONMESH
G0 F300 X156.724 Y98.428 Z9.9
G0 F15000 X156.724 Y97.164
G0 X157.324 Y82.025
G0 X157.324 Y81.16
;TIME_ELAPSED:589.986201
;LAYER:32
;note -- min layer time used
;TYPE:WALL-OUTER
;MESH:90deg_h40_w80_t36.STL
G1 F1500 E776.27343
G1 F2001.4 X77.724 Y81.16 E780.84038
G1 X77.724 Y80.76 E780.86333
G1 X156.999 Y80.76 E785.41164
G0 F2700 X157.324 Y80.76
G0 X157.324 Y81.16
G0 F15000 X156.724 Y81.16
G1 F1500 E778.91164
;MESH:90deg_h40_w80_t36.STL(1)
G0 F15000 X156.724 Y82.025
G0 X158.178 Y97.176
G0 X158.19 Y98.428
G0 X157.324 Y98.428
G1 F1500 E785.41164
G1 F2001.4 X77.724 Y98.428 E789.97858
G1 X77.724 Y98.028 E790.00153
G1 X156.999 Y98.028 E794.54984
G0 F2700 X157.324 Y98.028
G0 X157.324 Y98.428
G0 F15000 X156.724 Y98.428
G1 F1500 E788.04984
;MESH:NONMESH
G0 F300 X156.724 Y98.428 Z10.2
G0 F15000 X156.724 Y97.164
G0 X157.324 Y82.025
G0 X157.324 Y81.16
;TIME_ELAPSED:601.977855
;LAYER:33
;note -- min layer time used
;TYPE:WALL-OUTER
;MESH:90deg_h40_w80_t36.STL
G1 F1500 E794.54984
G1 F2001.4 X77.724 Y81.16 E799.11679
G1 X77.724 Y80.76 E799.13974
G1 X156.999 Y80.76 E803.68804
G0 F2700 X157.324 Y80.76
G0 X157.324 Y81.16
G0 F15000 X156.724 Y81.16
G1 F1500 E797.18804
;MESH:90deg_h40_w80_t36.STL(1)
G0 F15000 X156.724 Y82.025
G0 X158.178 Y97.176
G0 X158.19 Y98.428
G0 X157.324 Y98.428
G1 F1500 E803.68804
G1 F2001.4 X77.724 Y98.428 E808.25499
G1 X77.724 Y98.028 E808.27794
G1 X156.999 Y98.028 E812.82624
G0 F2700 X157.324 Y98.028
G0 X157.324 Y98.428
G0 F15000 X156.724 Y98.428
G1 F1500 E806.32624
;MESH:NONMESH
G0 F300 X156.724 Y98.428 Z10.5
G0 F15000 X156.724 Y97.164
G0 X157.324 Y82.025
G0 X157.324 Y81.16
;TIME_ELAPSED:613.969509
;LAYER:34
;note -- min layer time used
;TYPE:WALL-OUTER
;MESH:90deg_h40_w80_t36.STL
G1 F1500 E812.82624
G1 F2001.4 X77.724 Y81.16 E817.39319
G1 X77.724 Y80.76 E817.41614
G1 X156.999 Y80.76 E821.96444
G0 F2700 X157.324 Y80.76
G0 X157.324 Y81.16
G0 F15000 X156.724 Y81.16
G1 F1500 E815.46444
;MESH:90deg_h40_w80_t36.STL(1)
G0 F15000 X156.724 Y82.025
G0 X158.178 Y97.176
G0 X158.19 Y98.428
G0 X157.324 Y98.428
G1 F1500 E821.96444
G1 F2001.4 X77.724 Y98.428 E826.53139
G1 X77.724 Y98.028 E826.55434
G1 X156.999 Y98.028 E831.10264
G0 F2700 X157.324 Y98.028
G0 X157.324 Y98.428
G0 F15000 X156.724 Y98.428
G1 F1500 E824.60264
;MESH:NONMESH
G0 F300 X156.724 Y98.428 Z10.8
G0 F15000 X156.724 Y97.164
G0 X157.324 Y82.025
G0 X157.324 Y81.16
;TIME_ELAPSED:625.961164
;LAYER:35
;note -- min layer time used
;TYPE:WALL-OUTER
;MESH:90deg_h40_w80_t36.STL
G1 F1500 E831.10264
G1 F2001.4 X77.724 Y81.16 E835.66959
G1 X77.724 Y80.76 E835.69254
G1 X156.999 Y80.76 E840.24084
G0 F2700 X157.324 Y80.76
G0 X157.324 Y81.16
G0 F15000 X156.724 Y81.16
G1 F1500 E833.74084
;MESH:90deg_h40_w80_t36.STL(1)
G0 F15000 X156.724 Y82.025
G0 X158.178 Y97.176
G0 X158.19 Y98.428
G0 X157.324 Y98.428
G1 F1500 E840.24084
G1 F2001.4 X77.724 Y98.428 E844.80779
G1 X77.724 Y98.028 E844.83074
G1 X156.999 Y98.028 E849.37904
G0 F2700 X157.324 Y98.028
G0 X157.324 Y98.428
G0 F15000 X156.724 Y98.428
G1 F1500 E842.87904
;MESH:NONMESH
G0 F300 X156.724 Y98.428 Z11.1
G0 F15000 X156.724 Y97.164
G0 X157.324 Y82.025
G0 X157.324 Y81.16
;TIME_ELAPSED:637.952818
;LAYER:36
;note -- min layer time used
;TYPE:WALL-OUTER
;MESH:90deg_h40_w80_t36.STL
G1 F1500 E849.37904
G1 F2001.4 X77.724 Y81.16 E853.94599
G1 X77.724 Y80.76 E853.96894
G1 X156.999 Y80.76 E858.51725
G0 F2700 X157.324 Y80.76
G0 X157.324 Y81.16
G0 F15000 X156.724 Y81.16
G1 F1500 E852.01725
;MESH:90deg_h40_w80_t36.STL(1)
G0 F15000 X156.724 Y82.025
G0 X158.178 Y97.176
G0 X158.19 Y98.428
G0 X157.324 Y98.428
G1 F1500 E858.51725
G1 F2001.4 X77.724 Y98.428 E863.0842
G1 X77.724 Y98.028 E863.10714
G1 X156.999 Y98.028 E867.65545
G0 F2700 X157.324 Y98.028
G0 X157.324 Y98.428
G0 F15000 X156.724 Y98.428
G1 F1500 E861.15545
;MESH:NONMESH
G0 F300 X156.724 Y98.428 Z11.4
G0 F15000 X156.724 Y97.164
G0 X157.324 Y82.025
G0 X157.324 Y81.16
;TIME_ELAPSED:649.944473
;LAYER:37
;note -- min layer time used
;TYPE:WALL-OUTER
;MESH:90deg_h40_w80_t36.STL
G1 F1500 E867.65545
G1 F2001.4 X77.724 Y81.16 E872.2224
G1 X77.724 Y80.76 E872.24535
G1 X156.999 Y80.76 E876.79365
G0 F2700 X157.324 Y80.76
G0 X157.324 Y81.16
G0 F15000 X156.724 Y81.16
G1 F1500 E870.29365
;MESH:90deg_h40_w80_t36.STL(1)
G0 F15000 X156.724 Y82.025
G0 X158.178 Y97.176
G0 X158.19 Y98.428
G0 X157.324 Y98.428
G1 F1500 E876.79365
G1 F2001.4 X77.724 Y98.428 E881.3606
G1 X77.724 Y98.028 E881.38355
G1 X156.999 Y98.028 E885.93185
G0 F2700 X157.324 Y98.028
G0 X157.324 Y98.428
G0 F15000 X156.724 Y98.428
G1 F1500 E879.43185
;MESH:NONMESH
G0 F300 X156.724 Y98.428 Z11.7
G0 F15000 X156.724 Y97.164
G0 X157.324 Y82.025
G0 X157.324 Y81.16
;TIME_ELAPSED:661.936127
;LAYER:38
;note -- min layer time used
;TYPE:WALL-OUTER
;MESH:90deg_h40_w80_t36.STL
G1 F1500 E885.93185
G1 F2001.4 X77.724 Y81.16 E890.4988
G1 X77.724 Y80.76 E890.52175
G1 X156.999 Y80.76 E895.07005
G0 F2700 X157.324 Y80.76
G0 X157.324 Y81.16
G0 F15000 X156.724 Y81.16
G1 F1500 E888.57005
;MESH:90deg_h40_w80_t36.STL(1)
G0 F15000 X156.724 Y82.025
G0 X158.178 Y97.176
G0 X158.19 Y98.428
G0 X157.324 Y98.428
G1 F1500 E895.07005
G1 F2001.4 X77.724 Y98.428 E899.637
G1 X77.724 Y98.028 E899.65995
G1 X156.999 Y98.028 E904.20825
G0 F2700 X157.324 Y98.028
G0 X157.324 Y98.428
G0 F15000 X156.724 Y98.428
G1 F1500 E897.70825
;MESH:NONMESH
G0 F300 X156.724 Y98.428 Z12
G0 F15000 X156.724 Y97.164
G0 X157.324 Y82.025
G0 X157.324 Y81.16
;TIME_ELAPSED:673.927781
;LAYER:39
;note -- min layer time used
;TYPE:WALL-OUTER
;MESH:90deg_h40_w80_t36.STL
G1 F1500 E904.20825
G1 F2001.4 X77.724 Y81.16 E908.7752
G1 X77.724 Y80.76 E908.79815
G1 X156.999 Y80.76 E913.34645
G0 F2700 X157.324 Y80.76
G0 X157.324 Y81.16
G0 F15000 X156.724 Y81.16
G1 F1500 E906.84645
;MESH:90deg_h40_w80_t36.STL(1)
G0 F15000 X156.724 Y82.025
G0 X158.178 Y97.176
G0 X158.19 Y98.428
G0 X157.324 Y98.428
G1 F1500 E913.34645
G1 F2001.4 X77.724 Y98.428 E917.9134
G1 X77.724 Y98.028 E917.93635
G1 X156.999 Y98.028 E922.48466
G0 F2700 X157.324 Y98.028
G0 X157.324 Y98.428
G0 F15000 X156.724 Y98.428
G1 F1500 E915.98466
;MESH:NONMESH
G0 F300 X156.724 Y98.428 Z12.3
G0 F15000 X156.724 Y97.164
G0 X157.324 Y82.025
G0 X157.324 Y81.16
;TIME_ELAPSED:685.919436
;LAYER:40
;note -- min layer time used
;TYPE:WALL-OUTER
;MESH:90deg_h40_w80_t36.STL
G1 F1500 E922.48466
G1 F2001.4 X77.724 Y81.16 E927.0516
G1 X77.724 Y80.76 E927.07455
G1 X156.999 Y80.76 E931.62286
G0 F2700 X157.324 Y80.76
G0 X157.324 Y81.16
G0 F15000 X156.724 Y81.16
G1 F1500 E925.12286
;MESH:90deg_h40_w80_t36.STL(1)
G0 F15000 X156.724 Y82.025
G0 X158.178 Y97.176
G0 X158.19 Y98.428
G0 X157.324 Y98.428
G1 F1500 E931.62286
G1 F2001.4 X77.724 Y98.428 E936.18981
G1 X77.724 Y98.028 E936.21276
G1 X156.999 Y98.028 E940.76106
G0 F2700 X157.324 Y98.028
G0 X157.324 Y98.428
G0 F15000 X156.724 Y98.428
G1 F1500 E934.26106
;MESH:NONMESH
G0 F300 X156.724 Y98.428 Z12.6
G0 F15000 X156.724 Y97.164
G0 X157.324 Y82.025
G0 X157.324 Y81.16
;TIME_ELAPSED:697.911090
;LAYER:41
;note -- min layer time used
;TYPE:WALL-OUTER
;MESH:90deg_h40_w80_t36.STL
G1 F1500 E940.76106
G1 F2001.4 X77.724 Y81.16 E945.32801
G1 X77.724 Y80.76 E945.35096
G1 X156.999 Y80.76 E949.89926
G0 F2700 X157.324 Y80.76
G0 X157.324 Y81.16
G0 F15000 X156.724 Y81.16
G1 F1500 E943.39926
;MESH:90deg_h40_w80_t36.STL(1)
G0 F15000 X156.724 Y82.025
G0 X158.178 Y97.176
G0 X158.19 Y98.428
G0 X157.324 Y98.428
G1 F1500 E949.89926
G1 F2001.4 X77.724 Y98.428 E954.46621
G1 X77.724 Y98.028 E954.48916
G1 X156.999 Y98.028 E959.03746
G0 F2700 X157.324 Y98.028
G0 X157.324 Y98.428
G0 F15000 X156.724 Y98.428
G1 F1500 E952.53746
;MESH:NONMESH
G0 F300 X156.724 Y98.428 Z12.9
G0 F15000 X156.724 Y97.164
G0 X157.324 Y82.025
G0 X157.324 Y81.16
;TIME_ELAPSED:709.902744
;LAYER:42
;note -- min layer time used
;TYPE:WALL-OUTER
;MESH:90deg_h40_w80_t36.STL
G1 F1500 E959.03746
G1 F2001.4 X77.724 Y81.16 E963.60441
G1 X77.724 Y80.76 E963.62736
G1 X156.999 Y80.76 E968.17566
G0 F2700 X157.324 Y80.76
G0 X157.324 Y81.16
G0 F15000 X156.724 Y81.16
G1 F1500 E961.67566
;MESH:90deg_h40_w80_t36.STL(1)
G0 F15000 X156.724 Y82.025
G0 X158.178 Y97.176
G0 X158.19 Y98.428
G0 X157.324 Y98.428
G1 F1500 E968.17566
G1 F2001.4 X77.724 Y98.428 E972.74261
G1 X77.724 Y98.028 E972.76556
G1 X156.999 Y98.028 E977.31386
G0 F2700 X157.324 Y98.028
G0 X157.324 Y98.428
G0 F15000 X156.724 Y98.428
G1 F1500 E970.81386
;MESH:NONMESH
G0 F300 X156.724 Y98.428 Z13.2
G0 F15000 X156.724 Y97.164
G0 X157.324 Y82.025
G0 X157.324 Y81.16
;TIME_ELAPSED:721.894399
;LAYER:43
;note -- min layer time used
;TYPE:WALL-OUTER
;MESH:90deg_h40_w80_t36.STL
G1 F1500 E977.31386
G1 F2001.4 X77.724 Y81.16 E981.88081
G1 X77.724 Y80.76 E981.90376
G1 X156.999 Y80.76 E986.45206
G0 F2700 X157.324 Y80.76
G0 X157.324 Y81.16
G0 F15000 X156.724 Y81.16
G1 F1500 E979.95206
;MESH:90deg_h40_w80_t36.STL(1)
G0 F15000 X156.724 Y82.025
G0 X158.178 Y97.176
G0 X158.19 Y98.428
G0 X157.324 Y98.428
G1 F1500 E986.45206
G1 F2001.4 X77.724 Y98.428 E991.01901
G1 X77.724 Y98.028 E991.04196
G1 X156.999 Y98.028 E995.59027
G0 F2700 X157.324 Y98.028
G0 X157.324 Y98.428
G0 F15000 X156.724 Y98.428
G1 F1500 E989.09027
;MESH:NONMESH
G0 F300 X156.724 Y98.428 Z13.5
G0 F15000 X156.724 Y97.164
G0 X157.324 Y82.025
G0 X157.324 Y81.16
;TIME_ELAPSED:733.886053
;LAYER:44
;note -- min layer time used
;TYPE:WALL-OUTER
;MESH:90deg_h40_w80_t36.STL
G1 F1500 E995.59027
G1 F2001.4 X77.724 Y81.16 E1000.15722
G1 X77.724 Y80.76 E1000.18016
G1 X156.999 Y80.76 E1004.72847
G0 F2700 X157.324 Y80.76
G0 X157.324 Y81.16
G0 F15000 X156.724 Y81.16
G1 F1500 E998.22847
;MESH:90deg_h40_w80_t36.STL(1)
G0 F15000 X156.724 Y82.025
G0 X158.178 Y97.176
G0 X158.19 Y98.428
G0 X157.324 Y98.428
G1 F1500 E1004.72847
G1 F2001.4 X77.724 Y98.428 E1009.29542
G1 X77.724 Y98.028 E1009.31837
G1 X156.999 Y98.028 E1013.86667
G0 F2700 X157.324 Y98.028
G0 X157.324 Y98.428
G0 F15000 X156.724 Y98.428
G1 F1500 E1007.36667
;MESH:NONMESH
G0 F300 X156.724 Y98.428 Z13.8
G0 F15000 X156.724 Y97.164
G0 X157.324 Y82.025
G0 X157.324 Y81.16
;TIME_ELAPSED:745.877708
;LAYER:45
;note -- min layer time used
;TYPE:WALL-OUTER
;MESH:90deg_h40_w80_t36.STL
G1 F1500 E1013.86667
G1 F2001.4 X77.724 Y81.16 E1018.43362
G1 X77.724 Y80.76 E1018.45657
G1 X156.999 Y80.76 E1023.00487
G0 F2700 X157.324 Y80.76
G0 X157.324 Y81.16
G0 F15000 X156.724 Y81.16
G1 F1500 E1016.50487
;MESH:90deg_h40_w80_t36.STL(1)
G0 F15000 X156.724 Y82.025
G0 X158.178 Y97.176
G0 X158.19 Y98.428
G0 X157.324 Y98.428
G1 F1500 E1023.00487
G1 F2001.4 X77.724 Y98.428 E1027.57182
G1 X77.724 Y98.028 E1027.59477
G1 X156.999 Y98.028 E1032.14307
G0 F2700 X157.324 Y98.028
G0 X157.324 Y98.428
G0 F15000 X156.724 Y98.428
G1 F1500 E1025.64307
;MESH:NONMESH
G0 F300 X156.724 Y98.428 Z14.1
G0 F15000 X156.724 Y97.164
G0 X157.324 Y82.025
G0 X157.324 Y81.16
;TIME_ELAPSED:757.869362
;LAYER:46
;note -- min layer time used
;TYPE:WALL-OUTER
;MESH:90deg_h40_w80_t36.STL
G1 F1500 E1032.14307
G1 F2001.4 X77.724 Y81.16 E1036.71002
G1 X77.724 Y80.76 E1036.73297
G1 X156.999 Y80.76 E1041.28127
G0 F2700 X157.324 Y80.76
G0 X157.324 Y81.16
G0 F15000 X156.724 Y81.16
G1 F1500 E1034.78127
;MESH:90deg_h40_w80_t36.STL(1)
G0 F15000 X156.724 Y82.025
G0 X158.178 Y97.176
G0 X158.19 Y98.428
G0 X157.324 Y98.428
G1 F1500 E1041.28127
G1 F2001.4 X77.724 Y98.428 E1045.84822
G1 X77.724 Y98.028 E1045.87117
G1 X156.999 Y98.028 E1050.41947
G0 F2700 X157.324 Y98.028
G0 X157.324 Y98.428
G0 F15000 X156.724 Y98.428
G1 F1500 E1043.91947
;MESH:NONMESH
G0 F300 X156.724 Y98.428 Z14.4
G0 F15000 X156.724 Y97.164
G0 X157.324 Y82.025
G0 X157.324 Y81.16
;TIME_ELAPSED:769.861016
;LAYER:47
;note -- min layer time used
;TYPE:WALL-OUTER
;MESH:90deg_h40_w80_t36.STL
G1 F1500 E1050.41947
G1 F2001.4 X77.724 Y81.16 E1054.98642
G1 X77.724 Y80.76 E1055.00937
G1 X156.999 Y80.76 E1059.55768
G0 F2700 X157.324 Y80.76
G0 X157.324 Y81.16
G0 F15000 X156.724 Y81.16
G1 F1500 E1053.05768
;MESH:90deg_h40_w80_t36.STL(1)
G0 F15000 X156.724 Y82.025
G0 X158.178 Y97.176
G0 X158.19 Y98.428
G0 X157.324 Y98.428
G1 F1500 E1059.55768
G1 F2001.4 X77.724 Y98.428 E1064.12462
G1 X77.724 Y98.028 E1064.14757
G1 X156.999 Y98.028 E1068.69588
G0 F2700 X157.324 Y98.028
G0 X157.324 Y98.428
G0 F15000 X156.724 Y98.428
G1 F1500 E1062.19588
;MESH:NONMESH
G0 F300 X156.724 Y98.428 Z14.7
G0 F15000 X156.724 Y97.164
G0 X157.324 Y82.025
G0 X157.324 Y81.16
;TIME_ELAPSED:781.852671
;LAYER:48
;note -- min layer time used
;TYPE:WALL-OUTER
;MESH:90deg_h40_w80_t36.STL
G1 F1500 E1068.69588
G1 F2001.4 X77.724 Y81.16 E1073.26283
G1 X77.724 Y80.76 E1073.28578
G1 X156.999 Y80.76 E1077.83408
G0 F2700 X157.324 Y80.76
G0 X157.324 Y81.16
G0 F15000 X156.724 Y81.16
G1 F1500 E1071.33408
;MESH:90deg_h40_w80_t36.STL(1)
G0 F15000 X156.724 Y82.025
G0 X158.178 Y97.176
G0 X158.19 Y98.428
G0 X157.324 Y98.428
G1 F1500 E1077.83408
G1 F2001.4 X77.724 Y98.428 E1082.40103
G1 X77.724 Y98.028 E1082.42398
G1 X156.999 Y98.028 E1086.97228
G0 F2700 X157.324 Y98.028
G0 X157.324 Y98.428
G0 F15000 X156.724 Y98.428
G1 F1500 E1080.47228
;MESH:NONMESH
G0 F300 X156.724 Y98.428 Z15
G0 F15000 X156.724 Y97.164
G0 X157.324 Y82.025
G0 X157.324 Y81.16
;TIME_ELAPSED:793.844325
;LAYER:49
;note -- min layer time used
;TYPE:WALL-OUTER
;MESH:90deg_h40_w80_t36.STL
G1 F1500 E1086.97228
G1 F2001.4 X77.724 Y81.16 E1091.53923
G1 X77.724 Y80.76 E1091.56218
G1 X156.999 Y80.76 E1096.11048
G0 F2700 X157.324 Y80.76
G0 X157.324 Y81.16
G0 F15000 X156.724 Y81.16
G1 F1500 E1089.61048
;MESH:90deg_h40_w80_t36.STL(1)
G0 F15000 X156.724 Y82.025
G0 X158.178 Y97.176
G0 X158.19 Y98.428
G0 X157.324 Y98.428
G1 F1500 E1096.11048
G1 F2001.4 X77.724 Y98.428 E1100.67743
G1 X77.724 Y98.028 E1100.70038
G1 X156.999 Y98.028 E1105.24868
G0 F2700 X157.324 Y98.028
G0 X157.324 Y98.428
G0 F15000 X156.724 Y98.428
G1 F1500 E1098.74868
;MESH:NONMESH
G0 F300 X156.724 Y98.428 Z15.3
G0 F15000 X156.724 Y97.164
G0 X157.324 Y82.025
G0 X157.324 Y81.16
;TIME_ELAPSED:805.835979
;LAYER:50
;note -- min layer time used
;TYPE:WALL-OUTER
;MESH:90deg_h40_w80_t36.STL
G1 F1500 E1105.24868
G1 F2001.4 X77.724 Y81.16 E1109.81563
G1 X77.724 Y80.76 E1109.83858
G1 X156.999 Y80.76 E1114.38688
G0 F2700 X157.324 Y80.76
G0 X157.324 Y81.16
G0 F15000 X156.724 Y81.16
G1 F1500 E1107.88688
;MESH:90deg_h40_w80_t36.STL(1)
G0 F15000 X156.724 Y82.025
G0 X158.178 Y97.176
G0 X158.19 Y98.428
G0 X157.324 Y98.428
G1 F1500 E1114.38688
G1 F2001.4 X77.724 Y98.428 E1118.95383
G1 X77.724 Y98.028 E1118.97678
G1 X156.999 Y98.028 E1123.52508
G0 F2700 X157.324 Y98.028
G0 X157.324 Y98.428
G0 F15000 X156.724 Y98.428
G1 F1500 E1117.02508
;MESH:NONMESH
G0 F300 X156.724 Y98.428 Z15.6
G0 F15000 X156.724 Y97.164
G0 X157.324 Y82.025
G0 X157.324 Y81.16
;TIME_ELAPSED:817.827634
;LAYER:51
;note -- min layer time used
;TYPE:WALL-OUTER
;MESH:90deg_h40_w80_t36.STL
G1 F1500 E1123.52508
G1 F2001.4 X77.724 Y81.16 E1128.09203
G1 X77.724 Y80.76 E1128.11498
G1 X156.999 Y80.76 E1132.66329
G0 F2700 X157.324 Y80.76
G0 X157.324 Y81.16
G0 F15000 X156.724 Y81.16
G1 F1500 E1126.16329
;MESH:90deg_h40_w80_t36.STL(1)
G0 F15000 X156.724 Y82.025
G0 X158.178 Y97.176
G0 X158.19 Y98.428
G0 X157.324 Y98.428
G1 F1500 E1132.66329
G1 F2001.4 X77.724 Y98.428 E1137.23023
G1 X77.724 Y98.028 E1137.25318
G1 X156.999 Y98.028 E1141.80149
G0 F2700 X157.324 Y98.028
G0 X157.324 Y98.428
G0 F15000 X156.724 Y98.428
G1 F1500 E1135.30149
;MESH:NONMESH
G0 F300 X156.724 Y98.428 Z15.9
G0 F15000 X156.724 Y97.164
G0 X157.324 Y82.025
G0 X157.324 Y81.16
;TIME_ELAPSED:829.819288
;LAYER:52
;note -- min layer time used
;TYPE:WALL-OUTER
;MESH:90deg_h40_w80_t36.STL
G1 F1500 E1141.80149
G1 F2001.4 X77.724 Y81.16 E1146.36844
G1 X77.724 Y80.76 E1146.39139
G1 X156.999 Y80.76 E1150.93969
G0 F2700 X157.324 Y80.76
G0 X157.324 Y81.16
G0 F15000 X156.724 Y81.16
G1 F1500 E1144.43969
;MESH:90deg_h40_w80_t36.STL(1)
G0 F15000 X156.724 Y82.025
G0 X158.178 Y97.176
G0 X158.19 Y98.428
G0 X157.324 Y98.428
G1 F1500 E1150.93969
G1 F2001.4 X77.724 Y98.428 E1155.50664
G1 X77.724 Y98.028 E1155.52959
G1 X156.999 Y98.028 E1160.07789
G0 F2700 X157.324 Y98.028
G0 X157.324 Y98.428
G0 F15000 X156.724 Y98.428
G1 F1500 E1153.57789
;MESH:NONMESH
G0 F300 X156.724 Y98.428 Z16.2
G0 F15000 X156.724 Y97.164
G0 X157.324 Y82.025
G0 X157.324 Y81.16
;TIME_ELAPSED:841.810943
;LAYER:53
;note -- min layer time used
;TYPE:WALL-OUTER
;MESH:90deg_h40_w80_t36.STL
G1 F1500 E1160.07789
G1 F2001.4 X77.724 Y81.16 E1164.64484
G1 X77.724 Y80.76 E1164.66779
G1 X156.999 Y80.76 E1169.21609
G0 F2700 X157.324 Y80.76
G0 X157.324 Y81.16
G0 F15000 X156.724 Y81.16
G1 F1500 E1162.71609
;MESH:90deg_h40_w80_t36.STL(1)
G0 F15000 X156.724 Y82.025
G0 X158.178 Y97.176
G0 X158.19 Y98.428
G0 X157.324 Y98.428
G1 F1500 E1169.21609
G1 F2001.4 X77.724 Y98.428 E1173.78304
G1 X77.724 Y98.028 E1173.80599
G1 X156.999 Y98.028 E1178.35429
G0 F2700 X157.324 Y98.028
G0 X157.324 Y98.428
G0 F15000 X156.724 Y98.428
G1 F1500 E1171.85429
;MESH:NONMESH
G0 F300 X156.724 Y98.428 Z16.5
G0 F15000 X156.724 Y97.164
G0 X157.324 Y82.025
G0 X157.324 Y81.16
;TIME_ELAPSED:853.802597
;LAYER:54
;note -- min layer time used
;TYPE:WALL-OUTER
;MESH:90deg_h40_w80_t36.STL
G1 F1500 E1178.35429
G1 F2001.4 X77.724 Y81.16 E1182.92124
G1 X77.724 Y80.76 E1182.94419
G1 X156.999 Y80.76 E1187.49249
G0 F2700 X157.324 Y80.76
G0 X157.324 Y81.16
G0 F15000 X156.724 Y81.16
G1 F1500 E1180.99249
;MESH:90deg_h40_w80_t36.STL(1)
G0 F15000 X156.724 Y82.025
G0 X158.178 Y97.176
G0 X158.19 Y98.428
G0 X157.324 Y98.428
G1 F1500 E1187.49249
G1 F2001.4 X77.724 Y98.428 E1192.05944
G1 X77.724 Y98.028 E1192.08239
G1 X156.999 Y98.028 E1196.63069
G0 F2700 X157.324 Y98.028
G0 X157.324 Y98.428
G0 F15000 X156.724 Y98.428
G1 F1500 E1190.13069
;MESH:NONMESH
G0 F300 X156.724 Y98.428 Z16.8
G0 F15000 X156.724 Y97.164
G0 X157.324 Y82.025
G0 X157.324 Y81.16
;TIME_ELAPSED:865.794251
;LAYER:55
;note -- min layer time used
;TYPE:WALL-OUTER
;MESH:90deg_h40_w80_t36.STL
G1 F1500 E1196.63069
G1 F2001.4 X77.724 Y81.16 E1201.19764
G1 X77.724 Y80.76 E1201.22059
G1 X156.999 Y80.76 E1205.7689
G0 F2700 X157.324 Y80.76
G0 X157.324 Y81.16
G0 F15000 X156.724 Y81.16
G1 F1500 E1199.2689
;MESH:90deg_h40_w80_t36.STL(1)
G0 F15000 X156.724 Y82.025
G0 X158.178 Y97.176
G0 X158.19 Y98.428
G0 X157.324 Y98.428
G1 F1500 E1205.7689
G1 F2001.4 X77.724 Y98.428 E1210.33585
G1 X77.724 Y98.028 E1210.35879
G1 X156.999 Y98.028 E1214.9071
G0 F2700 X157.324 Y98.028
G0 X157.324 Y98.428
G0 F15000 X156.724 Y98.428
G1 F1500 E1208.4071
;MESH:NONMESH
G0 F300 X156.724 Y98.428 Z17.1
G0 F15000 X156.724 Y97.164
G0 X157.324 Y82.025
G0 X157.324 Y81.16
;TIME_ELAPSED:877.785906
;LAYER:56
;note -- min layer time used
;TYPE:WALL-OUTER
;MESH:90deg_h40_w80_t36.STL
G1 F1500 E1214.9071
G1 F2001.4 X77.724 Y81.16 E1219.47405
G1 X77.724 Y80.76 E1219.497
G1 X156.999 Y80.76 E1224.0453
G0 F2700 X157.324 Y80.76
G0 X157.324 Y81.16
G0 F15000 X156.724 Y81.16
G1 F1500 E1217.5453
;MESH:90deg_h40_w80_t36.STL(1)
G0 F15000 X156.724 Y82.025
G0 X158.178 Y97.176
G0 X158.19 Y98.428
G0 X157.324 Y98.428
G1 F1500 E1224.0453
G1 F2001.4 X77.724 Y98.428 E1228.61225
G1 X77.724 Y98.028 E1228.6352
G1 X156.999 Y98.028 E1233.1835
G0 F2700 X157.324 Y98.028
G0 X157.324 Y98.428
G0 F15000 X156.724 Y98.428
G1 F1500 E1226.6835
;MESH:NONMESH
G0 F300 X156.724 Y98.428 Z17.4
G0 F15000 X156.724 Y97.164
G0 X157.324 Y82.025
G0 X157.324 Y81.16
;TIME_ELAPSED:889.777560
;LAYER:57
;note -- min layer time used
;TYPE:WALL-OUTER
;MESH:90deg_h40_w80_t36.STL
G1 F1500 E1233.1835
G1 F2001.4 X77.724 Y81.16 E1237.75045
G1 X77.724 Y80.76 E1237.7734
G1 X156.999 Y80.76 E1242.3217
G0 F2700 X157.324 Y80.76
G0 X157.324 Y81.16
G0 F15000 X156.724 Y81.16
G1 F1500 E1235.8217
;MESH:90deg_h40_w80_t36.STL(1)
G0 F15000 X156.724 Y82.025
G0 X158.178 Y97.176
G0 X158.19 Y98.428
G0 X157.324 Y98.428
G1 F1500 E1242.3217
G1 F2001.4 X77.724 Y98.428 E1246.88865
G1 X77.724 Y98.028 E1246.9116
G1 X156.999 Y98.028 E1251.4599
G0 F2700 X157.324 Y98.028
G0 X157.324 Y98.428
G0 F15000 X156.724 Y98.428
G1 F1500 E1244.9599
;MESH:NONMESH
G0 F300 X156.724 Y98.428 Z17.7
G0 F15000 X156.724 Y97.164
G0 X157.324 Y82.025
G0 X157.324 Y81.16
;TIME_ELAPSED:901.769214
;LAYER:58
;note -- min layer time used
;TYPE:WALL-OUTER
;MESH:90deg_h40_w80_t36.STL
G1 F1500 E1251.4599
G1 F2001.4 X77.724 Y81.16 E1256.02685
G1 X77.724 Y80.76 E1256.0498
G1 X156.999 Y80.76 E1260.5981
G0 F2700 X157.324 Y80.76
G0 X157.324 Y81.16
G0 F15000 X156.724 Y81.16
G1 F1500 E1254.0981
;MESH:90deg_h40_w80_t36.STL(1)
G0 F15000 X156.724 Y82.025
G0 X158.178 Y97.176
G0 X158.19 Y98.428
G0 X157.324 Y98.428
G1 F1500 E1260.5981
G1 F2001.4 X77.724 Y98.428 E1265.16505
G1 X77.724 Y98.028 E1265.188
G1 X156.999 Y98.028 E1269.73631
G0 F2700 X157.324 Y98.028
G0 X157.324 Y98.428
G0 F15000 X156.724 Y98.428
G1 F1500 E1263.23631
;MESH:NONMESH
G0 F300 X156.724 Y98.428 Z18
G0 F15000 X156.724 Y97.164
G0 X157.324 Y82.025
G0 X157.324 Y81.16
;TIME_ELAPSED:913.760869
;LAYER:59
;note -- min layer time used
;TYPE:WALL-OUTER
;MESH:90deg_h40_w80_t36.STL
G1 F1500 E1269.73631
G1 F2001.4 X77.724 Y81.16 E1274.30325
G1 X77.724 Y80.76 E1274.3262
G1 X156.999 Y80.76 E1278.87451
G0 F2700 X157.324 Y80.76
G0 X157.324 Y81.16
G0 F15000 X156.724 Y81.16
G1 F1500 E1272.37451
;MESH:90deg_h40_w80_t36.STL(1)
G0 F15000 X156.724 Y82.025
G0 X158.178 Y97.176
G0 X158.19 Y98.428
G0 X157.324 Y98.428
G1 F1500 E1278.87451
G1 F2001.4 X77.724 Y98.428 E1283.44146
G1 X77.724 Y98.028 E1283.46441
G1 X156.999 Y98.028 E1288.01271
G0 F2700 X157.324 Y98.028
G0 X157.324 Y98.428
G0 F15000 X156.724 Y98.428
G1 F1500 E1281.51271
;MESH:NONMESH
G0 F300 X156.724 Y98.428 Z18.3
G0 F15000 X156.724 Y97.164
G0 X157.324 Y82.025
G0 X157.324 Y81.16
;TIME_ELAPSED:925.752523
;LAYER:60
;note -- min layer time used
;TYPE:WALL-OUTER
;MESH:90deg_h40_w80_t36.STL
G1 F1500 E1288.01271
G1 F2001.4 X77.724 Y81.16 E1292.57966
G1 X77.724 Y80.76 E1292.60261
G1 X156.999 Y80.76 E1297.15091
G0 F2700 X157.324 Y80.76
G0 X157.324 Y81.16
G0 F15000 X156.724 Y81.16
G1 F1500 E1290.65091
;MESH:90deg_h40_w80_t36.STL(1)
G0 F15000 X156.724 Y82.025
G0 X158.178 Y97.176
G0 X158.19 Y98.428
G0 X157.324 Y98.428
G1 F1500 E1297.15091
G1 F2001.4 X77.724 Y98.428 E1301.71786
G1 X77.724 Y98.028 E1301.74081
G1 X156.999 Y98.028 E1306.28911
G0 F2700 X157.324 Y98.028
G0 X157.324 Y98.428
G0 F15000 X156.724 Y98.428
G1 F1500 E1299.78911
;MESH:NONMESH
G0 F300 X156.724 Y98.428 Z18.6
G0 F15000 X156.724 Y97.164
G0 X157.324 Y82.025
G0 X157.324 Y81.16
;TIME_ELAPSED:937.744178
;LAYER:61
;note -- min layer time used
;TYPE:WALL-OUTER
;MESH:90deg_h40_w80_t36.STL
G1 F1500 E1306.28911
G1 F2001.4 X77.724 Y81.16 E1310.85606
G1 X77.724 Y80.76 E1310.87901
G1 X156.999 Y80.76 E1315.42731
G0 F2700 X157.324 Y80.76
G0 X157.324 Y81.16
G0 F15000 X156.724 Y81.16
G1 F1500 E1308.92731
;MESH:90deg_h40_w80_t36.STL(1)
G0 F15000 X156.724 Y82.025
G0 X158.178 Y97.176
G0 X158.19 Y98.428
G0 X157.324 Y98.428
G1 F1500 E1315.42731
G1 F2001.4 X77.724 Y98.428 E1319.99426
G1 X77.724 Y98.028 E1320.01721
G1 X156.999 Y98.028 E1324.56551
G0 F2700 X157.324 Y98.028
G0 X157.324 Y98.428
G0 F15000 X156.724 Y98.428
G1 F1500 E1318.06551
;MESH:NONMESH
G0 F300 X156.724 Y98.428 Z18.9
G0 F15000 X156.724 Y97.164
G0 X157.324 Y82.025
G0 X157.324 Y81.16
;TIME_ELAPSED:949.735832
;LAYER:62
;note -- min layer time used
;TYPE:WALL-OUTER
;MESH:90deg_h40_w80_t36.STL
G1 F1500 E1324.56551
G1 F2001.4 X77.724 Y81.16 E1329.13246
G1 X77.724 Y80.76 E1329.15541
G1 X156.999 Y80.76 E1333.70371
G0 F2700 X157.324 Y80.76
G0 X157.324 Y81.16
G0 F15000 X156.724 Y81.16
G1 F1500 E1327.20371
;MESH:90deg_h40_w80_t36.STL(1)
G0 F15000 X156.724 Y82.025
G0 X158.178 Y97.176
G0 X158.19 Y98.428
G0 X157.324 Y98.428
G1 F1500 E1333.70371
G1 F2001.4 X77.724 Y98.428 E1338.27066
G1 X77.724 Y98.028 E1338.29361
G1 X156.999 Y98.028 E1342.84192
G0 F2700 X157.324 Y98.028
G0 X157.324 Y98.428
G0 F15000 X156.724 Y98.428
G1 F1500 E1336.34192
;MESH:NONMESH
G0 F300 X156.724 Y98.428 Z19.2
G0 F15000 X156.724 Y97.164
G0 X157.324 Y82.025
G0 X157.324 Y81.16
;TIME_ELAPSED:961.727486
;LAYER:63
;note -- min layer time used
;TYPE:WALL-OUTER
;MESH:90deg_h40_w80_t36.STL
G1 F1500 E1342.84192
G1 F2001.4 X77.724 Y81.16 E1347.40887
G1 X77.724 Y80.76 E1347.43181
G1 X156.999 Y80.76 E1351.98012
G0 F2700 X157.324 Y80.76
G0 X157.324 Y81.16
G0 F15000 X156.724 Y81.16
G1 F1500 E1345.48012
;MESH:90deg_h40_w80_t36.STL(1)
G0 F15000 X156.724 Y82.025
G0 X158.178 Y97.176
G0 X158.19 Y98.428
G0 X157.324 Y98.428
G1 F1500 E1351.98012
G1 F2001.4 X77.724 Y98.428 E1356.54707
G1 X77.724 Y98.028 E1356.57002
G1 X156.999 Y98.028 E1361.11832
G0 F2700 X157.324 Y98.028
G0 X157.324 Y98.428
G0 F15000 X156.724 Y98.428
G1 F1500 E1354.61832
;MESH:NONMESH
G0 F300 X156.724 Y98.428 Z19.5
G0 F15000 X156.724 Y97.164
G0 X157.324 Y82.025
G0 X157.324 Y81.16
;TIME_ELAPSED:973.719141
;LAYER:64
;note -- min layer time used
;TYPE:WALL-OUTER
;MESH:90deg_h40_w80_t36.STL
G1 F1500 E1361.11832
G1 F2001.4 X77.724 Y81.16 E1365.68527
G1 X77.724 Y80.76 E1365.70822
G1 X156.999 Y80.76 E1370.25652
G0 F2700 X157.324 Y80.76
G0 X157.324 Y81.16
G0 F15000 X156.724 Y81.16
G1 F1500 E1363.75652
;MESH:90deg_h40_w80_t36.STL(1)
G0 F15000 X156.724 Y82.025
G0 X158.178 Y97.176
G0 X158.19 Y98.428
G0 X157.324 Y98.428
G1 F1500 E1370.25652
G1 F2001.4 X77.724 Y98.428 E1374.82347
G1 X77.724 Y98.028 E1374.84642
G1 X156.999 Y98.028 E1379.39472
G0 F2700 X157.324 Y98.028
G0 X157.324 Y98.428
G0 F15000 X156.724 Y98.428
G1 F1500 E1372.89472
;MESH:NONMESH
G0 F300 X156.724 Y98.428 Z19.8
G0 F15000 X156.724 Y97.164
G0 X157.324 Y82.025
G0 X157.324 Y81.16
;TIME_ELAPSED:985.710795
;LAYER:65
;note -- min layer time used
;TYPE:WALL-OUTER
;MESH:90deg_h40_w80_t36.STL
G1 F1500 E1379.39472
G1 F2001.4 X77.724 Y81.16 E1383.96167
G1 X77.724 Y80.76 E1383.98462
G1 X156.999 Y80.76 E1388.53292
G0 F2700 X157.324 Y80.76
G0 X157.324 Y81.16
G0 F15000 X156.724 Y81.16
G1 F1500 E1382.03292
;MESH:90deg_h40_w80_t36.STL(1)
G0 F15000 X156.724 Y82.025
G0 X158.178 Y97.176
G0 X158.19 Y98.428
G0 X157.324 Y98.428
G1 F1500 E1388.53292
G1 F2001.4 X77.724 Y98.428 E1393.09987
G1 X77.724 Y98.028 E1393.12282
G1 X156.999 Y98.028 E1397.67112
G0 F2700 X157.324 Y98.028
G0 X157.324 Y98.428
G0 F15000 X156.724 Y98.428
G1 F1500 E1391.17112
;MESH:NONMESH
G0 F300 X156.724 Y98.428 Z20.1
G0 F15000 X156.724 Y97.164
G0 X157.324 Y82.025
G0 X157.324 Y81.16
;TIME_ELAPSED:997.702450
;LAYER:66
;note -- min layer time used
;TYPE:WALL-OUTER
;MESH:90deg_h40_w80_t36.STL
G1 F1500 E1397.67112
G1 F2001.4 X77.724 Y81.16 E1402.23807
G1 X77.724 Y80.76 E1402.26102
G1 X156.999 Y80.76 E1406.80933
G0 F2700 X157.324 Y80.76
G0 X157.324 Y81.16
G0 F15000 X156.724 Y81.16
G1 F1500 E1400.30933
;MESH:90deg_h40_w80_t36.STL(1)
G0 F15000 X156.724 Y82.025
G0 X158.178 Y97.176
G0 X158.19 Y98.428
G0 X157.324 Y98.428
G1 F1500 E1406.80933
G1 F2001.4 X77.724 Y98.428 E1411.37627
G1 X77.724 Y98.028 E1411.39922
G1 X156.999 Y98.028 E1415.94753
G0 F2700 X157.324 Y98.028
G0 X157.324 Y98.428
G0 F15000 X156.724 Y98.428
G1 F1500 E1409.44753
;MESH:NONMESH
G0 F300 X156.724 Y98.428 Z20.4
G0 F15000 X156.724 Y97.164
G0 X157.324 Y82.025
G0 X157.324 Y81.16
;TIME_ELAPSED:1009.694104
;LAYER:67
;note -- min layer time used
;TYPE:WALL-OUTER
;MESH:90deg_h40_w80_t36.STL
G1 F1500 E1415.94753
G1 F2001.4 X77.724 Y81.16 E1420.51448
G1 X77.724 Y80.76 E1420.53743
G1 X156.999 Y80.76 E1425.08573
G0 F2700 X157.324 Y80.76
G0 X157.324 Y81.16
G0 F15000 X156.724 Y81.16
G1 F1500 E1418.58573
;MESH:90deg_h40_w80_t36.STL(1)
G0 F15000 X156.724 Y82.025
G0 X158.178 Y97.176
G0 X158.19 Y98.428
G0 X157.324 Y98.428
G1 F1500 E1425.08573
G1 F2001.4 X77.724 Y98.428 E1429.65268
G1 X77.724 Y98.028 E1429.67563
G1 X156.999 Y98.028 E1434.22393
G0 F2700 X157.324 Y98.028
G0 X157.324 Y98.428
G0 F15000 X156.724 Y98.428
G1 F1500 E1427.72393
;MESH:NONMESH
G0 F300 X156.724 Y98.428 Z20.7
G0 F15000 X156.724 Y97.164
G0 X157.324 Y82.025
G0 X157.324 Y81.16
;TIME_ELAPSED:1021.685758
;LAYER:68
;note -- min layer time used
;TYPE:WALL-OUTER
;MESH:90deg_h40_w80_t36.STL
G1 F1500 E1434.22393
G1 F2001.4 X77.724 Y81.16 E1438.79088
G1 X77.724 Y80.76 E1438.81383
G1 X156.999 Y80.76 E1443.36213
G0 F2700 X157.324 Y80.76
G0 X157.324 Y81.16
G0 F15000 X156.724 Y81.16
G1 F1500 E1436.86213
;MESH:90deg_h40_w80_t36.STL(1)
G0 F15000 X156.724 Y82.025
G0 X158.178 Y97.176
G0 X158.19 Y98.428
G0 X157.324 Y98.428
G1 F1500 E1443.36213
G1 F2001.4 X77.724 Y98.428 E1447.92908
G1 X77.724 Y98.028 E1447.95203
G1 X156.999 Y98.028 E1452.50033
G0 F2700 X157.324 Y98.028
G0 X157.324 Y98.428
G0 F15000 X156.724 Y98.428
G1 F1500 E1446.00033
;MESH:NONMESH
G0 F300 X156.724 Y98.428 Z21
G0 F15000 X156.724 Y97.164
G0 X157.324 Y82.025
G0 X157.324 Y81.16
;TIME_ELAPSED:1033.677413
;LAYER:69
;note -- min layer time used
;TYPE:WALL-OUTER
;MESH:90deg_h40_w80_t36.STL
G1 F1500 E1452.50033
G1 F2001.4 X77.724 Y81.16 E1457.06728
G1 X77.724 Y80.76 E1457.09023
G1 X156.999 Y80.76 E1461.63853
G0 F2700 X157.324 Y80.76
G0 X157.324 Y81.16
G0 F15000 X156.724 Y81.16
G1 F1500 E1455.13853
;MESH:90deg_h40_w80_t36.STL(1)
G0 F15000 X156.724 Y82.025
G0 X158.178 Y97.176
G0 X158.19 Y98.428
G0 X157.324 Y98.428
G1 F1500 E1461.63853
G1 F2001.4 X77.724 Y98.428 E1466.20548
G1 X77.724 Y98.028 E1466.22843
G1 X156.999 Y98.028 E1470.77673
G0 F2700 X157.324 Y98.028
G0 X157.324 Y98.428
G0 F15000 X156.724 Y98.428
G1 F1500 E1464.27673
;MESH:NONMESH
G0 F300 X156.724 Y98.428 Z21.3
G0 F15000 X156.724 Y97.164
G0 X157.324 Y82.025
G0 X157.324 Y81.16
;TIME_ELAPSED:1045.669067
;LAYER:70
;note -- min layer time used
;TYPE:WALL-OUTER
;MESH:90deg_h40_w80_t36.STL
G1 F1500 E1470.77673
G1 F2001.4 X77.724 Y81.16 E1475.34368
G1 X77.724 Y80.76 E1475.36663
G1 X156.999 Y80.76 E1479.91494
G0 F2700 X157.324 Y80.76
G0 X157.324 Y81.16
G0 F15000 X156.724 Y81.16
G1 F1500 E1473.41494
;MESH:90deg_h40_w80_t36.STL(1)
G0 F15000 X156.724 Y82.025
G0 X158.178 Y97.176
G0 X158.19 Y98.428
G0 X157.324 Y98.428
G1 F1500 E1479.91494
G1 F2001.4 X77.724 Y98.428 E1484.48188
G1 X77.724 Y98.028 E1484.50483
G1 X156.999 Y98.028 E1489.05314
G0 F2700 X157.324 Y98.028
G0 X157.324 Y98.428
G0 F15000 X156.724 Y98.428
G1 F1500 E1482.55314
;MESH:NONMESH
G0 F300 X156.724 Y98.428 Z21.6
G0 F15000 X156.724 Y97.164
G0 X157.324 Y82.025
G0 X157.324 Y81.16
;TIME_ELAPSED:1057.660721
;LAYER:71
;note -- min layer time used
;TYPE:WALL-OUTER
;MESH:90deg_h40_w80_t36.STL
G1 F1500 E1489.05314
G1 F2001.4 X77.724 Y81.16 E1493.62009
G1 X77.724 Y80.76 E1493.64304
G1 X156.999 Y80.76 E1498.19134
G0 F2700 X157.324 Y80.76
G0 X157.324 Y81.16
G0 F15000 X156.724 Y81.16
G1 F1500 E1491.69134
;MESH:90deg_h40_w80_t36.STL(1)
G0 F15000 X156.724 Y82.025
G0 X158.178 Y97.176
G0 X158.19 Y98.428
G0 X157.324 Y98.428
G1 F1500 E1498.19134
G1 F2001.4 X77.724 Y98.428 E1502.75829
G1 X77.724 Y98.028 E1502.78124
G1 X156.999 Y98.028 E1507.32954
G0 F2700 X157.324 Y98.028
G0 X157.324 Y98.428
G0 F15000 X156.724 Y98.428
G1 F1500 E1500.82954
;MESH:NONMESH
G0 F300 X156.724 Y98.428 Z21.9
G0 F15000 X156.724 Y97.164
G0 X157.324 Y82.025
G0 X157.324 Y81.16
;TIME_ELAPSED:1069.652376
;LAYER:72
;note -- min layer time used
;TYPE:WALL-OUTER
;MESH:90deg_h40_w80_t36.STL
G1 F1500 E1507.32954
G1 F2001.4 X77.724 Y81.16 E1511.89649
G1 X77.724 Y80.76 E1511.91944
G1 X156.999 Y80.76 E1516.46774
G0 F2700 X157.324 Y80.76
G0 X157.324 Y81.16
G0 F15000 X156.724 Y81.16
G1 F1500 E1509.96774
;MESH:90deg_h40_w80_t36.STL(1)
G0 F15000 X156.724 Y82.025
G0 X158.178 Y97.176
G0 X158.19 Y98.428
G0 X157.324 Y98.428
G1 F1500 E1516.46774
G1 F2001.4 X77.724 Y98.428 E1521.03469
G1 X77.724 Y98.028 E1521.05764
G1 X156.999 Y98.028 E1525.60594
G0 F2700 X157.324 Y98.028
G0 X157.324 Y98.428
G0 F15000 X156.724 Y98.428
;TIME_ELAPSED:1080.895496
G1 F1500 E1519.10594
M140 S0
M107
G91 ;Relative positioning
G1 E-2 F2700 ;Retract a bit
G1 E-2 Z0.2 F2400 ;Retract and raise Z
G1 X5 Y5 F3000 ;Wipe out
G1 Z10 ;Raise Z more
G90 ;Absolute positioning

G1 X0 Y235 ;Present print
M106 S0 ;Turn-off fan
M104 S0 ;Turn-off hotend
M140 S0 ;Turn-off bed

M84 X Y E ;Disable all steppers but Z

M82 ;absolute extrusion mode
M104 S0
;End of Gcode
;SETTING_3 {"global_quality": "[general]\\nversion = 4\\nname = Standard 0.2 luc
;SETTING_3 \\ndefinition = creality_ender3\\n\\n[metadata]\\ntype = quality_chan
;SETTING_3 ges\\nquality_type = standard\\nsetting_version = 25\\n\\n[values]\\n
;SETTING_3 adhesion_type = brim\\nbridge_settings_enabled = True\\nlayer_height 
;SETTING_3 = 0.3\\nlayer_height_0 = 0.3\\nraft_smoothing = 2\\nretraction_combin
;SETTING_3 g = noskin\\nsupport_enable = True\\nsupport_structure = tree\\nsuppo
;SETTING_3 rt_type = buildplate\\n\\n", "extruder_quality": ["[general]\\nversio
;SETTING_3 n = 4\\nname = Standard 0.2 luc\\ndefinition = creality_ender3\\n\\n[
;SETTING_3 metadata]\\ntype = quality_changes\\nquality_type = standard\\nintent
;SETTING_3 _category = default\\nposition = 0\\nsetting_version = 25\\n\\n[value
;SETTING_3 s]\\nalternate_extra_perimeter = False\\nbridge_skin_material_flow = 
;SETTING_3 80\\nbridge_wall_material_flow = 90\\nbrim_inside_margin = 1.5\\nbrim
;SETTING_3 _width = 4.4\\ncoasting_enable = True\\ncoasting_volume = 0.1\\ncool_
;SETTING_3 fan_speed = 10\\nhole_xy_offset = 0.1\\ninfill_material_flow = 145.0\
;SETTING_3 \ninfill_overlap = 60\\ninfill_pattern = cubicsubdiv\\nmaterial_print
;SETTING_3 _temperature = 212\\nraft_airgap = 0.26\\nraft_margin = 2\\nretract_a
;SETTING_3 t_layer_change = True\\nretraction_hop_enabled = False\\nretraction_h
;SETTING_3 op_only_when_collides = True\\nskin_overlap = 15.0\\nspeed_infill = 4
;SETTING_3 5\\nspeed_print = 100\\nsupport_bottom_enable = False\\nsupport_botto
;SETTING_3 m_height = =extruderValue(support_bottom_extruder_nr, 'support_interf
;SETTING_3 ace_height')\\nsupport_interface_density = 65\\nsupport_interface_hei
;SETTING_3 ght = 0.6\\nsupport_interface_material_flow = 105\\nsupport_interface
;SETTING_3 _pattern = zigzag\\nsupport_material_flow = 115\\nsupport_roof_enable
;SETTING_3  = False\\nsupport_tree_tip_diameter = 1.2\\nsupport_z_distance = 0.1
;SETTING_3 7\\nsupport_z_seam_away_from_model = False\\nsupport_z_seam_min_dista
;SETTING_3 nce = 1.2\\ntop_bottom_pattern = zigzag\\ntop_bottom_thickness = 2\\n
;SETTING_3 wall_0_wipe_dist = 0.6\\nwall_line_count = 5\\nwall_material_flow = 1
;SETTING_3 15\\nxy_offset_layer_0 = -0.02\\nz_seam_corner = z_seam_corner_inner\
;SETTING_3 \nz_seam_type = sharpest_corner\\n\\n"]}
