;FLAVOR:Marlin
;TIME:891
;Filament used: 0.762803m
;Layer height: 0.3
;MINX:73.345
;MINY:76.38
;MINZ:0.3
;MAXX:161.705
;MAXY:85.54
;MAXZ:21.9
;TARGET_MACHINE.NAME:Creality Ender-3
;Generated with Cura_SteamEngine 5.11.0
M140 S60
M105
M190 S60
M104 S212
M105
M109 S212
; Ender 3 Custom Start G-code
G92 E0 ; Reset Extruder
G28 ; Home all axes
G1 Z2.0 F3000 ; Move Z Axis up little to prevent scratching of Heat Bed
G1 X0.1 Y20 Z0.3 F5000.0 ; Move to start position
G1 X0.1 Y200.0 Z0.3 F1500.0 E15 ; Draw the first line
G1 X0.4 Y200.0 Z0.3 F5000.0 ; Move to side a little
G1 X0.4 Y20 Z0.3 F1500.0 E30 ; Draw the second line
G92 E0 ; Reset Extruder
G1 Z2.0 F3000 ; Move Z Axis up little to prevent scratching of Heat Bed
G1 X5 Y20 Z0.3 F5000.0 ; Move over to prevent blob squish
M82 ;absolute extrusion mode
G92 E0
G92 E0
G1 F1500 E-6.5
;LAYER_COUNT:73
;LAYER:0
M107
G0 F6000 X74.168 Y78.014 Z0.3
;TYPE:SKIRT
G1 F1500 E0
G1 F1200 X75.003 Y77.236 E0.05694
G1 X76.096 Y76.584 E0.12043
G1 X77.151 Y76.41 E0.17378
G1 X157.941 Y76.38 E4.20441
G1 X158.97 Y76.633 E4.25727
G1 X160.071 Y77.203 E4.31913
G1 X160.848 Y78.037 E4.376
G1 X161.462 Y79.07 E4.43595
G1 X161.513 Y79.214 E4.44357
G1 X161.695 Y80.435 E4.50516
G1 X161.705 Y81.777 E4.57211
G1 X161.458 Y82.793 E4.62428
G1 X160.882 Y83.906 E4.6868
G1 X160.047 Y84.684 E4.74374
G1 X158.954 Y85.336 E4.80724
G1 X157.899 Y85.51 E4.86058
G1 X77.109 Y85.54 E8.89121
G1 X76.08 Y85.287 E8.94408
G1 X74.979 Y84.717 E9.00593
G1 X74.202 Y83.883 E9.0628
G1 X73.588 Y82.85 E9.12275
G1 X73.537 Y82.706 E9.13037
G1 X73.355 Y81.485 E9.19196
G1 X73.345 Y80.143 E9.25892
G1 X73.592 Y79.127 E9.31108
G1 X74.168 Y78.014 E9.3736
G0 F6000 X74.49 Y78.261
G1 F1200 X75.245 Y77.558 E9.42507
G1 X76.236 Y76.967 E9.48264
G1 X77.216 Y76.805 E9.53219
G1 X157.895 Y76.78 E13.55729
G1 X158.827 Y77.009 E13.60517
G1 X159.824 Y77.525 E13.66117
G1 X160.527 Y78.28 E13.71264
G1 X161.118 Y79.274 E13.77034
G1 X161.295 Y80.438 E13.82907
G1 X161.305 Y81.729 E13.89349
G1 X161.08 Y82.654 E13.94098
G1 X160.56 Y83.659 E13.99743
G1 X159.805 Y84.362 E14.0489
G1 X158.814 Y84.953 E14.10647
G1 X157.834 Y85.115 E14.15602
G1 X77.155 Y85.14 E18.18111
G1 X76.223 Y84.911 E18.22899
G1 X75.226 Y84.395 E18.285
G1 X74.523 Y83.64 E18.33647
G1 X73.932 Y82.646 E18.39416
G1 X73.755 Y81.482 E18.4529
G1 X73.745 Y80.191 E18.51731
G1 X73.97 Y79.266 E18.56481
G1 X74.49 Y78.261 E18.62126
G0 F6000 X74.813 Y78.506
G1 F1200 X75.484 Y77.882 E18.66698
G1 X76.376 Y77.35 E18.71879
G1 X77.281 Y77.2 E18.76456
G1 X157.849 Y77.18 E22.78411
G1 X158.684 Y77.385 E22.82701
G1 X159.579 Y77.848 E22.87728
G1 X160.203 Y78.519 E22.923
G1 X160.735 Y79.413 E22.9749
G1 X160.895 Y80.441 E23.0268
G1 X160.905 Y81.681 E23.08867
G1 X160.702 Y82.515 E23.13149
G1 X160.237 Y83.414 E23.18199
G1 X159.566 Y84.038 E23.2277
G1 X158.674 Y84.57 E23.27952
G1 X157.769 Y84.72 E23.32528
G1 X77.201 Y84.74 E27.34484
G1 X76.366 Y84.535 E27.38773
G1 X75.471 Y84.072 E27.43801
G1 X74.847 Y83.401 E27.48372
G1 X74.315 Y82.507 E27.53562
G1 X74.155 Y81.479 E27.58753
G1 X74.145 Y80.239 E27.64939
G1 X74.348 Y79.405 E27.69222
G1 X74.813 Y78.506 E27.74271
G0 F6000 X75.136 Y78.751
G1 F1200 X75.723 Y78.206 E27.78267
G1 X76.516 Y77.733 E27.82874
G1 X77.347 Y77.595 E27.87077
G1 X157.803 Y77.58 E31.88473
G1 X158.541 Y77.761 E31.92264
G1 X159.334 Y78.171 E31.96718
G1 X159.879 Y78.758 E32.00714
G1 X160.352 Y79.552 E32.05325
G1 X160.495 Y80.444 E32.09832
G1 X160.505 Y81.633 E32.15764
G1 X160.324 Y82.376 E32.1958
G1 X159.914 Y83.169 E32.24033
G1 X159.327 Y83.714 E32.2803
G1 X158.534 Y84.187 E32.32636
G1 X157.703 Y84.325 E32.36839
G1 X77.247 Y84.34 E36.38236
G1 X76.509 Y84.159 E36.42027
G1 X75.716 Y83.749 E36.4648
G1 X75.171 Y83.162 E36.50476
G1 X74.698 Y82.368 E36.55087
G1 X74.555 Y81.476 E36.59594
G1 X74.545 Y80.287 E36.65527
G1 X74.726 Y79.544 E36.69342
G1 X75.136 Y78.751 E36.73796
G0 F6000 X75.459 Y78.996
G1 F1200 X75.962 Y78.53 E36.77217
G1 X76.656 Y78.116 E36.81248
G1 X77.413 Y77.99 E36.85077
G1 X157.753 Y77.98 E40.85895
G1 X158.402 Y78.139 E40.89228
G1 X159.089 Y78.494 E40.93086
G1 X159.555 Y78.997 E40.96507
G1 X159.969 Y79.691 E41.00539
G1 X160.095 Y80.448 E41.04368
G1 X160.105 Y81.585 E41.1004
G1 X159.946 Y82.237 E41.13388
G1 X159.591 Y82.924 E41.17246
G1 X159.088 Y83.39 E41.20667
G1 X158.394 Y83.804 E41.24699
G1 X157.637 Y83.93 E41.28528
G1 X77.297 Y83.94 E45.29346
G1 X76.648 Y83.781 E45.32679
G1 X75.961 Y83.426 E45.36537
G1 X75.495 Y82.923 E45.39958
G1 X75.081 Y82.229 E45.4399
G1 X74.955 Y81.472 E45.47818
G1 X74.945 Y80.335 E45.53491
G1 X75.104 Y79.683 E45.56839
G1 X75.459 Y78.996 E45.60697
G0 F6000 X75.782 Y79.242
G1 F1200 X76.201 Y78.854 E45.63546
G1 X76.796 Y78.499 E45.67003
G1 X77.479 Y78.385 E45.70458
G1 X157.703 Y78.38 E49.70697
G1 X158.263 Y78.517 E49.73573
G1 X158.843 Y78.817 E49.76831
G1 X159.231 Y79.236 E49.7968
G1 X159.586 Y79.831 E49.83137
G1 X159.7 Y80.514 E49.86591
G1 X159.705 Y81.537 E49.91695
G1 X159.568 Y82.098 E49.94576
G1 X159.268 Y82.678 E49.97834
G1 X158.849 Y83.066 E50.00683
G1 X158.254 Y83.421 E50.0414
G1 X157.571 Y83.535 E50.07594
G1 X77.347 Y83.54 E54.07833
G1 X76.787 Y83.403 E54.1071
G1 X76.207 Y83.103 E54.13967
G1 X75.819 Y82.684 E54.16816
G1 X75.464 Y82.089 E54.20273
G1 X75.35 Y81.406 E54.23728
G1 X75.345 Y80.383 E54.28832
G1 X75.482 Y79.822 E54.31713
G1 X75.782 Y79.242 E54.3497
G0 F6000 X76.105 Y79.488
G1 F1200 X76.443 Y79.175 E54.37269
G1 X76.934 Y78.882 E54.40121
G1 X77.545 Y78.78 E54.43212
G1 X157.653 Y78.78 E58.42872
G1 X158.124 Y78.895 E58.45291
G1 X158.597 Y79.14 E58.47949
G1 X158.91 Y79.478 E58.50247
G1 X159.203 Y79.969 E58.531
G1 X159.305 Y80.58 E58.5619
G1 X159.305 Y81.488 E58.6072
G1 X159.19 Y81.959 E58.63139
G1 X158.945 Y82.432 E58.65796
G1 X158.607 Y82.745 E58.68095
G1 X158.116 Y83.038 E58.70947
G1 X157.505 Y83.14 E58.74038
G1 X77.397 Y83.14 E62.73698
G1 X76.926 Y83.025 E62.76117
G1 X76.453 Y82.78 E62.78775
G1 X76.14 Y82.442 E62.81073
G1 X75.847 Y81.951 E62.83926
G1 X75.745 Y81.34 E62.87016
G1 X75.745 Y80.432 E62.91546
G1 X75.86 Y79.961 E62.93965
G1 X76.105 Y79.488 E62.96623
G0 F6000 X76.428 Y79.734
G1 F1200 X76.685 Y79.496 E62.9837
G1 X77.072 Y79.265 E63.00619
G1 X77.545 Y79.18 E63.03016
G1 X157.603 Y79.18 E67.02427
G1 X157.985 Y79.273 E67.04389
G1 X158.351 Y79.463 E67.06446
G1 X158.589 Y79.72 E67.08194
G1 X158.82 Y80.107 E67.10442
G1 X158.905 Y80.58 E67.1284
G1 X158.905 Y81.438 E67.1712
G1 X158.812 Y81.82 E67.19082
G1 X158.622 Y82.186 E67.21139
G1 X158.365 Y82.424 E67.22887
G1 X157.978 Y82.655 E67.25135
G1 X157.505 Y82.74 E67.27533
G1 X77.447 Y82.74 E71.26944
G1 X77.065 Y82.647 E71.28905
G1 X76.699 Y82.457 E71.30963
G1 X76.461 Y82.2 E71.3271
G1 X76.23 Y81.813 E71.34959
G1 X76.145 Y81.34 E71.37356
G1 X76.145 Y80.482 E71.41637
G1 X76.238 Y80.1 E71.43598
G1 X76.428 Y79.734 E71.45656
G0 F6000 X76.752 Y79.979
G1 F1200 X76.615 Y80.242 E71.47135
G1 X76.545 Y80.531 E71.48619
G1 X76.545 Y81.34 E71.52655
G1 X76.61 Y81.668 E71.54323
G1 X76.805 Y81.995 E71.56223
G1 X76.944 Y82.133 E71.572
G1 X77.207 Y82.27 E71.58679
G1 X77.496 Y82.34 E71.60163
G1 X157.505 Y82.34 E75.59329
G1 X157.833 Y82.275 E75.60997
G1 X158.16 Y82.08 E75.62897
G1 X158.298 Y81.941 E75.63874
G1 X158.435 Y81.678 E75.65354
G1 X158.505 Y81.389 E75.66837
G1 X158.505 Y80.58 E75.70873
G1 X158.44 Y80.252 E75.72541
G1 X158.245 Y79.925 E75.74441
G1 X158.106 Y79.787 E75.75418
G1 X157.843 Y79.65 E75.76898
G1 X157.554 Y79.58 E75.78381
G1 X77.545 Y79.58 E79.77548
G1 X77.217 Y79.645 E79.79216
G1 X76.89 Y79.84 E79.81115
G1 X76.752 Y79.979 E79.82092
G0 F6000 X77.384 Y80.461
G1 F1200 X77.545 Y80.38 E79.82992
G1 X157.505 Y80.38 E83.81914
G1 X157.624 Y80.419 E83.82538
G1 X157.705 Y80.58 E83.83438
G1 X157.705 Y81.34 E83.87229
G1 X157.666 Y81.459 E83.87854
G1 X157.505 Y81.54 E83.88753
G1 X77.545 Y81.54 E87.87675
G1 X77.426 Y81.501 E87.883
G1 X77.345 Y81.34 E87.89199
G1 X77.345 Y80.58 E87.92991
G1 X77.384 Y80.461 E87.93616
G0 F6000 X77.004 Y80.336
G1 F1200 X77.095 Y80.184 E87.94499
G1 X77.365 Y80.023 E87.96068
G1 X77.545 Y79.98 E87.96991
G1 X157.505 Y79.98 E91.95913
G1 X157.749 Y80.039 E91.97166
G1 X157.901 Y80.13 E91.98049
G1 X158.062 Y80.4 E91.99618
G1 X158.105 Y80.58 E92.00541
G1 X158.105 Y81.34 E92.04333
G1 X158.046 Y81.584 E92.05585
G1 X157.955 Y81.736 E92.06469
G1 X157.685 Y81.897 E92.08037
G1 X157.505 Y81.94 E92.08961
G1 X77.545 Y81.94 E96.07883
G1 X77.301 Y81.881 E96.09135
G1 X77.149 Y81.79 E96.10019
G1 X76.988 Y81.52 E96.11587
G1 X76.945 Y81.34 E96.1251
G1 X76.945 Y80.58 E96.16302
G1 X77.004 Y80.336 E96.17555
G1 F1500 E89.67555
;MESH:90deg_h40_w80_t36.STL
G0 F6000 X76.88 Y80.336
G0 X76.892 Y81.993
G0 X157.314 Y82.005
G0 X157.314 Y81.15
;TYPE:WALL-OUTER
G1 F1500 E96.17555
G1 F1263.2 X77.734 Y81.15 E100.51306
G1 X77.734 Y80.77 E100.53377
G1 X156.969 Y80.77 E104.85248
G0 F1080 X157.314 Y80.77
G0 X157.314 Y81.15
G0 F6000 X156.714 Y81.15
G1 F1500 E98.35248
;MESH:NONMESH
G0 F300 X156.714 Y81.15 Z0.6
G0 F6000 X157.324 Y81.16
;TIME_ELAPSED:111.421812
;LAYER:1
;note -- min layer time used
M106 S12.8
;TYPE:WALL-OUTER
;MESH:90deg_h40_w80_t36.STL
G1 F1500 E104.85248
G1 F960.7 X77.724 Y81.16 E109.41943
G1 X77.724 Y80.76 E109.44238
G1 X156.999 Y80.76 E113.99068
G0 F1890 X157.324 Y80.76
G0 X157.324 Y81.16
G0 F10500 X156.724 Y81.16
G1 F1500 E107.49068
;MESH:NONMESH
G0 F300 X156.724 Y81.16 Z0.9
G0 F10500 X157.324 Y81.16
;TIME_ELAPSED:122.256332
;LAYER:2
;note -- min layer time used
M106 S25.5
;TYPE:WALL-OUTER
;MESH:90deg_h40_w80_t36.STL
G1 F1500 E113.99068
G1 F960.5 X77.724 Y81.16 E118.55763
G1 X77.724 Y80.76 E118.58058
G1 X156.999 Y80.76 E123.12888
G0 F2700 X157.324 Y80.76
G0 X157.324 Y81.16
G0 F15000 X156.724 Y81.16
G1 F1500 E116.62888
;MESH:NONMESH
G0 F300 X156.724 Y81.16 Z1.2
G0 F15000 X157.324 Y81.16
;TIME_ELAPSED:133.094682
;LAYER:3
;note -- min layer time used
;TYPE:WALL-OUTER
;MESH:90deg_h40_w80_t36.STL
G1 F1500 E123.12888
G1 F960.5 X77.724 Y81.16 E127.69583
G1 X77.724 Y80.76 E127.71878
G1 X156.999 Y80.76 E132.26708
G0 F2700 X157.324 Y80.76
G0 X157.324 Y81.16
G0 F15000 X156.724 Y81.16
G1 F1500 E125.76708
;MESH:NONMESH
G0 F300 X156.724 Y81.16 Z1.5
G0 F15000 X157.324 Y81.16
;TIME_ELAPSED:143.933031
;LAYER:4
;note -- min layer time used
;TYPE:WALL-OUTER
;MESH:90deg_h40_w80_t36.STL
G1 F1500 E132.26708
G1 F960.5 X77.724 Y81.16 E136.83403
G1 X77.724 Y80.76 E136.85698
G1 X156.999 Y80.76 E141.40528
G0 F2700 X157.324 Y80.76
G0 X157.324 Y81.16
G0 F15000 X156.724 Y81.16
G1 F1500 E134.90528
;MESH:NONMESH
G0 F300 X156.724 Y81.16 Z1.8
G0 F15000 X157.324 Y81.16
;TIME_ELAPSED:154.771381
;LAYER:5
;note -- min layer time used
;TYPE:WALL-OUTER
;MESH:90deg_h40_w80_t36.STL
G1 F1500 E141.40528
G1 F960.5 X77.724 Y81.16 E145.97223
G1 X77.724 Y80.76 E145.99518
G1 X156.999 Y80.76 E150.54348
G0 F2700 X157.324 Y80.76
G0 X157.324 Y81.16
G0 F15000 X156.724 Y81.16
G1 F1500 E144.04348
;MESH:NONMESH
G0 F300 X156.724 Y81.16 Z2.1
G0 F15000 X157.324 Y81.16
;TIME_ELAPSED:165.609731
;LAYER:6
;note -- min layer time used
;TYPE:WALL-OUTER
;MESH:90deg_h40_w80_t36.STL
G1 F1500 E150.54348
G1 F960.5 X77.724 Y81.16 E155.11043
G1 X77.724 Y80.76 E155.13338
G1 X156.999 Y80.76 E159.68168
G0 F2700 X157.324 Y80.76
G0 X157.324 Y81.16
G0 F15000 X156.724 Y81.16
G1 F1500 E153.18168
;MESH:NONMESH
G0 F300 X156.724 Y81.16 Z2.4
G0 F15000 X157.324 Y81.16
;TIME_ELAPSED:176.448081
;LAYER:7
;note -- min layer time used
;TYPE:WALL-OUTER
;MESH:90deg_h40_w80_t36.STL
G1 F1500 E159.68168
G1 F960.5 X77.724 Y81.16 E164.24863
G1 X77.724 Y80.76 E164.27158
G1 X156.999 Y80.76 E168.81989
G0 F2700 X157.324 Y80.76
G0 X157.324 Y81.16
G0 F15000 X156.724 Y81.16
G1 F1500 E162.31989
;MESH:NONMESH
G0 F300 X156.724 Y81.16 Z2.7
G0 F15000 X157.324 Y81.16
;TIME_ELAPSED:187.286431
;LAYER:8
;note -- min layer time used
;TYPE:WALL-OUTER
;MESH:90deg_h40_w80_t36.STL
G1 F1500 E168.81989
G1 F960.5 X77.724 Y81.16 E173.38683
G1 X77.724 Y80.76 E173.40978
G1 X156.999 Y80.76 E177.95809
G0 F2700 X157.324 Y80.76
G0 X157.324 Y81.16
G0 F15000 X156.724 Y81.16
G1 F1500 E171.45809
;MESH:NONMESH
G0 F300 X156.724 Y81.16 Z3
G0 F15000 X157.324 Y81.16
;TIME_ELAPSED:198.124781
;LAYER:9
;note -- min layer time used
;TYPE:WALL-OUTER
;MESH:90deg_h40_w80_t36.STL
G1 F1500 E177.95809
G1 F960.5 X77.724 Y81.16 E182.52504
G1 X77.724 Y80.76 E182.54799
G1 X156.999 Y80.76 E187.09629
G0 F2700 X157.324 Y80.76
G0 X157.324 Y81.16
G0 F15000 X156.724 Y81.16
G1 F1500 E180.59629
;MESH:NONMESH
G0 F300 X156.724 Y81.16 Z3.3
G0 F15000 X157.324 Y81.16
;TIME_ELAPSED:208.963131
;LAYER:10
;note -- min layer time used
;TYPE:WALL-OUTER
;MESH:90deg_h40_w80_t36.STL
G1 F1500 E187.09629
G1 F960.5 X77.724 Y81.16 E191.66324
G1 X77.724 Y80.76 E191.68619
G1 X156.999 Y80.76 E196.23449
G0 F2700 X157.324 Y80.76
G0 X157.324 Y81.16
G0 F15000 X156.724 Y81.16
G1 F1500 E189.73449
;MESH:NONMESH
G0 F300 X156.724 Y81.16 Z3.6
G0 F15000 X157.324 Y81.16
;TIME_ELAPSED:219.801480
;LAYER:11
;note -- min layer time used
;TYPE:WALL-OUTER
;MESH:90deg_h40_w80_t36.STL
G1 F1500 E196.23449
G1 F960.5 X77.724 Y81.16 E200.80144
G1 X77.724 Y80.76 E200.82439
G1 X156.999 Y80.76 E205.37269
G0 F2700 X157.324 Y80.76
G0 X157.324 Y81.16
G0 F15000 X156.724 Y81.16
G1 F1500 E198.87269
;MESH:NONMESH
G0 F300 X156.724 Y81.16 Z3.9
G0 F15000 X157.324 Y81.16
;TIME_ELAPSED:230.639830
;LAYER:12
;note -- min layer time used
;TYPE:WALL-OUTER
;MESH:90deg_h40_w80_t36.STL
G1 F1500 E205.37269
G1 F960.5 X77.724 Y81.16 E209.93964
G1 X77.724 Y80.76 E209.96259
G1 X156.999 Y80.76 E214.51089
G0 F2700 X157.324 Y80.76
G0 X157.324 Y81.16
G0 F15000 X156.724 Y81.16
G1 F1500 E208.01089
;MESH:NONMESH
G0 F300 X156.724 Y81.16 Z4.2
G0 F15000 X157.324 Y81.16
;TIME_ELAPSED:241.478180
;LAYER:13
;note -- min layer time used
;TYPE:WALL-OUTER
;MESH:90deg_h40_w80_t36.STL
G1 F1500 E214.51089
G1 F960.5 X77.724 Y81.16 E219.07784
G1 X77.724 Y80.76 E219.10079
G1 X156.999 Y80.76 E223.64909
G0 F2700 X157.324 Y80.76
G0 X157.324 Y81.16
G0 F15000 X156.724 Y81.16
G1 F1500 E217.14909
;MESH:NONMESH
G0 F300 X156.724 Y81.16 Z4.5
G0 F15000 X157.324 Y81.16
;TIME_ELAPSED:252.316530
;LAYER:14
;note -- min layer time used
;TYPE:WALL-OUTER
;MESH:90deg_h40_w80_t36.STL
G1 F1500 E223.64909
G1 F960.5 X77.724 Y81.16 E228.21604
G1 X77.724 Y80.76 E228.23899
G1 X156.999 Y80.76 E232.78729
G0 F2700 X157.324 Y80.76
G0 X157.324 Y81.16
G0 F15000 X156.724 Y81.16
G1 F1500 E226.28729
;MESH:NONMESH
G0 F300 X156.724 Y81.16 Z4.8
G0 F15000 X157.324 Y81.16
;TIME_ELAPSED:263.154880
;LAYER:15
;note -- min layer time used
;TYPE:WALL-OUTER
;MESH:90deg_h40_w80_t36.STL
G1 F1500 E232.78729
G1 F960.5 X77.724 Y81.16 E237.35424
G1 X77.724 Y80.76 E237.37719
G1 X156.999 Y80.76 E241.9255
G0 F2700 X157.324 Y80.76
G0 X157.324 Y81.16
G0 F15000 X156.724 Y81.16
G1 F1500 E235.4255
;MESH:NONMESH
G0 F300 X156.724 Y81.16 Z5.1
G0 F15000 X157.324 Y81.16
;TIME_ELAPSED:273.993230
;LAYER:16
;note -- min layer time used
;TYPE:WALL-OUTER
;MESH:90deg_h40_w80_t36.STL
G1 F1500 E241.9255
G1 F960.5 X77.724 Y81.16 E246.49245
G1 X77.724 Y80.76 E246.51539
G1 X156.999 Y80.76 E251.0637
G0 F2700 X157.324 Y80.76
G0 X157.324 Y81.16
G0 F15000 X156.724 Y81.16
G1 F1500 E244.5637
;MESH:NONMESH
G0 F300 X156.724 Y81.16 Z5.4
G0 F15000 X157.324 Y81.16
;TIME_ELAPSED:284.831580
;LAYER:17
;note -- min layer time used
;TYPE:WALL-OUTER
;MESH:90deg_h40_w80_t36.STL
G1 F1500 E251.0637
G1 F960.5 X77.724 Y81.16 E255.63065
G1 X77.724 Y80.76 E255.6536
G1 X156.999 Y80.76 E260.2019
G0 F2700 X157.324 Y80.76
G0 X157.324 Y81.16
G0 F15000 X156.724 Y81.16
G1 F1500 E253.7019
;MESH:NONMESH
G0 F300 X156.724 Y81.16 Z5.7
G0 F15000 X157.324 Y81.16
;TIME_ELAPSED:295.669929
;LAYER:18
;note -- min layer time used
;TYPE:WALL-OUTER
;MESH:90deg_h40_w80_t36.STL
G1 F1500 E260.2019
G1 F960.5 X77.724 Y81.16 E264.76885
G1 X77.724 Y80.76 E264.7918
G1 X156.999 Y80.76 E269.3401
G0 F2700 X157.324 Y80.76
G0 X157.324 Y81.16
G0 F15000 X156.724 Y81.16
G1 F1500 E262.8401
;MESH:NONMESH
G0 F300 X156.724 Y81.16 Z6
G0 F15000 X157.324 Y81.16
;TIME_ELAPSED:306.508279
;LAYER:19
;note -- min layer time used
;TYPE:WALL-OUTER
;MESH:90deg_h40_w80_t36.STL
G1 F1500 E269.3401
G1 F960.5 X77.724 Y81.16 E273.90705
G1 X77.724 Y80.76 E273.93
G1 X156.999 Y80.76 E278.4783
G0 F2700 X157.324 Y80.76
G0 X157.324 Y81.16
G0 F15000 X156.724 Y81.16
G1 F1500 E271.9783
;MESH:NONMESH
G0 F300 X156.724 Y81.16 Z6.3
G0 F15000 X157.324 Y81.16
;TIME_ELAPSED:317.346629
;LAYER:20
;note -- min layer time used
;TYPE:WALL-OUTER
;MESH:90deg_h40_w80_t36.STL
G1 F1500 E278.4783
G1 F960.5 X77.724 Y81.16 E283.04525
G1 X77.724 Y80.76 E283.0682
G1 X156.999 Y80.76 E287.6165
G0 F2700 X157.324 Y80.76
G0 X157.324 Y81.16
G0 F15000 X156.724 Y81.16
G1 F1500 E281.1165
;MESH:NONMESH
G0 F300 X156.724 Y81.16 Z6.6
G0 F15000 X157.324 Y81.16
;TIME_ELAPSED:328.184979
;LAYER:21
;note -- min layer time used
;TYPE:WALL-OUTER
;MESH:90deg_h40_w80_t36.STL
G1 F1500 E287.6165
G1 F960.5 X77.724 Y81.16 E292.18345
G1 X77.724 Y80.76 E292.2064
G1 X156.999 Y80.76 E296.7547
G0 F2700 X157.324 Y80.76
G0 X157.324 Y81.16
G0 F15000 X156.724 Y81.16
G1 F1500 E290.2547
;MESH:NONMESH
G0 F300 X156.724 Y81.16 Z6.9
G0 F15000 X157.324 Y81.16
;TIME_ELAPSED:339.023329
;LAYER:22
;note -- min layer time used
;TYPE:WALL-OUTER
;MESH:90deg_h40_w80_t36.STL
G1 F1500 E296.7547
G1 F960.5 X77.724 Y81.16 E301.32165
G1 X77.724 Y80.76 E301.3446
G1 X156.999 Y80.76 E305.89291
G0 F2700 X157.324 Y80.76
G0 X157.324 Y81.16
G0 F15000 X156.724 Y81.16
G1 F1500 E299.39291
;MESH:NONMESH
G0 F300 X156.724 Y81.16 Z7.2
G0 F15000 X157.324 Y81.16
;TIME_ELAPSED:349.861679
;LAYER:23
;note -- min layer time used
;TYPE:WALL-OUTER
;MESH:90deg_h40_w80_t36.STL
G1 F1500 E305.89291
G1 F960.5 X77.724 Y81.16 E310.45985
G1 X77.724 Y80.76 E310.4828
G1 X156.999 Y80.76 E315.03111
G0 F2700 X157.324 Y80.76
G0 X157.324 Y81.16
G0 F15000 X156.724 Y81.16
G1 F1500 E308.53111
;MESH:NONMESH
G0 F300 X156.724 Y81.16 Z7.5
G0 F15000 X157.324 Y81.16
;TIME_ELAPSED:360.700029
;LAYER:24
;note -- min layer time used
;TYPE:WALL-OUTER
;MESH:90deg_h40_w80_t36.STL
G1 F1500 E315.03111
G1 F960.5 X77.724 Y81.16 E319.59806
G1 X77.724 Y80.76 E319.62101
G1 X156.999 Y80.76 E324.16931
G0 F2700 X157.324 Y80.76
G0 X157.324 Y81.16
G0 F15000 X156.724 Y81.16
G1 F1500 E317.66931
;MESH:NONMESH
G0 F300 X156.724 Y81.16 Z7.8
G0 F15000 X157.324 Y81.16
;TIME_ELAPSED:371.538378
;LAYER:25
;note -- min layer time used
;TYPE:WALL-OUTER
;MESH:90deg_h40_w80_t36.STL
G1 F1500 E324.16931
G1 F960.5 X77.724 Y81.16 E328.73626
G1 X77.724 Y80.76 E328.75921
G1 X156.999 Y80.76 E333.30751
G0 F2700 X157.324 Y80.76
G0 X157.324 Y81.16
G0 F15000 X156.724 Y81.16
G1 F1500 E326.80751
;MESH:NONMESH
G0 F300 X156.724 Y81.16 Z8.1
G0 F15000 X157.324 Y81.16
;TIME_ELAPSED:382.376728
;LAYER:26
;note -- min layer time used
;TYPE:WALL-OUTER
;MESH:90deg_h40_w80_t36.STL
G1 F1500 E333.30751
G1 F960.5 X77.724 Y81.16 E337.87446
G1 X77.724 Y80.76 E337.89741
G1 X156.999 Y80.76 E342.44571
G0 F2700 X157.324 Y80.76
G0 X157.324 Y81.16
G0 F15000 X156.724 Y81.16
G1 F1500 E335.94571
;MESH:NONMESH
G0 F300 X156.724 Y81.16 Z8.4
G0 F15000 X157.324 Y81.16
;TIME_ELAPSED:393.215078
;LAYER:27
;note -- min layer time used
;TYPE:WALL-OUTER
;MESH:90deg_h40_w80_t36.STL
G1 F1500 E342.44571
G1 F960.5 X77.724 Y81.16 E347.01266
G1 X77.724 Y80.76 E347.03561
G1 X156.999 Y80.76 E351.58391
G0 F2700 X157.324 Y80.76
G0 X157.324 Y81.16
G0 F15000 X156.724 Y81.16
G1 F1500 E345.08391
;MESH:NONMESH
G0 F300 X156.724 Y81.16 Z8.7
G0 F15000 X157.324 Y81.16
;TIME_ELAPSED:404.053428
;LAYER:28
;note -- min layer time used
;TYPE:WALL-OUTER
;MESH:90deg_h40_w80_t36.STL
G1 F1500 E351.58391
G1 F960.5 X77.724 Y81.16 E356.15086
G1 X77.724 Y80.76 E356.17381
G1 X156.999 Y80.76 E360.72211
G0 F2700 X157.324 Y80.76
G0 X157.324 Y81.16
G0 F15000 X156.724 Y81.16
G1 F1500 E354.22211
;MESH:NONMESH
G0 F300 X156.724 Y81.16 Z9
G0 F15000 X157.324 Y81.16
;TIME_ELAPSED:414.891778
;LAYER:29
;note -- min layer time used
;TYPE:WALL-OUTER
;MESH:90deg_h40_w80_t36.STL
G1 F1500 E360.72211
G1 F960.5 X77.724 Y81.16 E365.28906
G1 X77.724 Y80.76 E365.31201
G1 X156.999 Y80.76 E369.86031
G0 F2700 X157.324 Y80.76
G0 X157.324 Y81.16
G0 F15000 X156.724 Y81.16
G1 F1500 E363.36031
;MESH:NONMESH
G0 F300 X156.724 Y81.16 Z9.3
G0 F15000 X157.324 Y81.16
;TIME_ELAPSED:425.730128
;LAYER:30
;note -- min layer time used
;TYPE:WALL-OUTER
;MESH:90deg_h40_w80_t36.STL
G1 F1500 E369.86031
G1 F960.5 X77.724 Y81.16 E374.42726
G1 X77.724 Y80.76 E374.45021
G1 X156.999 Y80.76 E378.99852
G0 F2700 X157.324 Y80.76
G0 X157.324 Y81.16
G0 F15000 X156.724 Y81.16
G1 F1500 E372.49852
;MESH:NONMESH
G0 F300 X156.724 Y81.16 Z9.6
G0 F15000 X157.324 Y81.16
;TIME_ELAPSED:436.568478
;LAYER:31
;note -- min layer time used
;TYPE:WALL-OUTER
;MESH:90deg_h40_w80_t36.STL
G1 F1500 E378.99852
G1 F960.5 X77.724 Y81.16 E383.56547
G1 X77.724 Y80.76 E383.58841
G1 X156.999 Y80.76 E388.13672
G0 F2700 X157.324 Y80.76
G0 X157.324 Y81.16
G0 F15000 X156.724 Y81.16
G1 F1500 E381.63672
;MESH:NONMESH
G0 F300 X156.724 Y81.16 Z9.9
G0 F15000 X157.324 Y81.16
;TIME_ELAPSED:447.406827
;LAYER:32
;note -- min layer time used
;TYPE:WALL-OUTER
;MESH:90deg_h40_w80_t36.STL
G1 F1500 E388.13672
G1 F960.5 X77.724 Y81.16 E392.70367
G1 X77.724 Y80.76 E392.72662
G1 X156.999 Y80.76 E397.27492
G0 F2700 X157.324 Y80.76
G0 X157.324 Y81.16
G0 F15000 X156.724 Y81.16
G1 F1500 E390.77492
;MESH:NONMESH
G0 F300 X156.724 Y81.16 Z10.2
G0 F15000 X157.324 Y81.16
;TIME_ELAPSED:458.245177
;LAYER:33
;note -- min layer time used
;TYPE:WALL-OUTER
;MESH:90deg_h40_w80_t36.STL
G1 F1500 E397.27492
G1 F960.5 X77.724 Y81.16 E401.84187
G1 X77.724 Y80.76 E401.86482
G1 X156.999 Y80.76 E406.41312
G0 F2700 X157.324 Y80.76
G0 X157.324 Y81.16
G0 F15000 X156.724 Y81.16
G1 F1500 E399.91312
;MESH:NONMESH
G0 F300 X156.724 Y81.16 Z10.5
G0 F15000 X157.324 Y81.16
;TIME_ELAPSED:469.083527
;LAYER:34
;note -- min layer time used
;TYPE:WALL-OUTER
;MESH:90deg_h40_w80_t36.STL
G1 F1500 E406.41312
G1 F960.5 X77.724 Y81.16 E410.98007
G1 X77.724 Y80.76 E411.00302
G1 X156.999 Y80.76 E415.55132
G0 F2700 X157.324 Y80.76
G0 X157.324 Y81.16
G0 F15000 X156.724 Y81.16
G1 F1500 E409.05132
;MESH:NONMESH
G0 F300 X156.724 Y81.16 Z10.8
G0 F15000 X157.324 Y81.16
;TIME_ELAPSED:479.921877
;LAYER:35
;note -- min layer time used
;TYPE:WALL-OUTER
;MESH:90deg_h40_w80_t36.STL
G1 F1500 E415.55132
G1 F960.5 X77.724 Y81.16 E420.11827
G1 X77.724 Y80.76 E420.14122
G1 X156.999 Y80.76 E424.68952
G0 F2700 X157.324 Y80.76
G0 X157.324 Y81.16
G0 F15000 X156.724 Y81.16
G1 F1500 E418.18952
;MESH:NONMESH
G0 F300 X156.724 Y81.16 Z11.1
G0 F15000 X157.324 Y81.16
;TIME_ELAPSED:490.760227
;LAYER:36
;note -- min layer time used
;TYPE:WALL-OUTER
;MESH:90deg_h40_w80_t36.STL
G1 F1500 E424.68952
G1 F960.5 X77.724 Y81.16 E429.25647
G1 X77.724 Y80.76 E429.27942
G1 X156.999 Y80.76 E433.82772
G0 F2700 X157.324 Y80.76
G0 X157.324 Y81.16
G0 F15000 X156.724 Y81.16
G1 F1500 E427.32772
;MESH:NONMESH
G0 F300 X156.724 Y81.16 Z11.4
G0 F15000 X157.324 Y81.16
;TIME_ELAPSED:501.598577
;LAYER:37
;note -- min layer time used
;TYPE:WALL-OUTER
;MESH:90deg_h40_w80_t36.STL
G1 F1500 E433.82772
G1 F960.5 X77.724 Y81.16 E438.39467
G1 X77.724 Y80.76 E438.41762
G1 X156.999 Y80.76 E442.96593
G0 F2700 X157.324 Y80.76
G0 X157.324 Y81.16
G0 F15000 X156.724 Y81.16
G1 F1500 E436.46593
;MESH:NONMESH
G0 F300 X156.724 Y81.16 Z11.7
G0 F15000 X157.324 Y81.16
;TIME_ELAPSED:512.436927
;LAYER:38
;note -- min layer time used
;TYPE:WALL-OUTER
;MESH:90deg_h40_w80_t36.STL
G1 F1500 E442.96593
G1 F960.5 X77.724 Y81.16 E447.53287
G1 X77.724 Y80.76 E447.55582
G1 X156.999 Y80.76 E452.10413
G0 F2700 X157.324 Y80.76
G0 X157.324 Y81.16
G0 F15000 X156.724 Y81.16
G1 F1500 E445.60413
;MESH:NONMESH
G0 F300 X156.724 Y81.16 Z12
G0 F15000 X157.324 Y81.16
;TIME_ELAPSED:523.275277
;LAYER:39
;note -- min layer time used
;TYPE:WALL-OUTER
;MESH:90deg_h40_w80_t36.STL
G1 F1500 E452.10413
G1 F960.5 X77.724 Y81.16 E456.67108
G1 X77.724 Y80.76 E456.69403
G1 X156.999 Y80.76 E461.24233
G0 F2700 X157.324 Y80.76
G0 X157.324 Y81.16
G0 F15000 X156.724 Y81.16
G1 F1500 E454.74233
;MESH:NONMESH
G0 F300 X156.724 Y81.16 Z12.3
G0 F15000 X157.324 Y81.16
;TIME_ELAPSED:534.113626
;LAYER:40
;note -- min layer time used
;TYPE:WALL-OUTER
;MESH:90deg_h40_w80_t36.STL
G1 F1500 E461.24233
G1 F960.5 X77.724 Y81.16 E465.80928
G1 X77.724 Y80.76 E465.83223
G1 X156.999 Y80.76 E470.38053
G0 F2700 X157.324 Y80.76
G0 X157.324 Y81.16
G0 F15000 X156.724 Y81.16
G1 F1500 E463.88053
;MESH:NONMESH
G0 F300 X156.724 Y81.16 Z12.6
G0 F15000 X157.324 Y81.16
;TIME_ELAPSED:544.951976
;LAYER:41
;note -- min layer time used
;TYPE:WALL-OUTER
;MESH:90deg_h40_w80_t36.STL
G1 F1500 E470.38053
G1 F960.5 X77.724 Y81.16 E474.94748
G1 X77.724 Y80.76 E474.97043
G1 X156.999 Y80.76 E479.51873
G0 F2700 X157.324 Y80.76
G0 X157.324 Y81.16
G0 F15000 X156.724 Y81.16
G1 F1500 E473.01873
;MESH:NONMESH
G0 F300 X156.724 Y81.16 Z12.9
G0 F15000 X157.324 Y81.16
;TIME_ELAPSED:555.790326
;LAYER:42
;note -- min layer time used
;TYPE:WALL-OUTER
;MESH:90deg_h40_w80_t36.STL
G1 F1500 E479.51873
G1 F960.5 X77.724 Y81.16 E484.08568
G1 X77.724 Y80.76 E484.10863
G1 X156.999 Y80.76 E488.65693
G0 F2700 X157.324 Y80.76
G0 X157.324 Y81.16
G0 F15000 X156.724 Y81.16
G1 F1500 E482.15693
;MESH:NONMESH
G0 F300 X156.724 Y81.16 Z13.2
G0 F15000 X157.324 Y81.16
;TIME_ELAPSED:566.628676
;LAYER:43
;note -- min layer time used
;TYPE:WALL-OUTER
;MESH:90deg_h40_w80_t36.STL
G1 F1500 E488.65693
G1 F960.5 X77.724 Y81.16 E493.22388
G1 X77.724 Y80.76 E493.24683
G1 X156.999 Y80.76 E497.79513
G0 F2700 X157.324 Y80.76
G0 X157.324 Y81.16
G0 F15000 X156.724 Y81.16
G1 F1500 E491.29513
;MESH:NONMESH
G0 F300 X156.724 Y81.16 Z13.5
G0 F15000 X157.324 Y81.16
;TIME_ELAPSED:577.467026
;LAYER:44
;note -- min layer time used
;TYPE:WALL-OUTER
;MESH:90deg_h40_w80_t36.STL
G1 F1500 E497.79513
G1 F960.5 X77.724 Y81.16 E502.36208
G1 X77.724 Y80.76 E502.38503
G1 X156.999 Y80.76 E506.93333
G0 F2700 X157.324 Y80.76
G0 X157.324 Y81.16
G0 F15000 X156.724 Y81.16
G1 F1500 E500.43333
;MESH:NONMESH
G0 F300 X156.724 Y81.16 Z13.8
G0 F15000 X157.324 Y81.16
;TIME_ELAPSED:588.305376
;LAYER:45
;note -- min layer time used
;TYPE:WALL-OUTER
;MESH:90deg_h40_w80_t36.STL
G1 F1500 E506.93333
G1 F960.5 X77.724 Y81.16 E511.50028
G1 X77.724 Y80.76 E511.52323
G1 X156.999 Y80.76 E516.07154
G0 F2700 X157.324 Y80.76
G0 X157.324 Y81.16
G0 F15000 X156.724 Y81.16
G1 F1500 E509.57154
;MESH:NONMESH
G0 F300 X156.724 Y81.16 Z14.1
G0 F15000 X157.324 Y81.16
;TIME_ELAPSED:599.143726
;LAYER:46
;note -- min layer time used
;TYPE:WALL-OUTER
;MESH:90deg_h40_w80_t36.STL
G1 F1500 E516.07154
G1 F960.5 X77.724 Y81.16 E520.63848
G1 X77.724 Y80.76 E520.66143
G1 X156.999 Y80.76 E525.20974
G0 F2700 X157.324 Y80.76
G0 X157.324 Y81.16
G0 F15000 X156.724 Y81.16
G1 F1500 E518.70974
;MESH:NONMESH
G0 F300 X156.724 Y81.16 Z14.4
G0 F15000 X157.324 Y81.16
;TIME_ELAPSED:609.982075
;LAYER:47
;note -- min layer time used
;TYPE:WALL-OUTER
;MESH:90deg_h40_w80_t36.STL
G1 F1500 E525.20974
G1 F960.5 X77.724 Y81.16 E529.77669
G1 X77.724 Y80.76 E529.79964
G1 X156.999 Y80.76 E534.34794
G0 F2700 X157.324 Y80.76
G0 X157.324 Y81.16
G0 F15000 X156.724 Y81.16
G1 F1500 E527.84794
;MESH:NONMESH
G0 F300 X156.724 Y81.16 Z14.7
G0 F15000 X157.324 Y81.16
;TIME_ELAPSED:620.820425
;LAYER:48
;note -- min layer time used
;TYPE:WALL-OUTER
;MESH:90deg_h40_w80_t36.STL
G1 F1500 E534.34794
G1 F960.5 X77.724 Y81.16 E538.91489
G1 X77.724 Y80.76 E538.93784
G1 X156.999 Y80.76 E543.48614
G0 F2700 X157.324 Y80.76
G0 X157.324 Y81.16
G0 F15000 X156.724 Y81.16
G1 F1500 E536.98614
;MESH:NONMESH
G0 F300 X156.724 Y81.16 Z15
G0 F15000 X157.324 Y81.16
;TIME_ELAPSED:631.658775
;LAYER:49
;note -- min layer time used
;TYPE:WALL-OUTER
;MESH:90deg_h40_w80_t36.STL
G1 F1500 E543.48614
G1 F960.5 X77.724 Y81.16 E548.05309
G1 X77.724 Y80.76 E548.07604
G1 X156.999 Y80.76 E552.62434
G0 F2700 X157.324 Y80.76
G0 X157.324 Y81.16
G0 F15000 X156.724 Y81.16
G1 F1500 E546.12434
;MESH:NONMESH
G0 F300 X156.724 Y81.16 Z15.3
G0 F15000 X157.324 Y81.16
;TIME_ELAPSED:642.497125
;LAYER:50
;note -- min layer time used
;TYPE:WALL-OUTER
;MESH:90deg_h40_w80_t36.STL
G1 F1500 E552.62434
G1 F960.5 X77.724 Y81.16 E557.19129
G1 X77.724 Y80.76 E557.21424
G1 X156.999 Y80.76 E561.76254
G0 F2700 X157.324 Y80.76
G0 X157.324 Y81.16
G0 F15000 X156.724 Y81.16
G1 F1500 E555.26254
;MESH:NONMESH
G0 F300 X156.724 Y81.16 Z15.6
G0 F15000 X157.324 Y81.16
;TIME_ELAPSED:653.335475
;LAYER:51
;note -- min layer time used
;TYPE:WALL-OUTER
;MESH:90deg_h40_w80_t36.STL
G1 F1500 E561.76254
G1 F960.5 X77.724 Y81.16 E566.32949
G1 X77.724 Y80.76 E566.35244
G1 X156.999 Y80.76 E570.90074
G0 F2700 X157.324 Y80.76
G0 X157.324 Y81.16
G0 F15000 X156.724 Y81.16
G1 F1500 E564.40074
;MESH:NONMESH
G0 F300 X156.724 Y81.16 Z15.9
G0 F15000 X157.324 Y81.16
;TIME_ELAPSED:664.173825
;LAYER:52
;note -- min layer time used
;TYPE:WALL-OUTER
;MESH:90deg_h40_w80_t36.STL
G1 F1500 E570.90074
G1 F960.5 X77.724 Y81.16 E575.46769
G1 X77.724 Y80.76 E575.49064
G1 X156.999 Y80.76 E580.03894
G0 F2700 X157.324 Y80.76
G0 X157.324 Y81.16
G0 F15000 X156.724 Y81.16
G1 F1500 E573.53894
;MESH:NONMESH
G0 F300 X156.724 Y81.16 Z16.2
G0 F15000 X157.324 Y81.16
;TIME_ELAPSED:675.012175
;LAYER:53
;note -- min layer time used
;TYPE:WALL-OUTER
;MESH:90deg_h40_w80_t36.STL
G1 F1500 E580.03894
G1 F960.5 X77.724 Y81.16 E584.60589
G1 X77.724 Y80.76 E584.62884
G1 X156.999 Y80.76 E589.17715
G0 F2700 X157.324 Y80.76
G0 X157.324 Y81.16
G0 F15000 X156.724 Y81.16
G1 F1500 E582.67715
;MESH:NONMESH
G0 F300 X156.724 Y81.16 Z16.5
G0 F15000 X157.324 Y81.16
;TIME_ELAPSED:685.850524
;LAYER:54
;note -- min layer time used
;TYPE:WALL-OUTER
;MESH:90deg_h40_w80_t36.STL
G1 F1500 E589.17715
G1 F960.5 X77.724 Y81.16 E593.7441
G1 X77.724 Y80.76 E593.76704
G1 X156.999 Y80.76 E598.31535
G0 F2700 X157.324 Y80.76
G0 X157.324 Y81.16
G0 F15000 X156.724 Y81.16
G1 F1500 E591.81535
;MESH:NONMESH
G0 F300 X156.724 Y81.16 Z16.8
G0 F15000 X157.324 Y81.16
;TIME_ELAPSED:696.688874
;LAYER:55
;note -- min layer time used
;TYPE:WALL-OUTER
;MESH:90deg_h40_w80_t36.STL
G1 F1500 E598.31535
G1 F960.5 X77.724 Y81.16 E602.8823
G1 X77.724 Y80.76 E602.90525
G1 X156.999 Y80.76 E607.45355
G0 F2700 X157.324 Y80.76
G0 X157.324 Y81.16
G0 F15000 X156.724 Y81.16
G1 F1500 E600.95355
;MESH:NONMESH
G0 F300 X156.724 Y81.16 Z17.1
G0 F15000 X157.324 Y81.16
;TIME_ELAPSED:707.527224
;LAYER:56
;note -- min layer time used
;TYPE:WALL-OUTER
;MESH:90deg_h40_w80_t36.STL
G1 F1500 E607.45355
G1 F960.5 X77.724 Y81.16 E612.0205
G1 X77.724 Y80.76 E612.04345
G1 X156.999 Y80.76 E616.59175
G0 F2700 X157.324 Y80.76
G0 X157.324 Y81.16
G0 F15000 X156.724 Y81.16
G1 F1500 E610.09175
;MESH:NONMESH
G0 F300 X156.724 Y81.16 Z17.4
G0 F15000 X157.324 Y81.16
;TIME_ELAPSED:718.365574
;LAYER:57
;note -- min layer time used
;TYPE:WALL-OUTER
;MESH:90deg_h40_w80_t36.STL
G1 F1500 E616.59175
G1 F960.5 X77.724 Y81.16 E621.1587
G1 X77.724 Y80.76 E621.18165
G1 X156.999 Y80.76 E625.72995
G0 F2700 X157.324 Y80.76
G0 X157.324 Y81.16
G0 F15000 X156.724 Y81.16
G1 F1500 E619.22995
;MESH:NONMESH
G0 F300 X156.724 Y81.16 Z17.7
G0 F15000 X157.324 Y81.16
;TIME_ELAPSED:729.203924
;LAYER:58
;note -- min layer time used
;TYPE:WALL-OUTER
;MESH:90deg_h40_w80_t36.STL
G1 F1500 E625.72995
G1 F960.5 X77.724 Y81.16 E630.2969
G1 X77.724 Y80.76 E630.31985
G1 X156.999 Y80.76 E634.86815
G0 F2700 X157.324 Y80.76
G0 X157.324 Y81.16
G0 F15000 X156.724 Y81.16
G1 F1500 E628.36815
;MESH:NONMESH
G0 F300 X156.724 Y81.16 Z18
G0 F15000 X157.324 Y81.16
;TIME_ELAPSED:740.042274
;LAYER:59
;note -- min layer time used
;TYPE:WALL-OUTER
;MESH:90deg_h40_w80_t36.STL
G1 F1500 E634.86815
G1 F960.5 X77.724 Y81.16 E639.4351
G1 X77.724 Y80.76 E639.45805
G1 X156.999 Y80.76 E644.00635
G0 F2700 X157.324 Y80.76
G0 X157.324 Y81.16
G0 F15000 X156.724 Y81.16
G1 F1500 E637.50635
;MESH:NONMESH
G0 F300 X156.724 Y81.16 Z18.3
G0 F15000 X157.324 Y81.16
;TIME_ELAPSED:750.880624
;LAYER:60
;note -- min layer time used
;TYPE:WALL-OUTER
;MESH:90deg_h40_w80_t36.STL
G1 F1500 E644.00635
G1 F960.5 X77.724 Y81.16 E648.5733
G1 X77.724 Y80.76 E648.59625
G1 X156.999 Y80.76 E653.14456
G0 F2700 X157.324 Y80.76
G0 X157.324 Y81.16
G0 F15000 X156.724 Y81.16
G1 F1500 E646.64456
;MESH:NONMESH
G0 F300 X156.724 Y81.16 Z18.6
G0 F15000 X157.324 Y81.16
;TIME_ELAPSED:761.718973
;LAYER:61
;note -- min layer time used
;TYPE:WALL-OUTER
;MESH:90deg_h40_w80_t36.STL
G1 F1500 E653.14456
G1 F960.5 X77.724 Y81.16 E657.7115
G1 X77.724 Y80.76 E657.73445
G1 X156.999 Y80.76 E662.28276
G0 F2700 X157.324 Y80.76
G0 X157.324 Y81.16
G0 F15000 X156.724 Y81.16
G1 F1500 E655.78276
;MESH:NONMESH
G0 F300 X156.724 Y81.16 Z18.9
G0 F15000 X157.324 Y81.16
;TIME_ELAPSED:772.557323
;LAYER:62
;note -- min layer time used
;TYPE:WALL-OUTER
;MESH:90deg_h40_w80_t36.STL
G1 F1500 E662.28276
G1 F960.5 X77.724 Y81.16 E666.84971
G1 X77.724 Y80.76 E666.87266
G1 X156.999 Y80.76 E671.42096
G0 F2700 X157.324 Y80.76
G0 X157.324 Y81.16
G0 F15000 X156.724 Y81.16
G1 F1500 E664.92096
;MESH:NONMESH
G0 F300 X156.724 Y81.16 Z19.2
G0 F15000 X157.324 Y81.16
;TIME_ELAPSED:783.395673
;LAYER:63
;note -- min layer time used
;TYPE:WALL-OUTER
;MESH:90deg_h40_w80_t36.STL
G1 F1500 E671.42096
G1 F960.5 X77.724 Y81.16 E675.98791
G1 X77.724 Y80.76 E676.01086
G1 X156.999 Y80.76 E680.55916
G0 F2700 X157.324 Y80.76
G0 X157.324 Y81.16
G0 F15000 X156.724 Y81.16
G1 F1500 E674.05916
;MESH:NONMESH
G0 F300 X156.724 Y81.16 Z19.5
G0 F15000 X157.324 Y81.16
;TIME_ELAPSED:794.234023
;LAYER:64
;note -- min layer time used
;TYPE:WALL-OUTER
;MESH:90deg_h40_w80_t36.STL
G1 F1500 E680.55916
G1 F960.5 X77.724 Y81.16 E685.12611
G1 X77.724 Y80.76 E685.14906
G1 X156.999 Y80.76 E689.69736
G0 F2700 X157.324 Y80.76
G0 X157.324 Y81.16
G0 F15000 X156.724 Y81.16
G1 F1500 E683.19736
;MESH:NONMESH
G0 F300 X156.724 Y81.16 Z19.8
G0 F15000 X157.324 Y81.16
;TIME_ELAPSED:805.072373
;LAYER:65
;note -- min layer time used
;TYPE:WALL-OUTER
;MESH:90deg_h40_w80_t36.STL
G1 F1500 E689.69736
G1 F960.5 X77.724 Y81.16 E694.26431
G1 X77.724 Y80.76 E694.28726
G1 X156.999 Y80.76 E698.83556
G0 F2700 X157.324 Y80.76
G0 X157.324 Y81.16
G0 F15000 X156.724 Y81.16
G1 F1500 E692.33556
;MESH:NONMESH
G0 F300 X156.724 Y81.16 Z20.1
G0 F15000 X157.324 Y81.16
;TIME_ELAPSED:815.910723
;LAYER:66
;note -- min layer time used
;TYPE:WALL-OUTER
;MESH:90deg_h40_w80_t36.STL
G1 F1500 E698.83556
G1 F960.5 X77.724 Y81.16 E703.40251
G1 X77.724 Y80.76 E703.42546
G1 X156.999 Y80.76 E707.97376
G0 F2700 X157.324 Y80.76
G0 X157.324 Y81.16
G0 F15000 X156.724 Y81.16
G1 F1500 E701.47376
;MESH:NONMESH
G0 F300 X156.724 Y81.16 Z20.4
G0 F15000 X157.324 Y81.16
;TIME_ELAPSED:826.749073
;LAYER:67
;note -- min layer time used
;TYPE:WALL-OUTER
;MESH:90deg_h40_w80_t36.STL
G1 F1500 E707.97376
G1 F960.5 X77.724 Y81.16 E712.54071
G1 X77.724 Y80.76 E712.56366
G1 X156.999 Y80.76 E717.11196
G0 F2700 X157.324 Y80.76
G0 X157.324 Y81.16
G0 F15000 X156.724 Y81.16
G1 F1500 E710.61196
;MESH:NONMESH
G0 F300 X156.724 Y81.16 Z20.7
G0 F15000 X157.324 Y81.16
;TIME_ELAPSED:837.587422
;LAYER:68
;note -- min layer time used
;TYPE:WALL-OUTER
;MESH:90deg_h40_w80_t36.STL
G1 F1500 E717.11196
G1 F960.5 X77.724 Y81.16 E721.67891
G1 X77.724 Y80.76 E721.70186
G1 X156.999 Y80.76 E726.25017
G0 F2700 X157.324 Y80.76
G0 X157.324 Y81.16
G0 F15000 X156.724 Y81.16
G1 F1500 E719.75017
;MESH:NONMESH
G0 F300 X156.724 Y81.16 Z21
G0 F15000 X157.324 Y81.16
;TIME_ELAPSED:848.425772
;LAYER:69
;note -- min layer time used
;TYPE:WALL-OUTER
;MESH:90deg_h40_w80_t36.STL
G1 F1500 E726.25017
G1 F960.5 X77.724 Y81.16 E730.81712
G1 X77.724 Y80.76 E730.84006
G1 X156.999 Y80.76 E735.38837
G0 F2700 X157.324 Y80.76
G0 X157.324 Y81.16
G0 F15000 X156.724 Y81.16
G1 F1500 E728.88837
;MESH:NONMESH
G0 F300 X156.724 Y81.16 Z21.3
G0 F15000 X157.324 Y81.16
;TIME_ELAPSED:859.264122
;LAYER:70
;note -- min layer time used
;TYPE:WALL-OUTER
;MESH:90deg_h40_w80_t36.STL
G1 F1500 E735.38837
G1 F960.5 X77.724 Y81.16 E739.95532
G1 X77.724 Y80.76 E739.97827
G1 X156.999 Y80.76 E744.52657
G0 F2700 X157.324 Y80.76
G0 X157.324 Y81.16
G0 F15000 X156.724 Y81.16
G1 F1500 E738.02657
;MESH:NONMESH
G0 F300 X156.724 Y81.16 Z21.6
G0 F15000 X157.324 Y81.16
;TIME_ELAPSED:870.102472
;LAYER:71
;note -- min layer time used
;TYPE:WALL-OUTER
;MESH:90deg_h40_w80_t36.STL
G1 F1500 E744.52657
G1 F960.5 X77.724 Y81.16 E749.09352
G1 X77.724 Y80.76 E749.11647
G1 X156.999 Y80.76 E753.66477
G0 F2700 X157.324 Y80.76
G0 X157.324 Y81.16
G0 F15000 X156.724 Y81.16
G1 F1500 E747.16477
;MESH:NONMESH
G0 F300 X156.724 Y81.16 Z21.9
G0 F15000 X157.324 Y81.16
;TIME_ELAPSED:880.940822
;LAYER:72
;note -- min layer time used
;TYPE:WALL-OUTER
;MESH:90deg_h40_w80_t36.STL
G1 F1500 E753.66477
G1 F960.5 X77.724 Y81.16 E758.23172
G1 X77.724 Y80.76 E758.25467
G1 X156.999 Y80.76 E762.80297
G0 F2700 X157.324 Y80.76
G0 X157.324 Y81.16
G0 F15000 X156.724 Y81.16
;TIME_ELAPSED:891.332001
G1 F1500 E756.30297
M140 S0
M107
G91 ;Relative positioning
G1 E-2 F2700 ;Retract a bit
G1 E-2 Z0.2 F2400 ;Retract and raise Z
G1 X5 Y5 F3000 ;Wipe out
G1 Z10 ;Raise Z more
G90 ;Absolute positioning

G1 X0 Y235 ;Present print
M106 S0 ;Turn-off fan
M104 S0 ;Turn-off hotend
M140 S0 ;Turn-off bed

M84 X Y E ;Disable all steppers but Z

M82 ;absolute extrusion mode
M104 S0
;End of Gcode
;SETTING_3 {"global_quality": "[general]\\nversion = 4\\nname = Standard 0.2 luc
;SETTING_3 \\ndefinition = creality_ender3\\n\\n[metadata]\\ntype = quality_chan
;SETTING_3 ges\\nquality_type = standard\\nsetting_version = 25\\n\\n[values]\\n
;SETTING_3 adhesion_type = brim\\nbridge_settings_enabled = True\\nlayer_height 
;SETTING_3 = 0.3\\nlayer_height_0 = 0.3\\nraft_smoothing = 2\\nretraction_combin
;SETTING_3 g = noskin\\nsupport_enable = True\\nsupport_structure = tree\\nsuppo
;SETTING_3 rt_type = buildplate\\n\\n", "extruder_quality": ["[general]\\nversio
;SETTING_3 n = 4\\nname = Standard 0.2 luc\\ndefinition = creality_ender3\\n\\n[
;SETTING_3 metadata]\\ntype = quality_changes\\nquality_type = standard\\nintent
;SETTING_3 _category = default\\nposition = 0\\nsetting_version = 25\\n\\n[value
;SETTING_3 s]\\nalternate_extra_perimeter = False\\nbridge_skin_material_flow = 
;SETTING_3 80\\nbridge_wall_material_flow = 90\\nbrim_inside_margin = 1.5\\nbrim
;SETTING_3 _width = 4.4\\ncoasting_enable = True\\ncoasting_volume = 0.1\\ncool_
;SETTING_3 fan_speed = 10\\nhole_xy_offset = 0.1\\ninfill_material_flow = 145.0\
;SETTING_3 \ninfill_overlap = 60\\ninfill_pattern = cubicsubdiv\\nmaterial_print
;SETTING_3 _temperature = 212\\nraft_airgap = 0.26\\nraft_margin = 2\\nretract_a
;SETTING_3 t_layer_change = True\\nretraction_hop_enabled = False\\nretraction_h
;SETTING_3 op_only_when_collides = True\\nskin_overlap = 15.0\\nspeed_infill = 4
;SETTING_3 5\\nspeed_print = 100\\nsupport_bottom_enable = False\\nsupport_botto
;SETTING_3 m_height = =extruderValue(support_bottom_extruder_nr, 'support_interf
;SETTING_3 ace_height')\\nsupport_interface_density = 65\\nsupport_interface_hei
;SETTING_3 ght = 0.6\\nsupport_interface_material_flow = 105\\nsupport_interface
;SETTING_3 _pattern = zigzag\\nsupport_material_flow = 115\\nsupport_roof_enable
;SETTING_3  = False\\nsupport_tree_tip_diameter = 1.2\\nsupport_z_distance = 0.1
;SETTING_3 7\\nsupport_z_seam_away_from_model = False\\nsupport_z_seam_min_dista
;SETTING_3 nce = 1.2\\ntop_bottom_pattern = zigzag\\ntop_bottom_thickness = 2\\n
;SETTING_3 wall_0_wipe_dist = 0.6\\nwall_line_count = 5\\nwall_material_flow = 1
;SETTING_3 15\\nxy_offset_layer_0 = -0.02\\nz_seam_corner = z_seam_corner_inner\
;SETTING_3 \nz_seam_type = sharpest_corner\\n\\n"]}
