;FLAVOR:Marlin
;TIME:697
;Filament used: 0.798519m
;Layer height: 0.4
;MINX:73.345
;MINY:76.38
;MINZ:0.4
;MAXX:161.705
;MAXY:85.54
;MAXZ:22
;TARGET_MACHINE.NAME:Creality Ender-3
;Generated with Cura_SteamEngine 5.11.0
M140 S60
M105
M190 S60
M104 S212
M105
M109 S212
; Ender 3 Custom Start G-code
G92 E0 ; Reset Extruder
G28 ; Home all axes
G1 Z2.0 F3000 ; Move Z Axis up little to prevent scratching of Heat Bed
G1 X0.1 Y20 Z0.3 F5000.0 ; Move to start position
G1 X0.1 Y200.0 Z0.3 F1500.0 E15 ; Draw the first line
G1 X0.4 Y200.0 Z0.3 F5000.0 ; Move to side a little
G1 X0.4 Y20 Z0.3 F1500.0 E30 ; Draw the second line
G92 E0 ; Reset Extruder
G1 Z2.0 F3000 ; Move Z Axis up little to prevent scratching of Heat Bed
G1 X5 Y20 Z0.3 F5000.0 ; Move over to prevent blob squish
M82 ;absolute extrusion mode
G92 E0
G92 E0
G1 F1500 E-6.5
;LAYER_COUNT:55
;LAYER:0
M107
G0 F6000 X74.168 Y78.014 Z0.4
;TYPE:SKIRT
G1 F1500 E0
G1 F1200 X75.003 Y77.236 E0.07592
G1 X76.096 Y76.584 E0.16058
G1 X77.151 Y76.41 E0.2317
G1 X157.941 Y76.38 E5.60588
G1 X158.97 Y76.633 E5.67637
G1 X160.071 Y77.203 E5.75884
G1 X160.848 Y78.037 E5.83466
G1 X161.462 Y79.07 E5.9146
G1 X161.513 Y79.214 E5.92476
G1 X161.695 Y80.435 E6.00688
G1 X161.705 Y81.777 E6.09615
G1 X161.458 Y82.793 E6.16571
G1 X160.882 Y83.906 E6.24907
G1 X160.047 Y84.684 E6.32499
G1 X158.954 Y85.336 E6.40965
G1 X157.899 Y85.51 E6.48077
G1 X77.109 Y85.54 E11.85495
G1 X76.08 Y85.287 E11.92544
G1 X74.979 Y84.717 E12.00791
G1 X74.202 Y83.883 E12.08373
G1 X73.588 Y82.85 E12.16367
G1 X73.537 Y82.706 E12.17383
G1 X73.355 Y81.485 E12.25595
G1 X73.345 Y80.143 E12.34522
G1 X73.592 Y79.127 E12.41477
G1 X74.168 Y78.014 E12.49814
G0 F6000 X74.49 Y78.261
G1 F1200 X75.245 Y77.558 E12.56676
G1 X76.236 Y76.967 E12.64352
G1 X77.216 Y76.805 E12.70959
G1 X157.895 Y76.78 E18.07638
G1 X158.827 Y77.009 E18.14022
G1 X159.824 Y77.525 E18.2149
G1 X160.527 Y78.28 E18.28352
G1 X161.118 Y79.274 E18.36045
G1 X161.295 Y80.438 E18.43877
G1 X161.305 Y81.729 E18.52465
G1 X161.08 Y82.654 E18.58797
G1 X160.56 Y83.659 E18.66324
G1 X159.805 Y84.362 E18.73187
G1 X158.814 Y84.953 E18.80862
G1 X157.834 Y85.115 E18.8747
G1 X77.155 Y85.14 E24.24149
G1 X76.223 Y84.911 E24.30533
G1 X75.226 Y84.395 E24.38
G1 X74.523 Y83.64 E24.44863
G1 X73.932 Y82.646 E24.52555
G1 X73.755 Y81.482 E24.60387
G1 X73.745 Y80.191 E24.68975
G1 X73.97 Y79.266 E24.75308
G1 X74.49 Y78.261 E24.82835
G0 F6000 X74.813 Y78.506
G1 F1200 X75.484 Y77.882 E24.8893
G1 X76.376 Y77.35 E24.95839
G1 X77.281 Y77.2 E25.01941
G1 X157.849 Y77.18 E30.37882
G1 X158.684 Y77.385 E30.43601
G1 X159.579 Y77.848 E30.50304
G1 X160.203 Y78.519 E30.56399
G1 X160.735 Y79.413 E30.6332
G1 X160.895 Y80.441 E30.7024
G1 X160.905 Y81.681 E30.78489
G1 X160.702 Y82.515 E30.84199
G1 X160.237 Y83.414 E30.90932
G1 X159.566 Y84.038 E30.97027
G1 X158.674 Y84.57 E31.03936
G1 X157.769 Y84.72 E31.10038
G1 X77.201 Y84.74 E36.45978
G1 X76.366 Y84.535 E36.51698
G1 X75.471 Y84.072 E36.58401
G1 X74.847 Y83.401 E36.64496
G1 X74.315 Y82.507 E36.71416
G1 X74.155 Y81.479 E36.78337
G1 X74.145 Y80.239 E36.86586
G1 X74.348 Y79.405 E36.92296
G1 X74.813 Y78.506 E36.99028
G0 F6000 X75.136 Y78.751
G1 F1200 X75.723 Y78.206 E37.04357
G1 X76.516 Y77.733 E37.10499
G1 X77.347 Y77.595 E37.16102
G1 X157.803 Y77.58 E42.51298
G1 X158.541 Y77.761 E42.56352
G1 X159.334 Y78.171 E42.62291
G1 X159.879 Y78.758 E42.67619
G1 X160.352 Y79.552 E42.73767
G1 X160.495 Y80.444 E42.79776
G1 X160.505 Y81.633 E42.87686
G1 X160.324 Y82.376 E42.92773
G1 X159.914 Y83.169 E42.98711
G1 X159.327 Y83.714 E43.04039
G1 X158.534 Y84.187 E43.10182
G1 X157.703 Y84.325 E43.15785
G1 X77.247 Y84.34 E48.50981
G1 X76.509 Y84.159 E48.56035
G1 X75.716 Y83.749 E48.61974
G1 X75.171 Y83.162 E48.67302
G1 X74.698 Y82.368 E48.7345
G1 X74.555 Y81.476 E48.79459
G1 X74.545 Y80.287 E48.87369
G1 X74.726 Y79.544 E48.92456
G1 X75.136 Y78.751 E48.98394
G0 F6000 X75.459 Y78.996
G1 F1200 X75.962 Y78.53 E49.02955
G1 X76.656 Y78.116 E49.08331
G1 X77.413 Y77.99 E49.13436
G1 X157.753 Y77.98 E54.4786
G1 X158.402 Y78.139 E54.52304
G1 X159.089 Y78.494 E54.57448
G1 X159.555 Y78.997 E54.6201
G1 X159.969 Y79.691 E54.67385
G1 X160.095 Y80.448 E54.7249
G1 X160.105 Y81.585 E54.80054
G1 X159.946 Y82.237 E54.84518
G1 X159.591 Y82.924 E54.89662
G1 X159.088 Y83.39 E54.94223
G1 X158.394 Y83.804 E54.99599
G1 X157.637 Y83.93 E55.04704
G1 X77.297 Y83.94 E60.39127
G1 X76.648 Y83.781 E60.43572
G1 X75.961 Y83.426 E60.48716
G1 X75.495 Y82.923 E60.53277
G1 X75.081 Y82.229 E60.58653
G1 X74.955 Y81.472 E60.63758
G1 X74.945 Y80.335 E60.71321
G1 X75.104 Y79.683 E60.75786
G1 X75.459 Y78.996 E60.8093
G0 F6000 X75.782 Y79.242
G1 F1200 X76.201 Y78.854 E60.84728
G1 X76.796 Y78.499 E60.89337
G1 X77.479 Y78.385 E60.93944
G1 X157.703 Y78.38 E66.27596
G1 X158.263 Y78.517 E66.31431
G1 X158.843 Y78.817 E66.35774
G1 X159.231 Y79.236 E66.39573
G1 X159.586 Y79.831 E66.44182
G1 X159.7 Y80.514 E66.48788
G1 X159.705 Y81.537 E66.55593
G1 X159.568 Y82.098 E66.59435
G1 X159.268 Y82.678 E66.63778
G1 X158.849 Y83.066 E66.67577
G1 X158.254 Y83.421 E66.72186
G1 X157.571 Y83.535 E66.76792
G1 X77.347 Y83.54 E72.10444
G1 X76.787 Y83.403 E72.14279
G1 X76.207 Y83.103 E72.18623
G1 X75.819 Y82.684 E72.22422
G1 X75.464 Y82.089 E72.27031
G1 X75.35 Y81.406 E72.31637
G1 X75.345 Y80.383 E72.38442
G1 X75.482 Y79.822 E72.42284
G1 X75.782 Y79.242 E72.46627
G0 F6000 X76.105 Y79.488
G1 F1200 X76.443 Y79.175 E72.49692
G1 X76.934 Y78.882 E72.53495
G1 X77.545 Y78.78 E72.57616
G1 X157.653 Y78.78 E77.90496
G1 X158.124 Y78.895 E77.93721
G1 X158.597 Y79.14 E77.97265
G1 X158.91 Y79.478 E78.00329
G1 X159.203 Y79.969 E78.04133
G1 X159.305 Y80.58 E78.08253
G1 X159.305 Y81.488 E78.14293
G1 X159.19 Y81.959 E78.17519
G1 X158.945 Y82.432 E78.21062
G1 X158.607 Y82.745 E78.24126
G1 X158.116 Y83.038 E78.2793
G1 X157.505 Y83.14 E78.3205
G1 X77.397 Y83.14 E83.64931
G1 X76.926 Y83.025 E83.68156
G1 X76.453 Y82.78 E83.717
G1 X76.14 Y82.442 E83.74764
G1 X75.847 Y81.951 E83.78567
G1 X75.745 Y81.34 E83.82688
G1 X75.745 Y80.432 E83.88728
G1 X75.86 Y79.961 E83.91953
G1 X76.105 Y79.488 E83.95497
G0 F6000 X76.428 Y79.734
G1 F1200 X76.685 Y79.496 E83.97827
G1 X77.072 Y79.265 E84.00825
G1 X77.545 Y79.18 E84.04022
G1 X157.603 Y79.18 E89.3657
G1 X157.985 Y79.273 E89.39185
G1 X158.351 Y79.463 E89.41928
G1 X158.589 Y79.72 E89.44258
G1 X158.82 Y80.107 E89.47256
G1 X158.905 Y80.58 E89.50453
G1 X158.905 Y81.438 E89.5616
G1 X158.812 Y81.82 E89.58776
G1 X158.622 Y82.186 E89.61519
G1 X158.365 Y82.424 E89.63849
G1 X157.978 Y82.655 E89.66847
G1 X157.505 Y82.74 E89.70044
G1 X77.447 Y82.74 E95.02592
G1 X77.065 Y82.647 E95.05207
G1 X76.699 Y82.457 E95.0795
G1 X76.461 Y82.2 E95.1028
G1 X76.23 Y81.813 E95.13278
G1 X76.145 Y81.34 E95.16475
G1 X76.145 Y80.482 E95.22183
G1 X76.238 Y80.1 E95.24798
G1 X76.428 Y79.734 E95.27541
G0 F6000 X76.752 Y79.979
G1 F1200 X76.615 Y80.242 E95.29514
G1 X76.545 Y80.531 E95.31492
G1 X76.545 Y81.34 E95.36873
G1 X76.61 Y81.668 E95.39097
G1 X76.805 Y81.995 E95.4163
G1 X76.944 Y82.133 E95.42933
G1 X77.207 Y82.27 E95.44906
G1 X77.496 Y82.34 E95.46884
G1 X157.505 Y82.34 E100.79106
G1 X157.833 Y82.275 E100.8133
G1 X158.16 Y82.08 E100.83863
G1 X158.298 Y81.941 E100.85165
G1 X158.435 Y81.678 E100.87138
G1 X158.505 Y81.389 E100.89116
G1 X158.505 Y80.58 E100.94498
G1 X158.44 Y80.252 E100.96722
G1 X158.245 Y79.925 E100.99255
G1 X158.106 Y79.787 E101.00557
G1 X157.843 Y79.65 E101.0253
G1 X157.554 Y79.58 E101.04508
G1 X77.545 Y79.58 E106.3673
G1 X77.217 Y79.645 E106.38954
G1 X76.89 Y79.84 E106.41487
G1 X76.752 Y79.979 E106.4279
G0 F6000 X77.384 Y80.461
G1 F1200 X77.545 Y80.38 E106.43989
G1 X157.505 Y80.38 E111.75885
G1 X157.624 Y80.419 E111.76718
G1 X157.705 Y80.58 E111.77917
G1 X157.705 Y81.34 E111.82972
G1 X157.666 Y81.459 E111.83805
G1 X157.505 Y81.54 E111.85004
G1 X77.545 Y81.54 E117.169
G1 X77.426 Y81.501 E117.17733
G1 X77.345 Y81.34 E117.18932
G1 X77.345 Y80.58 E117.23988
G1 X77.384 Y80.461 E117.24821
G0 F6000 X77.004 Y80.336
G1 F1200 X77.095 Y80.184 E117.25999
G1 X77.365 Y80.023 E117.2809
G1 X77.545 Y79.98 E117.29321
G1 X157.505 Y79.98 E122.61218
G1 X157.749 Y80.039 E122.62887
G1 X157.901 Y80.13 E122.64066
G1 X158.062 Y80.4 E122.66157
G1 X158.105 Y80.58 E122.67388
G1 X158.105 Y81.34 E122.72444
G1 X158.046 Y81.584 E122.74113
G1 X157.955 Y81.736 E122.75292
G1 X157.685 Y81.897 E122.77383
G1 X157.505 Y81.94 E122.78614
G1 X77.545 Y81.94 E128.1051
G1 X77.301 Y81.881 E128.1218
G1 X77.149 Y81.79 E128.13358
G1 X76.988 Y81.52 E128.1545
G1 X76.945 Y81.34 E128.16681
G1 X76.945 Y80.58 E128.21736
G1 X77.004 Y80.336 E128.23406
G1 F1500 E121.73406
;MESH:90deg_h40_w80_t36.STL
G0 F6000 X76.88 Y80.336
G0 X76.892 Y81.993
G0 X157.314 Y82.005
G0 X157.314 Y81.15
;TYPE:WALL-OUTER
G1 F1500 E128.23406
G1 F1263.2 X77.734 Y81.15 E134.01741
G1 X77.734 Y80.77 E134.04503
G1 X157.151 Y80.77 E139.81653
G0 F1080 X157.314 Y80.77
G0 X157.314 Y81.15
G0 F6000 X156.714 Y81.15
G1 F1500 E133.31653
;MESH:NONMESH
G0 F300 X156.714 Y81.15 Z0.8
G0 F6000 X157.324 Y81.16
;TIME_ELAPSED:111.431498
;LAYER:1
;note -- min layer time used
M106 S8.5
;TYPE:WALL-OUTER
;MESH:90deg_h40_w80_t36.STL
G1 F1500 E139.81653
G1 F960.7 X77.724 Y81.16 E145.90579
G1 X77.724 Y80.76 E145.93639
G1 X157.181 Y80.76 E152.01472
G0 F1890 X157.324 Y80.76
G0 X157.324 Y81.16
G0 F10500 X156.724 Y81.16
G1 F1500 E145.51472
;MESH:NONMESH
G0 F300 X156.724 Y81.16 Z1.2
G0 F10500 X157.324 Y81.16
;TIME_ELAPSED:122.286261
;LAYER:2
;note -- min layer time used
M106 S17
;TYPE:WALL-OUTER
;MESH:90deg_h40_w80_t36.STL
G1 F1500 E152.01472
G1 F960.5 X77.724 Y81.16 E158.10399
G1 X77.724 Y80.76 E158.13458
G1 X157.181 Y80.76 E164.21291
G0 F2700 X157.324 Y80.76
G0 X157.324 Y81.16
G0 F15000 X156.724 Y81.16
G1 F1500 E157.71291
;MESH:NONMESH
G0 F300 X156.724 Y81.16 Z1.6
G0 F15000 X157.324 Y81.16
;TIME_ELAPSED:133.144736
;LAYER:3
;note -- min layer time used
M106 S25.5
;TYPE:WALL-OUTER
;MESH:90deg_h40_w80_t36.STL
G1 F1500 E164.21291
G1 F960.5 X77.724 Y81.16 E170.30218
G1 X77.724 Y80.76 E170.33278
G1 X157.181 Y80.76 E176.4111
G0 F2700 X157.324 Y80.76
G0 X157.324 Y81.16
G0 F15000 X156.724 Y81.16
G1 F1500 E169.9111
;MESH:NONMESH
G0 F300 X156.724 Y81.16 Z2
G0 F15000 X157.324 Y81.16
;TIME_ELAPSED:144.003211
;LAYER:4
;note -- min layer time used
;TYPE:WALL-OUTER
;MESH:90deg_h40_w80_t36.STL
G1 F1500 E176.4111
G1 F960.5 X77.724 Y81.16 E182.50037
G1 X77.724 Y80.76 E182.53097
G1 X157.181 Y80.76 E188.60929
G0 F2700 X157.324 Y80.76
G0 X157.324 Y81.16
G0 F15000 X156.724 Y81.16
G1 F1500 E182.10929
;MESH:NONMESH
G0 F300 X156.724 Y81.16 Z2.4
G0 F15000 X157.324 Y81.16
;TIME_ELAPSED:154.861686
;LAYER:5
;note -- min layer time used
;TYPE:WALL-OUTER
;MESH:90deg_h40_w80_t36.STL
G1 F1500 E188.60929
G1 F960.5 X77.724 Y81.16 E194.69856
G1 X77.724 Y80.76 E194.72916
G1 X157.181 Y80.76 E200.80748
G0 F2700 X157.324 Y80.76
G0 X157.324 Y81.16
G0 F15000 X156.724 Y81.16
G1 F1500 E194.30748
;MESH:NONMESH
G0 F300 X156.724 Y81.16 Z2.8
G0 F15000 X157.324 Y81.16
;TIME_ELAPSED:165.720161
;LAYER:6
;note -- min layer time used
;TYPE:WALL-OUTER
;MESH:90deg_h40_w80_t36.STL
G1 F1500 E200.80748
G1 F960.5 X77.724 Y81.16 E206.89675
G1 X77.724 Y80.76 E206.92735
G1 X157.181 Y80.76 E213.00568
G0 F2700 X157.324 Y80.76
G0 X157.324 Y81.16
G0 F15000 X156.724 Y81.16
G1 F1500 E206.50568
;MESH:NONMESH
G0 F300 X156.724 Y81.16 Z3.2
G0 F15000 X157.324 Y81.16
;TIME_ELAPSED:176.578636
;LAYER:7
;note -- min layer time used
;TYPE:WALL-OUTER
;MESH:90deg_h40_w80_t36.STL
G1 F1500 E213.00568
G1 F960.5 X77.724 Y81.16 E219.09494
G1 X77.724 Y80.76 E219.12554
G1 X157.181 Y80.76 E225.20387
G0 F2700 X157.324 Y80.76
G0 X157.324 Y81.16
G0 F15000 X156.724 Y81.16
G1 F1500 E218.70387
;MESH:NONMESH
G0 F300 X156.724 Y81.16 Z3.6
G0 F15000 X157.324 Y81.16
;TIME_ELAPSED:187.437112
;LAYER:8
;note -- min layer time used
;TYPE:WALL-OUTER
;MESH:90deg_h40_w80_t36.STL
G1 F1500 E225.20387
G1 F960.5 X77.724 Y81.16 E231.29313
G1 X77.724 Y80.76 E231.32373
G1 X157.181 Y80.76 E237.40206
G0 F2700 X157.324 Y80.76
G0 X157.324 Y81.16
G0 F15000 X156.724 Y81.16
G1 F1500 E230.90206
;MESH:NONMESH
G0 F300 X156.724 Y81.16 Z4
G0 F15000 X157.324 Y81.16
;TIME_ELAPSED:198.295587
;LAYER:9
;note -- min layer time used
;TYPE:WALL-OUTER
;MESH:90deg_h40_w80_t36.STL
G1 F1500 E237.40206
G1 F960.5 X77.724 Y81.16 E243.49132
G1 X77.724 Y80.76 E243.52192
G1 X157.181 Y80.76 E249.60025
G0 F2700 X157.324 Y80.76
G0 X157.324 Y81.16
G0 F15000 X156.724 Y81.16
G1 F1500 E243.10025
;MESH:NONMESH
G0 F300 X156.724 Y81.16 Z4.4
G0 F15000 X157.324 Y81.16
;TIME_ELAPSED:209.154062
;LAYER:10
;note -- min layer time used
;TYPE:WALL-OUTER
;MESH:90deg_h40_w80_t36.STL
G1 F1500 E249.60025
G1 F960.5 X77.724 Y81.16 E255.68951
G1 X77.724 Y80.76 E255.72011
G1 X157.181 Y80.76 E261.79844
G0 F2700 X157.324 Y80.76
G0 X157.324 Y81.16
G0 F15000 X156.724 Y81.16
G1 F1500 E255.29844
;MESH:NONMESH
G0 F300 X156.724 Y81.16 Z4.8
G0 F15000 X157.324 Y81.16
;TIME_ELAPSED:220.012537
;LAYER:11
;note -- min layer time used
;TYPE:WALL-OUTER
;MESH:90deg_h40_w80_t36.STL
G1 F1500 E261.79844
G1 F960.5 X77.724 Y81.16 E267.88771
G1 X77.724 Y80.76 E267.9183
G1 X157.181 Y80.76 E273.99663
G0 F2700 X157.324 Y80.76
G0 X157.324 Y81.16
G0 F15000 X156.724 Y81.16
G1 F1500 E267.49663
;MESH:NONMESH
G0 F300 X156.724 Y81.16 Z5.2
G0 F15000 X157.324 Y81.16
;TIME_ELAPSED:230.871012
;LAYER:12
;note -- min layer time used
;TYPE:WALL-OUTER
;MESH:90deg_h40_w80_t36.STL
G1 F1500 E273.99663
G1 F960.5 X77.724 Y81.16 E280.0859
G1 X77.724 Y80.76 E280.1165
G1 X157.181 Y80.76 E286.19482
G0 F2700 X157.324 Y80.76
G0 X157.324 Y81.16
G0 F15000 X156.724 Y81.16
G1 F1500 E279.69482
;MESH:NONMESH
G0 F300 X156.724 Y81.16 Z5.6
G0 F15000 X157.324 Y81.16
;TIME_ELAPSED:241.729487
;LAYER:13
;note -- min layer time used
;TYPE:WALL-OUTER
;MESH:90deg_h40_w80_t36.STL
G1 F1500 E286.19482
G1 F960.5 X77.724 Y81.16 E292.28409
G1 X77.724 Y80.76 E292.31469
G1 X157.181 Y80.76 E298.39301
G0 F2700 X157.324 Y80.76
G0 X157.324 Y81.16
G0 F15000 X156.724 Y81.16
G1 F1500 E291.89301
;MESH:NONMESH
G0 F300 X156.724 Y81.16 Z6
G0 F15000 X157.324 Y81.16
;TIME_ELAPSED:252.587962
;LAYER:14
;note -- min layer time used
;TYPE:WALL-OUTER
;MESH:90deg_h40_w80_t36.STL
G1 F1500 E298.39301
G1 F960.5 X77.724 Y81.16 E304.48228
G1 X77.724 Y80.76 E304.51288
G1 X157.181 Y80.76 E310.5912
G0 F2700 X157.324 Y80.76
G0 X157.324 Y81.16
G0 F15000 X156.724 Y81.16
G1 F1500 E304.0912
;MESH:NONMESH
G0 F300 X156.724 Y81.16 Z6.4
G0 F15000 X157.324 Y81.16
;TIME_ELAPSED:263.446437
;LAYER:15
;note -- min layer time used
;TYPE:WALL-OUTER
;MESH:90deg_h40_w80_t36.STL
G1 F1500 E310.5912
G1 F960.5 X77.724 Y81.16 E316.68047
G1 X77.724 Y80.76 E316.71107
G1 X157.181 Y80.76 E322.7894
G0 F2700 X157.324 Y80.76
G0 X157.324 Y81.16
G0 F15000 X156.724 Y81.16
G1 F1500 E316.2894
;MESH:NONMESH
G0 F300 X156.724 Y81.16 Z6.8
G0 F15000 X157.324 Y81.16
;TIME_ELAPSED:274.304912
;LAYER:16
;note -- min layer time used
;TYPE:WALL-OUTER
;MESH:90deg_h40_w80_t36.STL
G1 F1500 E322.7894
G1 F960.5 X77.724 Y81.16 E328.87866
G1 X77.724 Y80.76 E328.90926
G1 X157.181 Y80.76 E334.98759
G0 F2700 X157.324 Y80.76
G0 X157.324 Y81.16
G0 F15000 X156.724 Y81.16
G1 F1500 E328.48759
;MESH:NONMESH
G0 F300 X156.724 Y81.16 Z7.2
G0 F15000 X157.324 Y81.16
;TIME_ELAPSED:285.163387
;LAYER:17
;note -- min layer time used
;TYPE:WALL-OUTER
;MESH:90deg_h40_w80_t36.STL
G1 F1500 E334.98759
G1 F960.5 X77.724 Y81.16 E341.07685
G1 X77.724 Y80.76 E341.10745
G1 X157.181 Y80.76 E347.18578
G0 F2700 X157.324 Y80.76
G0 X157.324 Y81.16
G0 F15000 X156.724 Y81.16
G1 F1500 E340.68578
;MESH:NONMESH
G0 F300 X156.724 Y81.16 Z7.6
G0 F15000 X157.324 Y81.16
;TIME_ELAPSED:296.021863
;LAYER:18
;note -- min layer time used
;TYPE:WALL-OUTER
;MESH:90deg_h40_w80_t36.STL
G1 F1500 E347.18578
G1 F960.5 X77.724 Y81.16 E353.27504
G1 X77.724 Y80.76 E353.30564
G1 X157.181 Y80.76 E359.38397
G0 F2700 X157.324 Y80.76
G0 X157.324 Y81.16
G0 F15000 X156.724 Y81.16
G1 F1500 E352.88397
;MESH:NONMESH
G0 F300 X156.724 Y81.16 Z8
G0 F15000 X157.324 Y81.16
;TIME_ELAPSED:306.880338
;LAYER:19
;note -- min layer time used
;TYPE:WALL-OUTER
;MESH:90deg_h40_w80_t36.STL
G1 F1500 E359.38397
G1 F960.5 X77.724 Y81.16 E365.47323
G1 X77.724 Y80.76 E365.50383
G1 X157.181 Y80.76 E371.58216
G0 F2700 X157.324 Y80.76
G0 X157.324 Y81.16
G0 F15000 X156.724 Y81.16
G1 F1500 E365.08216
;MESH:NONMESH
G0 F300 X156.724 Y81.16 Z8.4
G0 F15000 X157.324 Y81.16
;TIME_ELAPSED:317.738813
;LAYER:20
;note -- min layer time used
;TYPE:WALL-OUTER
;MESH:90deg_h40_w80_t36.STL
G1 F1500 E371.58216
G1 F960.5 X77.724 Y81.16 E377.67143
G1 X77.724 Y80.76 E377.70202
G1 X157.181 Y80.76 E383.78035
G0 F2700 X157.324 Y80.76
G0 X157.324 Y81.16
G0 F15000 X156.724 Y81.16
G1 F1500 E377.28035
;MESH:NONMESH
G0 F300 X156.724 Y81.16 Z8.8
G0 F15000 X157.324 Y81.16
;TIME_ELAPSED:328.597288
;LAYER:21
;note -- min layer time used
;TYPE:WALL-OUTER
;MESH:90deg_h40_w80_t36.STL
G1 F1500 E383.78035
G1 F960.5 X77.724 Y81.16 E389.86962
G1 X77.724 Y80.76 E389.90022
G1 X157.181 Y80.76 E395.97854
G0 F2700 X157.324 Y80.76
G0 X157.324 Y81.16
G0 F15000 X156.724 Y81.16
G1 F1500 E389.47854
;MESH:NONMESH
G0 F300 X156.724 Y81.16 Z9.2
G0 F15000 X157.324 Y81.16
;TIME_ELAPSED:339.455763
;LAYER:22
;note -- min layer time used
;TYPE:WALL-OUTER
;MESH:90deg_h40_w80_t36.STL
G1 F1500 E395.97854
G1 F960.5 X77.724 Y81.16 E402.06781
G1 X77.724 Y80.76 E402.09841
G1 X157.181 Y80.76 E408.17673
G0 F2700 X157.324 Y80.76
G0 X157.324 Y81.16
G0 F15000 X156.724 Y81.16
G1 F1500 E401.67673
;MESH:NONMESH
G0 F300 X156.724 Y81.16 Z9.6
G0 F15000 X157.324 Y81.16
;TIME_ELAPSED:350.314238
;LAYER:23
;note -- min layer time used
;TYPE:WALL-OUTER
;MESH:90deg_h40_w80_t36.STL
G1 F1500 E408.17673
G1 F960.5 X77.724 Y81.16 E414.266
G1 X77.724 Y80.76 E414.2966
G1 X157.181 Y80.76 E420.37492
G0 F2700 X157.324 Y80.76
G0 X157.324 Y81.16
G0 F15000 X156.724 Y81.16
G1 F1500 E413.87492
;MESH:NONMESH
G0 F300 X156.724 Y81.16 Z10
G0 F15000 X157.324 Y81.16
;TIME_ELAPSED:361.172713
;LAYER:24
;note -- min layer time used
;TYPE:WALL-OUTER
;MESH:90deg_h40_w80_t36.STL
G1 F1500 E420.37492
G1 F960.5 X77.724 Y81.16 E426.46419
G1 X77.724 Y80.76 E426.49479
G1 X157.181 Y80.76 E432.57312
G0 F2700 X157.324 Y80.76
G0 X157.324 Y81.16
G0 F15000 X156.724 Y81.16
G1 F1500 E426.07312
;MESH:NONMESH
G0 F300 X156.724 Y81.16 Z10.4
G0 F15000 X157.324 Y81.16
;TIME_ELAPSED:372.031188
;LAYER:25
;note -- min layer time used
;TYPE:WALL-OUTER
;MESH:90deg_h40_w80_t36.STL
G1 F1500 E432.57312
G1 F960.5 X77.724 Y81.16 E438.66238
G1 X77.724 Y80.76 E438.69298
G1 X157.181 Y80.76 E444.77131
G0 F2700 X157.324 Y80.76
G0 X157.324 Y81.16
G0 F15000 X156.724 Y81.16
G1 F1500 E438.27131
;MESH:NONMESH
G0 F300 X156.724 Y81.16 Z10.8
G0 F15000 X157.324 Y81.16
;TIME_ELAPSED:382.889663
;LAYER:26
;note -- min layer time used
;TYPE:WALL-OUTER
;MESH:90deg_h40_w80_t36.STL
G1 F1500 E444.77131
G1 F960.5 X77.724 Y81.16 E450.86057
G1 X77.724 Y80.76 E450.89117
G1 X157.181 Y80.76 E456.9695
G0 F2700 X157.324 Y80.76
G0 X157.324 Y81.16
G0 F15000 X156.724 Y81.16
G1 F1500 E450.4695
;MESH:NONMESH
G0 F300 X156.724 Y81.16 Z11.2
G0 F15000 X157.324 Y81.16
;TIME_ELAPSED:393.748138
;LAYER:27
;note -- min layer time used
;TYPE:WALL-OUTER
;MESH:90deg_h40_w80_t36.STL
G1 F1500 E456.9695
G1 F960.5 X77.724 Y81.16 E463.05876
G1 X77.724 Y80.76 E463.08936
G1 X157.181 Y80.76 E469.16769
G0 F2700 X157.324 Y80.76
G0 X157.324 Y81.16
G0 F15000 X156.724 Y81.16
G1 F1500 E462.66769
;MESH:NONMESH
G0 F300 X156.724 Y81.16 Z11.6
G0 F15000 X157.324 Y81.16
;TIME_ELAPSED:404.606614
;LAYER:28
;note -- min layer time used
;TYPE:WALL-OUTER
;MESH:90deg_h40_w80_t36.STL
G1 F1500 E469.16769
G1 F960.5 X77.724 Y81.16 E475.25695
G1 X77.724 Y80.76 E475.28755
G1 X157.181 Y80.76 E481.36588
G0 F2700 X157.324 Y80.76
G0 X157.324 Y81.16
G0 F15000 X156.724 Y81.16
G1 F1500 E474.86588
;MESH:NONMESH
G0 F300 X156.724 Y81.16 Z12
G0 F15000 X157.324 Y81.16
;TIME_ELAPSED:415.465089
;LAYER:29
;note -- min layer time used
;TYPE:WALL-OUTER
;MESH:90deg_h40_w80_t36.STL
G1 F1500 E481.36588
G1 F960.5 X77.724 Y81.16 E487.45515
G1 X77.724 Y80.76 E487.48574
G1 X157.181 Y80.76 E493.56407
G0 F2700 X157.324 Y80.76
G0 X157.324 Y81.16
G0 F15000 X156.724 Y81.16
G1 F1500 E487.06407
;MESH:NONMESH
G0 F300 X156.724 Y81.16 Z12.4
G0 F15000 X157.324 Y81.16
;TIME_ELAPSED:426.323564
;LAYER:30
;note -- min layer time used
;TYPE:WALL-OUTER
;MESH:90deg_h40_w80_t36.STL
G1 F1500 E493.56407
G1 F960.5 X77.724 Y81.16 E499.65334
G1 X77.724 Y80.76 E499.68394
G1 X157.181 Y80.76 E505.76226
G0 F2700 X157.324 Y80.76
G0 X157.324 Y81.16
G0 F15000 X156.724 Y81.16
G1 F1500 E499.26226
;MESH:NONMESH
G0 F300 X156.724 Y81.16 Z12.8
G0 F15000 X157.324 Y81.16
;TIME_ELAPSED:437.182039
;LAYER:31
;note -- min layer time used
;TYPE:WALL-OUTER
;MESH:90deg_h40_w80_t36.STL
G1 F1500 E505.76226
G1 F960.5 X77.724 Y81.16 E511.85153
G1 X77.724 Y80.76 E511.88213
G1 X157.181 Y80.76 E517.96045
G0 F2700 X157.324 Y80.76
G0 X157.324 Y81.16
G0 F15000 X156.724 Y81.16
G1 F1500 E511.46045
;MESH:NONMESH
G0 F300 X156.724 Y81.16 Z13.2
G0 F15000 X157.324 Y81.16
;TIME_ELAPSED:448.040514
;LAYER:32
;note -- min layer time used
;TYPE:WALL-OUTER
;MESH:90deg_h40_w80_t36.STL
G1 F1500 E517.96045
G1 F960.5 X77.724 Y81.16 E524.04972
G1 X77.724 Y80.76 E524.08032
G1 X157.181 Y80.76 E530.15864
G0 F2700 X157.324 Y80.76
G0 X157.324 Y81.16
G0 F15000 X156.724 Y81.16
G1 F1500 E523.65864
;MESH:NONMESH
G0 F300 X156.724 Y81.16 Z13.6
G0 F15000 X157.324 Y81.16
;TIME_ELAPSED:458.898989
;LAYER:33
;note -- min layer time used
;TYPE:WALL-OUTER
;MESH:90deg_h40_w80_t36.STL
G1 F1500 E530.15864
G1 F960.5 X77.724 Y81.16 E536.24791
G1 X77.724 Y80.76 E536.27851
G1 X157.181 Y80.76 E542.35684
G0 F2700 X157.324 Y80.76
G0 X157.324 Y81.16
G0 F15000 X156.724 Y81.16
G1 F1500 E535.85684
;MESH:NONMESH
G0 F300 X156.724 Y81.16 Z14
G0 F15000 X157.324 Y81.16
;TIME_ELAPSED:469.757464
;LAYER:34
;note -- min layer time used
;TYPE:WALL-OUTER
;MESH:90deg_h40_w80_t36.STL
G1 F1500 E542.35684
G1 F960.5 X77.724 Y81.16 E548.4461
G1 X77.724 Y80.76 E548.4767
G1 X157.181 Y80.76 E554.55503
G0 F2700 X157.324 Y80.76
G0 X157.324 Y81.16
G0 F15000 X156.724 Y81.16
G1 F1500 E548.05503
;MESH:NONMESH
G0 F300 X156.724 Y81.16 Z14.4
G0 F15000 X157.324 Y81.16
;TIME_ELAPSED:480.615939
;LAYER:35
;note -- min layer time used
;TYPE:WALL-OUTER
;MESH:90deg_h40_w80_t36.STL
G1 F1500 E554.55503
G1 F960.5 X77.724 Y81.16 E560.64429
G1 X77.724 Y80.76 E560.67489
G1 X157.181 Y80.76 E566.75322
G0 F2700 X157.324 Y80.76
G0 X157.324 Y81.16
G0 F15000 X156.724 Y81.16
G1 F1500 E560.25322
;MESH:NONMESH
G0 F300 X156.724 Y81.16 Z14.8
G0 F15000 X157.324 Y81.16
;TIME_ELAPSED:491.474414
;LAYER:36
;note -- min layer time used
;TYPE:WALL-OUTER
;MESH:90deg_h40_w80_t36.STL
G1 F1500 E566.75322
G1 F960.5 X77.724 Y81.16 E572.84248
G1 X77.724 Y80.76 E572.87308
G1 X157.181 Y80.76 E578.95141
G0 F2700 X157.324 Y80.76
G0 X157.324 Y81.16
G0 F15000 X156.724 Y81.16
G1 F1500 E572.45141
;MESH:NONMESH
G0 F300 X156.724 Y81.16 Z15.2
G0 F15000 X157.324 Y81.16
;TIME_ELAPSED:502.332889
;LAYER:37
;note -- min layer time used
;TYPE:WALL-OUTER
;MESH:90deg_h40_w80_t36.STL
G1 F1500 E578.95141
G1 F960.5 X77.724 Y81.16 E585.04067
G1 X77.724 Y80.76 E585.07127
G1 X157.181 Y80.76 E591.1496
G0 F2700 X157.324 Y80.76
G0 X157.324 Y81.16
G0 F15000 X156.724 Y81.16
G1 F1500 E584.6496
;MESH:NONMESH
G0 F300 X156.724 Y81.16 Z15.6
G0 F15000 X157.324 Y81.16
;TIME_ELAPSED:513.191365
;LAYER:38
;note -- min layer time used
;TYPE:WALL-OUTER
;MESH:90deg_h40_w80_t36.STL
G1 F1500 E591.1496
G1 F960.5 X77.724 Y81.16 E597.23887
G1 X77.724 Y80.76 E597.26946
G1 X157.181 Y80.76 E603.34779
G0 F2700 X157.324 Y80.76
G0 X157.324 Y81.16
G0 F15000 X156.724 Y81.16
G1 F1500 E596.84779
;MESH:NONMESH
G0 F300 X156.724 Y81.16 Z16
G0 F15000 X157.324 Y81.16
;TIME_ELAPSED:524.049840
;LAYER:39
;note -- min layer time used
;TYPE:WALL-OUTER
;MESH:90deg_h40_w80_t36.STL
G1 F1500 E603.34779
G1 F960.5 X77.724 Y81.16 E609.43706
G1 X77.724 Y80.76 E609.46766
G1 X157.181 Y80.76 E615.54598
G0 F2700 X157.324 Y80.76
G0 X157.324 Y81.16
G0 F15000 X156.724 Y81.16
G1 F1500 E609.04598
;MESH:NONMESH
G0 F300 X156.724 Y81.16 Z16.4
G0 F15000 X157.324 Y81.16
;TIME_ELAPSED:534.908315
;LAYER:40
;note -- min layer time used
;TYPE:WALL-OUTER
;MESH:90deg_h40_w80_t36.STL
G1 F1500 E615.54598
G1 F960.5 X77.724 Y81.16 E621.63525
G1 X77.724 Y80.76 E621.66585
G1 X157.181 Y80.76 E627.74417
G0 F2700 X157.324 Y80.76
G0 X157.324 Y81.16
G0 F15000 X156.724 Y81.16
G1 F1500 E621.24417
;MESH:NONMESH
G0 F300 X156.724 Y81.16 Z16.8
G0 F15000 X157.324 Y81.16
;TIME_ELAPSED:545.766790
;LAYER:41
;note -- min layer time used
;TYPE:WALL-OUTER
;MESH:90deg_h40_w80_t36.STL
G1 F1500 E627.74417
G1 F960.5 X77.724 Y81.16 E633.83344
G1 X77.724 Y80.76 E633.86404
G1 X157.181 Y80.76 E639.94236
G0 F2700 X157.324 Y80.76
G0 X157.324 Y81.16
G0 F15000 X156.724 Y81.16
G1 F1500 E633.44236
;MESH:NONMESH
G0 F300 X156.724 Y81.16 Z17.2
G0 F15000 X157.324 Y81.16
;TIME_ELAPSED:556.625265
;LAYER:42
;note -- min layer time used
;TYPE:WALL-OUTER
;MESH:90deg_h40_w80_t36.STL
G1 F1500 E639.94236
G1 F960.5 X77.724 Y81.16 E646.03163
G1 X77.724 Y80.76 E646.06223
G1 X157.181 Y80.76 E652.14056
G0 F2700 X157.324 Y80.76
G0 X157.324 Y81.16
G0 F15000 X156.724 Y81.16
G1 F1500 E645.64056
;MESH:NONMESH
G0 F300 X156.724 Y81.16 Z17.6
G0 F15000 X157.324 Y81.16
;TIME_ELAPSED:567.483740
;LAYER:43
;note -- min layer time used
;TYPE:WALL-OUTER
;MESH:90deg_h40_w80_t36.STL
G1 F1500 E652.14056
G1 F960.5 X77.724 Y81.16 E658.22982
G1 X77.724 Y80.76 E658.26042
G1 X157.181 Y80.76 E664.33875
G0 F2700 X157.324 Y80.76
G0 X157.324 Y81.16
G0 F15000 X156.724 Y81.16
G1 F1500 E657.83875
;MESH:NONMESH
G0 F300 X156.724 Y81.16 Z18
G0 F15000 X157.324 Y81.16
;TIME_ELAPSED:578.342215
;LAYER:44
;note -- min layer time used
;TYPE:WALL-OUTER
;MESH:90deg_h40_w80_t36.STL
G1 F1500 E664.33875
G1 F960.5 X77.724 Y81.16 E670.42801
G1 X77.724 Y80.76 E670.45861
G1 X157.181 Y80.76 E676.53694
G0 F2700 X157.324 Y80.76
G0 X157.324 Y81.16
G0 F15000 X156.724 Y81.16
G1 F1500 E670.03694
;MESH:NONMESH
G0 F300 X156.724 Y81.16 Z18.4
G0 F15000 X157.324 Y81.16
;TIME_ELAPSED:589.200690
;LAYER:45
;note -- min layer time used
;TYPE:WALL-OUTER
;MESH:90deg_h40_w80_t36.STL
G1 F1500 E676.53694
G1 F960.5 X77.724 Y81.16 E682.6262
G1 X77.724 Y80.76 E682.6568
G1 X157.181 Y80.76 E688.73513
G0 F2700 X157.324 Y80.76
G0 X157.324 Y81.16
G0 F15000 X156.724 Y81.16
G1 F1500 E682.23513
;MESH:NONMESH
G0 F300 X156.724 Y81.16 Z18.8
G0 F15000 X157.324 Y81.16
;TIME_ELAPSED:600.059165
;LAYER:46
;note -- min layer time used
;TYPE:WALL-OUTER
;MESH:90deg_h40_w80_t36.STL
G1 F1500 E688.73513
G1 F960.5 X77.724 Y81.16 E694.82439
G1 X77.724 Y80.76 E694.85499
G1 X157.181 Y80.76 E700.93332
G0 F2700 X157.324 Y80.76
G0 X157.324 Y81.16
G0 F15000 X156.724 Y81.16
G1 F1500 E694.43332
;MESH:NONMESH
G0 F300 X156.724 Y81.16 Z19.2
G0 F15000 X157.324 Y81.16
;TIME_ELAPSED:610.917640
;LAYER:47
;note -- min layer time used
;TYPE:WALL-OUTER
;MESH:90deg_h40_w80_t36.STL
G1 F1500 E700.93332
G1 F960.5 X77.724 Y81.16 E707.02259
G1 X77.724 Y80.76 E707.05318
G1 X157.181 Y80.76 E713.13151
G0 F2700 X157.324 Y80.76
G0 X157.324 Y81.16
G0 F15000 X156.724 Y81.16
G1 F1500 E706.63151
;MESH:NONMESH
G0 F300 X156.724 Y81.16 Z19.6
G0 F15000 X157.324 Y81.16
;TIME_ELAPSED:621.776116
;LAYER:48
;note -- min layer time used
;TYPE:WALL-OUTER
;MESH:90deg_h40_w80_t36.STL
G1 F1500 E713.13151
G1 F960.5 X77.724 Y81.16 E719.22078
G1 X77.724 Y80.76 E719.25138
G1 X157.181 Y80.76 E725.3297
G0 F2700 X157.324 Y80.76
G0 X157.324 Y81.16
G0 F15000 X156.724 Y81.16
G1 F1500 E718.8297
;MESH:NONMESH
G0 F300 X156.724 Y81.16 Z20
G0 F15000 X157.324 Y81.16
;TIME_ELAPSED:632.634591
;LAYER:49
;note -- min layer time used
;TYPE:WALL-OUTER
;MESH:90deg_h40_w80_t36.STL
G1 F1500 E725.3297
G1 F960.5 X77.724 Y81.16 E731.41897
G1 X77.724 Y80.76 E731.44957
G1 X157.181 Y80.76 E737.52789
G0 F2700 X157.324 Y80.76
G0 X157.324 Y81.16
G0 F15000 X156.724 Y81.16
G1 F1500 E731.02789
;MESH:NONMESH
G0 F300 X156.724 Y81.16 Z20.4
G0 F15000 X157.324 Y81.16
;TIME_ELAPSED:643.493066
;LAYER:50
;note -- min layer time used
;TYPE:WALL-OUTER
;MESH:90deg_h40_w80_t36.STL
G1 F1500 E737.52789
G1 F960.5 X77.724 Y81.16 E743.61716
G1 X77.724 Y80.76 E743.64776
G1 X157.181 Y80.76 E749.72608
G0 F2700 X157.324 Y80.76
G0 X157.324 Y81.16
G0 F15000 X156.724 Y81.16
G1 F1500 E743.22608
;MESH:NONMESH
G0 F300 X156.724 Y81.16 Z20.8
G0 F15000 X157.324 Y81.16
;TIME_ELAPSED:654.351541
;LAYER:51
;note -- min layer time used
;TYPE:WALL-OUTER
;MESH:90deg_h40_w80_t36.STL
G1 F1500 E749.72608
G1 F960.5 X77.724 Y81.16 E755.81535
G1 X77.724 Y80.76 E755.84595
G1 X157.181 Y80.76 E761.92428
G0 F2700 X157.324 Y80.76
G0 X157.324 Y81.16
G0 F15000 X156.724 Y81.16
G1 F1500 E755.42428
;MESH:NONMESH
G0 F300 X156.724 Y81.16 Z21.2
G0 F15000 X157.324 Y81.16
;TIME_ELAPSED:665.210016
;LAYER:52
;note -- min layer time used
;TYPE:WALL-OUTER
;MESH:90deg_h40_w80_t36.STL
G1 F1500 E761.92428
G1 F960.5 X77.724 Y81.16 E768.01354
G1 X77.724 Y80.76 E768.04414
G1 X157.181 Y80.76 E774.12247
G0 F2700 X157.324 Y80.76
G0 X157.324 Y81.16
G0 F15000 X156.724 Y81.16
G1 F1500 E767.62247
;MESH:NONMESH
G0 F300 X156.724 Y81.16 Z21.6
G0 F15000 X157.324 Y81.16
;TIME_ELAPSED:676.068491
;LAYER:53
;note -- min layer time used
;TYPE:WALL-OUTER
;MESH:90deg_h40_w80_t36.STL
G1 F1500 E774.12247
G1 F960.5 X77.724 Y81.16 E780.21173
G1 X77.724 Y80.76 E780.24233
G1 X157.181 Y80.76 E786.32066
G0 F2700 X157.324 Y80.76
G0 X157.324 Y81.16
G0 F15000 X156.724 Y81.16
G1 F1500 E779.82066
;MESH:NONMESH
G0 F300 X156.724 Y81.16 Z22
G0 F15000 X157.324 Y81.16
;TIME_ELAPSED:686.926966
;LAYER:54
;note -- min layer time used
;TYPE:WALL-OUTER
;MESH:90deg_h40_w80_t36.STL
G1 F1500 E786.32066
G1 F960.5 X77.724 Y81.16 E792.40992
G1 X77.724 Y80.76 E792.44052
G1 X157.181 Y80.76 E798.51885
G0 F2700 X157.324 Y80.76
G0 X157.324 Y81.16
G0 F15000 X156.724 Y81.16
;TIME_ELAPSED:697.318271
G1 F1500 E792.01885
M140 S0
M107
G91 ;Relative positioning
G1 E-2 F2700 ;Retract a bit
G1 E-2 Z0.2 F2400 ;Retract and raise Z
G1 X5 Y5 F3000 ;Wipe out
G1 Z10 ;Raise Z more
G90 ;Absolute positioning

G1 X0 Y235 ;Present print
M106 S0 ;Turn-off fan
M104 S0 ;Turn-off hotend
M140 S0 ;Turn-off bed

M84 X Y E ;Disable all steppers but Z

M82 ;absolute extrusion mode
M104 S0
;End of Gcode
;SETTING_3 {"global_quality": "[general]\\nversion = 4\\nname = Standard 0.2 luc
;SETTING_3 \\ndefinition = creality_ender3\\n\\n[metadata]\\ntype = quality_chan
;SETTING_3 ges\\nquality_type = standard\\nsetting_version = 25\\n\\n[values]\\n
;SETTING_3 adhesion_type = brim\\nbridge_settings_enabled = True\\nlayer_height 
;SETTING_3 = 0.4\\nlayer_height_0 = 0.4\\nraft_smoothing = 2\\nretraction_combin
;SETTING_3 g = noskin\\nsupport_enable = True\\nsupport_structure = tree\\nsuppo
;SETTING_3 rt_type = buildplate\\n\\n", "extruder_quality": ["[general]\\nversio
;SETTING_3 n = 4\\nname = Standard 0.2 luc\\ndefinition = creality_ender3\\n\\n[
;SETTING_3 metadata]\\ntype = quality_changes\\nquality_type = standard\\nintent
;SETTING_3 _category = default\\nposition = 0\\nsetting_version = 25\\n\\n[value
;SETTING_3 s]\\nalternate_extra_perimeter = False\\nbridge_skin_material_flow = 
;SETTING_3 80\\nbridge_wall_material_flow = 90\\nbrim_inside_margin = 1.5\\nbrim
;SETTING_3 _width = 4.4\\ncoasting_enable = True\\ncoasting_volume = 0.1\\ncool_
;SETTING_3 fan_speed = 10\\nhole_xy_offset = 0.1\\ninfill_material_flow = 145.0\
;SETTING_3 \ninfill_overlap = 60\\ninfill_pattern = cubicsubdiv\\nmaterial_print
;SETTING_3 _temperature = 212\\nraft_airgap = 0.26\\nraft_margin = 2\\nretract_a
;SETTING_3 t_layer_change = True\\nretraction_hop_enabled = False\\nretraction_h
;SETTING_3 op_only_when_collides = True\\nskin_overlap = 15.0\\nspeed_infill = 4
;SETTING_3 5\\nspeed_print = 100\\nsupport_bottom_enable = False\\nsupport_botto
;SETTING_3 m_height = =extruderValue(support_bottom_extruder_nr, 'support_interf
;SETTING_3 ace_height')\\nsupport_interface_density = 65\\nsupport_interface_hei
;SETTING_3 ght = 0.6\\nsupport_interface_material_flow = 105\\nsupport_interface
;SETTING_3 _pattern = zigzag\\nsupport_material_flow = 115\\nsupport_roof_enable
;SETTING_3  = False\\nsupport_tree_tip_diameter = 1.2\\nsupport_z_distance = 0.1
;SETTING_3 7\\nsupport_z_seam_away_from_model = False\\nsupport_z_seam_min_dista
;SETTING_3 nce = 1.2\\ntop_bottom_pattern = zigzag\\ntop_bottom_thickness = 2\\n
;SETTING_3 wall_0_wipe_dist = 0.6\\nwall_line_count = 5\\nwall_material_flow = 1
;SETTING_3 15\\nxy_offset_layer_0 = -0.02\\nz_seam_corner = z_seam_corner_inner\
;SETTING_3 \nz_seam_type = sharpest_corner\\n\\n"]}
