;FLAVOR:Marlin
;TIME:463
;Filament used: 0.229696m
;Layer height: 0.3
;MINX:15.1
;MINY:34.9
;MINZ:0.3
;MAXX:94.9
;MAXY:35.096
;MAXZ:18
;TARGET_MACHINE.NAME:Tronxy XY-3
;Generated with Cura_SteamEngine 5.10.1
M104 S208
M105
M109 S208
; XY-3 Start Code
G21 ; Set units to millimeters
G90 ; Set all axis to Absolute
M83 ; Set extrusion to Relative
M107 ; Disable all fans
M220 S100 ; Set feedrate percentage
M190 S60 ; Set bed temperature and wait
G28 ; Home all axis
; Uncomment the line below to enable ABL Mesh probing
;G29 ; Probe bed mesh for ABL
; For best results do not run nozzle heater while performing ABL
;G1 Z5.0 ; Raise nozzle to prevent scratching of heat bed
;G1 X0 Y60 ; Move nozzle to Home before heating
;M109 S208 T0 ; Set nozzle temp and wait
;G92 E0 ; Set Extruder position to zero
; Uncomment the following lines to enable nozzle purge line along left edge of bed
G1 Z2.0 F3000 ; Raise Z axis
G1 X1.1 Y60 Z0.2 F3600.0 ; Move to purge line start position
G1 Y280 F1500.0 E15 ; Draw first purge line
G1 X1.4 F3600.0 ; Move to side
G1 Y60 F1500.0 E10 ; Draw second purge line
G92 E0 ; Reset Extruder
G1 Z2.0 F3000 ; Move Z Axis up little to prevent scratching of Heat Bed
G1 X5 Y60 Z0.2 F3600.0 ; Move over to finish nozzle wipe
G92 E0
M82 ;absolute extrusion mode
G92 E0
G92 E0
G1 F2700 E-6
;LAYER_COUNT:60
;LAYER:0
;note -- min layer time used
M107
G1 F300 Z0.5
;MESH:Body1
G0 F2700 X94.9 Y35.096 Z0.5
;TYPE:WALL-OUTER
G1 F300 Z0.3
G1 F2700 E0.31181
G1 F739.4 X15.1 Y35.096 E3.65526
G1 F2700 E-2.34474
;MESH:NONMESH
G0 F300 X15.1 Y35.096 Z0.6
G0 F2700 X15.1 Y35.092
;TIME_ELAPSED:10.564586
;LAYER:1
;note -- min layer time used
M106 S28.1
;TYPE:WALL-OUTER
;MESH:Body1
G1 F2700 E3.96707
G1 F705.9 X94.9 Y35.092 E7.48649
;TIME_ELAPSED:17.803009
;LAYER:2
;note -- min layer time used
G1 F2700 E1.48649
M106 S56.1
;MESH:Body1
G0 F3600 X94.9 Y35.092 Z0.9
;TYPE:WALL-OUTER
G1 F2700 E7.7983
G1 F705.9 X15.102 Y35.09 E11.31763
G1 F2700 E5.31763
;MESH:NONMESH
G0 F300 X15.102 Y35.09 Z1.2
G0 F3600 X15.1 Y35.088
;TIME_ELAPSED:25.984421
;LAYER:3
;note -- min layer time used
;TYPE:WALL-OUTER
;MESH:Body1
G1 F2700 E11.62944
G1 F705.9 X94.9 Y35.088 E15.14885
G1 F2700 E9.14885
;MESH:NONMESH
G0 F300 X94.9 Y35.088 Z1.5
G0 F3600 X94.9 Y35.084
;TIME_ELAPSED:33.667623
;LAYER:4
;note -- min layer time used
;TYPE:WALL-OUTER
;MESH:Body1
G1 F2700 E15.46067
G1 F705.9 X15.1 Y35.084 E18.98008
G1 F2700 E12.98008
;MESH:NONMESH
G0 F300 X15.1 Y35.084 Z1.8
G0 F3600 X15.1 Y35.08
;TIME_ELAPSED:41.350826
;LAYER:5
;note -- min layer time used
;TYPE:WALL-OUTER
;MESH:Body1
G1 F2700 E19.2919
G1 F705.9 X94.9 Y35.08 E22.81131
G1 F2700 E16.81131
;MESH:NONMESH
G0 F300 X94.9 Y35.08 Z2.1
G0 F3600 X94.9 Y35.076
;TIME_ELAPSED:49.034028
;LAYER:6
;note -- min layer time used
;TYPE:WALL-OUTER
;MESH:Body1
G1 F2700 E23.12312
G1 F705.9 X15.1 Y35.076 E26.64254
G1 F2700 E20.64254
;MESH:NONMESH
G0 F300 X15.1 Y35.076 Z2.4
G0 F3600 X15.1 Y35.072
;TIME_ELAPSED:56.717230
;LAYER:7
;note -- min layer time used
;TYPE:WALL-OUTER
;MESH:Body1
G1 F2700 E26.95435
G1 F705.9 X94.9 Y35.072 E30.47377
;TIME_ELAPSED:63.955653
;LAYER:8
;note -- min layer time used
G1 F2700 E24.47377
;MESH:Body1
G0 F3600 X94.9 Y35.072 Z2.7
;TYPE:WALL-OUTER
G1 F2700 E30.78558
G1 F705.9 X15.102 Y35.07 E34.30491
G1 F2700 E28.30491
;MESH:NONMESH
G0 F300 X15.102 Y35.07 Z3
G0 F3600 X15.1 Y35.068
;TIME_ELAPSED:72.137065
;LAYER:9
;note -- min layer time used
;TYPE:WALL-OUTER
;MESH:Body1
G1 F2700 E34.61672
G1 F705.9 X94.9 Y35.068 E38.13614
G1 F2700 E32.13614
;MESH:NONMESH
G0 F300 X94.9 Y35.068 Z3.3
G0 F3600 X94.9 Y35.064
;TIME_ELAPSED:79.820267
;LAYER:10
;note -- min layer time used
;TYPE:WALL-OUTER
;MESH:Body1
G1 F2700 E38.44795
G1 F705.9 X15.1 Y35.064 E41.96736
G1 F2700 E35.96736
;MESH:NONMESH
G0 F300 X15.1 Y35.064 Z3.6
G0 F3600 X15.1 Y35.06
;TIME_ELAPSED:87.503469
;LAYER:11
;note -- min layer time used
;TYPE:WALL-OUTER
;MESH:Body1
G1 F2700 E42.27918
G1 F705.9 X94.9 Y35.06 E45.79859
G1 F2700 E39.79859
;MESH:NONMESH
G0 F300 X94.9 Y35.06 Z3.9
G0 F3600 X94.9 Y35.056
;TIME_ELAPSED:95.186672
;LAYER:12
;note -- min layer time used
;TYPE:WALL-OUTER
;MESH:Body1
G1 F2700 E46.11041
G1 F705.9 X15.1 Y35.056 E49.62982
G1 F2700 E43.62982
;MESH:NONMESH
G0 F300 X15.1 Y35.056 Z4.2
G0 F3600 X15.1 Y35.052
;TIME_ELAPSED:102.869874
;LAYER:13
;note -- min layer time used
;TYPE:WALL-OUTER
;MESH:Body1
G1 F2700 E49.94163
G1 F705.9 X94.9 Y35.052 E53.46105
;TIME_ELAPSED:110.108297
;LAYER:14
;note -- min layer time used
G1 F2700 E47.46105
;MESH:Body1
G0 F3600 X94.9 Y35.052 Z4.5
;TYPE:WALL-OUTER
G1 F2700 E53.77286
G1 F705.9 X15.102 Y35.05 E57.29219
G1 F2700 E51.29219
;MESH:NONMESH
G0 F300 X15.102 Y35.05 Z4.8
G0 F3600 X15.1 Y35.048
;TIME_ELAPSED:118.289708
;LAYER:15
;note -- min layer time used
;TYPE:WALL-OUTER
;MESH:Body1
G1 F2700 E57.604
G1 F705.9 X94.9 Y35.048 E61.12342
G1 F2700 E55.12342
;MESH:NONMESH
G0 F300 X94.9 Y35.048 Z5.1
G0 F3600 X94.9 Y35.044
;TIME_ELAPSED:125.972911
;LAYER:16
;note -- min layer time used
;TYPE:WALL-OUTER
;MESH:Body1
G1 F2700 E61.43523
G1 F705.9 X15.1 Y35.044 E64.95465
G1 F2700 E58.95465
;MESH:NONMESH
G0 F300 X15.1 Y35.044 Z5.4
G0 F3600 X15.1 Y35.04
;TIME_ELAPSED:133.656113
;LAYER:17
;note -- min layer time used
;TYPE:WALL-OUTER
;MESH:Body1
G1 F2700 E65.26646
G1 F705.9 X94.9 Y35.04 E68.78587
G1 F2700 E62.78587
;MESH:NONMESH
G0 F300 X94.9 Y35.04 Z5.7
G0 F3600 X94.9 Y35.036
;TIME_ELAPSED:141.339315
;LAYER:18
;note -- min layer time used
;TYPE:WALL-OUTER
;MESH:Body1
G1 F2700 E69.09769
G1 F705.9 X15.1 Y35.036 E72.6171
G1 F2700 E66.6171
;MESH:NONMESH
G0 F300 X15.1 Y35.036 Z6
G0 F3600 X15.1 Y35.032
;TIME_ELAPSED:149.022518
;LAYER:19
;note -- min layer time used
;TYPE:WALL-OUTER
;MESH:Body1
G1 F2700 E72.92892
G1 F705.9 X94.9 Y35.032 E76.44833
;TIME_ELAPSED:156.260941
;LAYER:20
;note -- min layer time used
G1 F2700 E70.44833
;MESH:Body1
G0 F3600 X94.9 Y35.032 Z6.3
;TYPE:WALL-OUTER
G1 F2700 E76.76014
G1 F705.9 X15.102 Y35.03 E80.27947
G1 F2700 E74.27947
;MESH:NONMESH
G0 F300 X15.102 Y35.03 Z6.6
G0 F3600 X15.1 Y35.028
;TIME_ELAPSED:164.442352
;LAYER:21
;note -- min layer time used
;TYPE:WALL-OUTER
;MESH:Body1
G1 F2700 E80.59128
G1 F705.9 X94.9 Y35.028 E84.1107
G1 F2700 E78.1107
;MESH:NONMESH
G0 F300 X94.9 Y35.028 Z6.9
G0 F3600 X94.9 Y35.024
;TIME_ELAPSED:172.125555
;LAYER:22
;note -- min layer time used
;TYPE:WALL-OUTER
;MESH:Body1
G1 F2700 E84.42251
G1 F705.9 X15.1 Y35.024 E87.94193
G1 F2700 E81.94193
;MESH:NONMESH
G0 F300 X15.1 Y35.024 Z7.2
G0 F3600 X15.1 Y35.02
;TIME_ELAPSED:179.808757
;LAYER:23
;note -- min layer time used
;TYPE:WALL-OUTER
;MESH:Body1
G1 F2700 E88.25374
G1 F705.9 X94.9 Y35.02 E91.77316
G1 F2700 E85.77316
;MESH:NONMESH
G0 F300 X94.9 Y35.02 Z7.5
G0 F3600 X94.9 Y35.016
;TIME_ELAPSED:187.491959
;LAYER:24
;note -- min layer time used
;TYPE:WALL-OUTER
;MESH:Body1
G1 F2700 E92.08497
G1 F705.9 X15.1 Y35.016 E95.60438
G1 F2700 E89.60438
;MESH:NONMESH
G0 F300 X15.1 Y35.016 Z7.8
G0 F3600 X15.1 Y35.012
;TIME_ELAPSED:195.175161
;LAYER:25
;note -- min layer time used
;TYPE:WALL-OUTER
;MESH:Body1
G1 F2700 E95.9162
G1 F705.9 X94.9 Y35.012 E99.43561
;TIME_ELAPSED:202.413585
;LAYER:26
;note -- min layer time used
G1 F2700 E93.43561
;MESH:Body1
G0 F3600 X94.9 Y35.012 Z8.1
;TYPE:WALL-OUTER
G1 F2700 E99.74743
G1 F705.9 X15.102 Y35.01 E103.26675
G1 F2700 E97.26675
;MESH:NONMESH
G0 F300 X15.102 Y35.01 Z8.4
G0 F3600 X15.102 Y35.006
;TIME_ELAPSED:210.594767
;LAYER:27
;note -- min layer time used
;TYPE:WALL-OUTER
;MESH:Body1
G1 F2700 E103.57857
G1 F705.9 X94.9 Y35.008 E107.09789
G1 F2700 E101.09789
;MESH:NONMESH
G0 F300 X94.9 Y35.008 Z8.7
G0 F3600 X94.9 Y35.004
;TIME_ELAPSED:218.277799
;LAYER:28
;note -- min layer time used
;TYPE:WALL-OUTER
;MESH:Body1
G1 F2700 E107.40971
G1 F705.9 X15.1 Y35.004 E110.92912
G1 F2700 E104.92912
;MESH:NONMESH
G0 F300 X15.1 Y35.004 Z9
G0 F3600 X15.1 Y35
;TIME_ELAPSED:225.961001
;LAYER:29
;note -- min layer time used
;TYPE:WALL-OUTER
;MESH:Body1
G1 F2700 E111.24093
G1 F705.9 X94.9 Y35 E114.76035
G1 F2700 E108.76035
;MESH:NONMESH
G0 F300 X94.9 Y35 Z9.3
G0 F3600 X94.9 Y34.996
;TIME_ELAPSED:233.644204
;LAYER:30
;note -- min layer time used
;TYPE:WALL-OUTER
;MESH:Body1
G1 F2700 E115.07216
G1 F705.9 X15.1 Y34.996 E118.59158
G1 F2700 E112.59158
;MESH:NONMESH
G0 F300 X15.1 Y34.996 Z9.6
G0 F3600 X15.1 Y34.992
;TIME_ELAPSED:241.327406
;LAYER:31
;note -- min layer time used
;TYPE:WALL-OUTER
;MESH:Body1
G1 F2700 E118.90339
G1 F705.9 X94.9 Y34.992 E122.42281
;TIME_ELAPSED:248.565829
;LAYER:32
;note -- min layer time used
G1 F2700 E116.42281
;MESH:Body1
G0 F3600 X94.9 Y34.992 Z9.9
;TYPE:WALL-OUTER
G1 F2700 E122.73462
G1 F705.9 X15.102 Y34.99 E126.25395
G1 F2700 E120.25395
;MESH:NONMESH
G0 F300 X15.102 Y34.99 Z10.2
G0 F3600 X15.102 Y34.986
;TIME_ELAPSED:256.747012
;LAYER:33
;note -- min layer time used
;TYPE:WALL-OUTER
;MESH:Body1
G1 F2700 E126.56576
G1 F705.9 X94.9 Y34.988 E130.08509
G1 F2700 E124.08509
;MESH:NONMESH
G0 F300 X94.9 Y34.988 Z10.5
G0 F3600 X94.9 Y34.984
;TIME_ELAPSED:264.430043
;LAYER:34
;note -- min layer time used
;TYPE:WALL-OUTER
;MESH:Body1
G1 F2700 E130.3969
G1 F705.9 X15.1 Y34.984 E133.91631
G1 F2700 E127.91631
;MESH:NONMESH
G0 F300 X15.1 Y34.984 Z10.8
G0 F3600 X15.1 Y34.98
;TIME_ELAPSED:272.113246
;LAYER:35
;note -- min layer time used
;TYPE:WALL-OUTER
;MESH:Body1
G1 F2700 E134.22813
G1 F705.9 X94.9 Y34.98 E137.74754
G1 F2700 E131.74754
;MESH:NONMESH
G0 F300 X94.9 Y34.98 Z11.1
G0 F3600 X94.9 Y34.976
;TIME_ELAPSED:279.796448
;LAYER:36
;note -- min layer time used
;TYPE:WALL-OUTER
;MESH:Body1
G1 F2700 E138.05936
G1 F705.9 X15.1 Y34.976 E141.57877
G1 F2700 E135.57877
;MESH:NONMESH
G0 F300 X15.1 Y34.976 Z11.4
G0 F3600 X15.1 Y34.972
;TIME_ELAPSED:287.479650
;LAYER:37
;note -- min layer time used
;TYPE:WALL-OUTER
;MESH:Body1
G1 F2700 E141.89058
G1 F705.9 X94.9 Y34.972 E145.41
;TIME_ELAPSED:294.718073
;LAYER:38
;note -- min layer time used
G1 F2700 E139.41
;MESH:Body1
G0 F3600 X94.9 Y34.972 Z11.7
;TYPE:WALL-OUTER
G1 F2700 E145.72181
G1 F705.9 X15.102 Y34.97 E149.24114
G1 F2700 E143.24114
;MESH:NONMESH
G0 F300 X15.102 Y34.97 Z12
G0 F3600 X15.102 Y34.966
;TIME_ELAPSED:302.899256
;LAYER:39
;note -- min layer time used
;TYPE:WALL-OUTER
;MESH:Body1
G1 F2700 E149.55295
G1 F705.9 X94.9 Y34.968 E153.07228
G1 F2700 E147.07228
;MESH:NONMESH
G0 F300 X94.9 Y34.968 Z12.3
G0 F3600 X94.9 Y34.964
;TIME_ELAPSED:310.582288
;LAYER:40
;note -- min layer time used
;TYPE:WALL-OUTER
;MESH:Body1
G1 F2700 E153.38409
G1 F705.9 X15.1 Y34.964 E156.90351
G1 F2700 E150.90351
;MESH:NONMESH
G0 F300 X15.1 Y34.964 Z12.6
G0 F3600 X15.1 Y34.96
;TIME_ELAPSED:318.265490
;LAYER:41
;note -- min layer time used
;TYPE:WALL-OUTER
;MESH:Body1
G1 F2700 E157.21532
G1 F705.9 X94.9 Y34.96 E160.73474
G1 F2700 E154.73474
;MESH:NONMESH
G0 F300 X94.9 Y34.96 Z12.9
G0 F3600 X94.9 Y34.956
;TIME_ELAPSED:325.948692
;LAYER:42
;note -- min layer time used
;TYPE:WALL-OUTER
;MESH:Body1
G1 F2700 E161.04655
G1 F705.9 X15.1 Y34.956 E164.56596
G1 F2700 E158.56596
;MESH:NONMESH
G0 F300 X15.1 Y34.956 Z13.2
G0 F3600 X15.1 Y34.952
;TIME_ELAPSED:333.631895
;LAYER:43
;note -- min layer time used
;TYPE:WALL-OUTER
;MESH:Body1
G1 F2700 E164.87778
G1 F705.9 X94.9 Y34.952 E168.39719
;TIME_ELAPSED:340.870318
;LAYER:44
;note -- min layer time used
G1 F2700 E162.39719
;MESH:Body1
G0 F3600 X94.9 Y34.952 Z13.5
;TYPE:WALL-OUTER
G1 F2700 E168.70901
G1 F705.9 X15.102 Y34.95 E172.22833
G1 F2700 E166.22833
;MESH:NONMESH
G0 F300 X15.102 Y34.95 Z13.8
G0 F3600 X15.102 Y34.946
;TIME_ELAPSED:349.051501
;LAYER:45
;note -- min layer time used
;TYPE:WALL-OUTER
;MESH:Body1
G1 F2700 E172.54015
G1 F705.9 X94.9 Y34.948 E176.05947
G1 F2700 E170.05947
;MESH:NONMESH
G0 F300 X94.9 Y34.948 Z14.1
G0 F3600 X94.9 Y34.944
;TIME_ELAPSED:356.734532
;LAYER:46
;note -- min layer time used
;TYPE:WALL-OUTER
;MESH:Body1
G1 F2700 E176.37129
G1 F705.9 X15.1 Y34.944 E179.8907
G1 F2700 E173.8907
;MESH:NONMESH
G0 F300 X15.1 Y34.944 Z14.4
G0 F3600 X15.1 Y34.94
;TIME_ELAPSED:364.417735
;LAYER:47
;note -- min layer time used
;TYPE:WALL-OUTER
;MESH:Body1
G1 F2700 E180.20251
G1 F705.9 X94.9 Y34.94 E183.72193
G1 F2700 E177.72193
;MESH:NONMESH
G0 F300 X94.9 Y34.94 Z14.7
G0 F3600 X94.9 Y34.936
;TIME_ELAPSED:372.100937
;LAYER:48
;note -- min layer time used
;TYPE:WALL-OUTER
;MESH:Body1
G1 F2700 E184.03374
G1 F705.9 X15.1 Y34.936 E187.55316
G1 F2700 E181.55316
;MESH:NONMESH
G0 F300 X15.1 Y34.936 Z15
G0 F3600 X15.1 Y34.932
;TIME_ELAPSED:379.784139
;LAYER:49
;note -- min layer time used
;TYPE:WALL-OUTER
;MESH:Body1
G1 F2700 E187.86497
G1 F705.9 X94.9 Y34.932 E191.38439
;TIME_ELAPSED:387.022562
;LAYER:50
;note -- min layer time used
G1 F2700 E185.38439
;MESH:Body1
G0 F3600 X94.9 Y34.932 Z15.3
;TYPE:WALL-OUTER
G1 F2700 E191.6962
G1 F705.9 X15.102 Y34.93 E195.21553
G1 F2700 E189.21553
;MESH:NONMESH
G0 F300 X15.102 Y34.93 Z15.6
G0 F3600 X15.102 Y34.926
;TIME_ELAPSED:395.203745
;LAYER:51
;note -- min layer time used
;TYPE:WALL-OUTER
;MESH:Body1
G1 F2700 E195.52734
G1 F705.9 X94.9 Y34.928 E199.04667
G1 F2700 E193.04667
;MESH:NONMESH
G0 F300 X94.9 Y34.928 Z15.9
G0 F3600 X94.9 Y34.924
;TIME_ELAPSED:402.886777
;LAYER:52
;note -- min layer time used
;TYPE:WALL-OUTER
;MESH:Body1
G1 F2700 E199.35848
G1 F705.9 X15.1 Y34.924 E202.87789
G1 F2700 E196.87789
;MESH:NONMESH
G0 F300 X15.1 Y34.924 Z16.2
G0 F3600 X15.1 Y34.92
;TIME_ELAPSED:410.569979
;LAYER:53
;note -- min layer time used
;TYPE:WALL-OUTER
;MESH:Body1
G1 F2700 E203.18971
G1 F705.9 X94.9 Y34.92 E206.70912
G1 F2700 E200.70912
;MESH:NONMESH
G0 F300 X94.9 Y34.92 Z16.5
G0 F3600 X94.9 Y34.916
;TIME_ELAPSED:418.253181
;LAYER:54
;note -- min layer time used
;TYPE:WALL-OUTER
;MESH:Body1
G1 F2700 E207.02094
G1 F705.9 X15.1 Y34.916 E210.54035
G1 F2700 E204.54035
;MESH:NONMESH
G0 F300 X15.1 Y34.916 Z16.8
G0 F3600 X15.1 Y34.912
;TIME_ELAPSED:425.936384
;LAYER:55
;note -- min layer time used
;TYPE:WALL-OUTER
;MESH:Body1
G1 F2700 E210.85216
G1 F705.9 X94.9 Y34.912 E214.37158
;TIME_ELAPSED:433.174807
;LAYER:56
;note -- min layer time used
G1 F2700 E208.37158
;MESH:Body1
G0 F3600 X94.9 Y34.912 Z17.1
;TYPE:WALL-OUTER
G1 F2700 E214.68339
G1 F705.9 X15.102 Y34.91 E218.20272
G1 F2700 E212.20272
;MESH:NONMESH
G0 F300 X15.102 Y34.91 Z17.4
G0 F3600 X15.102 Y34.906
;TIME_ELAPSED:441.355989
;LAYER:57
;note -- min layer time used
;TYPE:WALL-OUTER
;MESH:Body1
G1 F2700 E218.51453
G1 F705.9 X94.9 Y34.908 E222.03386
G1 F2700 E216.03386
;MESH:NONMESH
G0 F300 X94.9 Y34.908 Z17.7
G0 F3600 X94.9 Y34.904
;TIME_ELAPSED:449.039021
;LAYER:58
;note -- min layer time used
;TYPE:WALL-OUTER
;MESH:Body1
G1 F2700 E222.34567
G1 F705.9 X15.1 Y34.904 E225.86509
G1 F2700 E219.86509
;MESH:NONMESH
G0 F300 X15.1 Y34.904 Z18
G0 F3600 X15.1 Y34.9
;TIME_ELAPSED:456.722223
;LAYER:59
;note -- min layer time used
;TYPE:WALL-OUTER
;MESH:Body1
G1 F2700 E226.1769
G1 F705.9 X94.9 Y34.9 E229.69632
;TIME_ELAPSED:463.960647
G1 F2700 E223.69632
M107
; XY-3 End Code
M83 ; Set extrder to Relative
G1 E-5 F3000 ; Retract 5mm of filament at 50mm/s
G90 ; Set all axis to Absolute
G1 X0 Y300 ; Park print head
G1 Z10 ; Move up 10mm
M106 S0 ; Set fan speed to 0
M104 S200 ; Set Final Nozzle temp to 0
M109 S200 ; Wait for Nozzle temp
M140 S0 ; Set Bed temp to 0
M84 ; Disable all stepper motors
M82 ;absolute extrusion mode
M104 S0
;End of Gcode
;SETTING_3 {"global_quality": "[general]\\nversion = 4\\nname = Joint section 0.
;SETTING_3 3\\ndefinition = tronxy_xy3\\n\\n[metadata]\\ntype = quality_changes\
;SETTING_3 \nquality_type = normal\\nsetting_version = 25\\n\\n[values]\\naccele
;SETTING_3 ration_enabled = False\\nadhesion_type = none\\njerk_enabled = False\
;SETTING_3 \nlayer_height = 0.3\\nlayer_height_0 = 0.3\\nmaterial_bed_temperatur
;SETTING_3 e = 60\\nretraction_combing = no_outer_surfaces\\nspeed_slowdown_laye
;SETTING_3 rs = 1\\nsupport_enable = False\\nsupport_structure = tree\\nsupport_
;SETTING_3 type = buildplate\\n\\n", "extruder_quality": ["[general]\\nversion =
;SETTING_3  4\\nname = Joint section 0.3\\ndefinition = tronxy_xy3\\n\\n[metadat
;SETTING_3 a]\\ntype = quality_changes\\nquality_type = normal\\nintent_category
;SETTING_3  = default\\nposition = 0\\nsetting_version = 25\\n\\n[values]\\nacce
;SETTING_3 leration_layer_0 = 200\\nacceleration_print = 500\\nacceleration_trav
;SETTING_3 el = 600\\nbottom_layers = =999999 if infill_sparse_density == 100 an
;SETTING_3 d not magic_spiralize else math.ceil(round(bottom_thickness / resolve
;SETTING_3 OrValue('layer_height'), 4))\\nbrim_gap = 0.2\\nbrim_width = 4\\ncool
;SETTING_3 _fan_speed = 22\\ninfill_material_flow = 108\\ninfill_overlap_mm = 0.
;SETTING_3 24\\ninfill_pattern = cubicsubdiv\\ninfill_randomize_start_location =
;SETTING_3  True\\ninfill_sparse_density = 24\\ninfill_wipe_dist = 0.04\\nmateri
;SETTING_3 al_alternate_walls = True\\nmaterial_flow = 104.0\\nmaterial_flow_lay
;SETTING_3 er_0 = 95.0\\nmaterial_initial_print_temperature = =material_print_te
;SETTING_3 mperature\\nmaterial_print_temperature = 208\\nmaterial_print_tempera
;SETTING_3 ture_layer_0 = =material_print_temperature\\nretraction_amount = 6\\n
;SETTING_3 retraction_extra_prime_amount = 0.75\\nretraction_hop_only_when_colli
;SETTING_3 des = True\\nskin_material_flow = 100.0\\nskirt_brim_material_flow = 
;SETTING_3 92\\nspeed_print = 60\\nspeed_travel = 60\\nspeed_wall = 60\\nsupport
;SETTING_3 _angle = 60\\nsupport_bottom_enable = False\\nsupport_interface_enabl
;SETTING_3 e = True\\nsupport_material_flow = 92.0\\nsupport_xy_distance = 0.6\\
;SETTING_3 ntop_bottom_thickness = 1.6\\ntop_layers = =0 if infill_sparse_densit
;SETTING_3 y == 100 else math.ceil(round(top_thickness / resolveOrValue('layer_h
;SETTING_3 eight'), 4))\\ntop_thickness = =top_bottom_thickness\\ntravel_avoid_o
;SETTING_3 ther_parts = False\\nwall_0_wipe_dist = 0\\nwall_line_count = 5\\nwal
;SETTING_3 l_thickness = 1.2\\nwall_x_material_flow = 105.0\\nz_seam_corner = z_
;SETTING_3 seam_corner_none\\nz_seam_on_vertex = True\\n\\n"]}
