;FLAVOR:Marlin
;TIME:1289
;Filament used: 0.732422m
;Layer height: 0.2
;MINX:73.345
;MINY:76.38
;MINZ:0.2
;MAXX:161.705
;MAXY:85.54
;MAXZ:22
;TARGET_MACHINE.NAME:Creality Ender-3
;Generated with Cura_SteamEngine 5.11.0
M140 S60
M105
M190 S60
M104 S212
M105
M109 S212
; Ender 3 Custom Start G-code
G92 E0 ; Reset Extruder
G28 ; Home all axes
G1 Z2.0 F3000 ; Move Z Axis up little to prevent scratching of Heat Bed
G1 X0.1 Y20 Z0.3 F5000.0 ; Move to start position
G1 X0.1 Y200.0 Z0.3 F1500.0 E15 ; Draw the first line
G1 X0.4 Y200.0 Z0.3 F5000.0 ; Move to side a little
G1 X0.4 Y20 Z0.3 F1500.0 E30 ; Draw the second line
G92 E0 ; Reset Extruder
G1 Z2.0 F3000 ; Move Z Axis up little to prevent scratching of Heat Bed
G1 X5 Y20 Z0.3 F5000.0 ; Move over to prevent blob squish
M82 ;absolute extrusion mode
G92 E0
G92 E0
G1 F1500 E-6.5
;LAYER_COUNT:110
;LAYER:0
M107
G0 F6000 X74.168 Y78.014 Z0.2
;TYPE:SKIRT
G1 F1500 E0
G1 F1200 X75.003 Y77.236 E0.03796
G1 X76.096 Y76.584 E0.08029
G1 X77.151 Y76.41 E0.11585
G1 X157.941 Y76.38 E2.80294
G1 X158.97 Y76.633 E2.83818
G1 X160.071 Y77.203 E2.87942
G1 X160.848 Y78.037 E2.91733
G1 X161.462 Y79.07 E2.9573
G1 X161.513 Y79.214 E2.96238
G1 X161.695 Y80.435 E3.00344
G1 X161.705 Y81.777 E3.04808
G1 X161.458 Y82.793 E3.08285
G1 X160.882 Y83.906 E3.12453
G1 X160.047 Y84.684 E3.16249
G1 X158.954 Y85.336 E3.20482
G1 X157.899 Y85.51 E3.24039
G1 X77.109 Y85.54 E5.92747
G1 X76.08 Y85.287 E5.96272
G1 X74.979 Y84.717 E6.00395
G1 X74.202 Y83.883 E6.04187
G1 X73.588 Y82.85 E6.08183
G1 X73.537 Y82.706 E6.08692
G1 X73.355 Y81.485 E6.12797
G1 X73.345 Y80.143 E6.17261
G1 X73.592 Y79.127 E6.20739
G1 X74.168 Y78.014 E6.24907
G0 F6000 X74.49 Y78.261
G1 F1200 X75.245 Y77.558 E6.28338
G1 X76.236 Y76.967 E6.32176
G1 X77.216 Y76.805 E6.3548
G1 X157.895 Y76.78 E9.03819
G1 X158.827 Y77.009 E9.07011
G1 X159.824 Y77.525 E9.10745
G1 X160.527 Y78.28 E9.14176
G1 X161.118 Y79.274 E9.18022
G1 X161.295 Y80.438 E9.21938
G1 X161.305 Y81.729 E9.26232
G1 X161.08 Y82.654 E9.29399
G1 X160.56 Y83.659 E9.33162
G1 X159.805 Y84.362 E9.36593
G1 X158.814 Y84.953 E9.40431
G1 X157.834 Y85.115 E9.43735
G1 X77.155 Y85.14 E12.12074
G1 X76.223 Y84.911 E12.15266
G1 X75.226 Y84.395 E12.19
G1 X74.523 Y83.64 E12.22431
G1 X73.932 Y82.646 E12.26278
G1 X73.755 Y81.482 E12.30194
G1 X73.745 Y80.191 E12.34488
G1 X73.97 Y79.266 E12.37654
G1 X74.49 Y78.261 E12.41417
G0 F6000 X74.813 Y78.506
G1 F1200 X75.484 Y77.882 E12.44465
G1 X76.376 Y77.35 E12.47919
G1 X77.281 Y77.2 E12.50971
G1 X157.849 Y77.18 E15.18941
G1 X158.684 Y77.385 E15.21801
G1 X159.579 Y77.848 E15.25152
G1 X160.203 Y78.519 E15.282
G1 X160.735 Y79.413 E15.3166
G1 X160.895 Y80.441 E15.3512
G1 X160.905 Y81.681 E15.39245
G1 X160.702 Y82.515 E15.42099
G1 X160.237 Y83.414 E15.45466
G1 X159.566 Y84.038 E15.48513
G1 X158.674 Y84.57 E15.51968
G1 X157.769 Y84.72 E15.55019
G1 X77.201 Y84.74 E18.22989
G1 X76.366 Y84.535 E18.25849
G1 X75.471 Y84.072 E18.292
G1 X74.847 Y83.401 E18.32248
G1 X74.315 Y82.507 E18.35708
G1 X74.155 Y81.479 E18.39168
G1 X74.145 Y80.239 E18.43293
G1 X74.348 Y79.405 E18.46148
G1 X74.813 Y78.506 E18.49514
G0 F6000 X75.136 Y78.751
G1 F1200 X75.723 Y78.206 E18.52178
G1 X76.516 Y77.733 E18.55249
G1 X77.347 Y77.595 E18.58051
G1 X157.803 Y77.58 E21.25649
G1 X158.541 Y77.761 E21.28176
G1 X159.334 Y78.171 E21.31145
G1 X159.879 Y78.758 E21.3381
G1 X160.352 Y79.552 E21.36883
G1 X160.495 Y80.444 E21.39888
G1 X160.505 Y81.633 E21.43843
G1 X160.324 Y82.376 E21.46386
G1 X159.914 Y83.169 E21.49356
G1 X159.327 Y83.714 E21.5202
G1 X158.534 Y84.187 E21.55091
G1 X157.703 Y84.325 E21.57893
G1 X77.247 Y84.34 E24.2549
G1 X76.509 Y84.159 E24.28018
G1 X75.716 Y83.749 E24.30987
G1 X75.171 Y83.162 E24.33651
G1 X74.698 Y82.368 E24.36725
G1 X74.555 Y81.476 E24.3973
G1 X74.545 Y80.287 E24.43684
G1 X74.726 Y79.544 E24.46228
G1 X75.136 Y78.751 E24.49197
G0 F6000 X75.459 Y78.996
G1 F1200 X75.962 Y78.53 E24.51478
G1 X76.656 Y78.116 E24.54165
G1 X77.413 Y77.99 E24.56718
G1 X157.753 Y77.98 E27.2393
G1 X158.402 Y78.139 E27.26152
G1 X159.089 Y78.494 E27.28724
G1 X159.555 Y78.997 E27.31005
G1 X159.969 Y79.691 E27.33693
G1 X160.095 Y80.448 E27.36245
G1 X160.105 Y81.585 E27.40027
G1 X159.946 Y82.237 E27.42259
G1 X159.591 Y82.924 E27.44831
G1 X159.088 Y83.39 E27.47112
G1 X158.394 Y83.804 E27.49799
G1 X157.637 Y83.93 E27.52352
G1 X77.297 Y83.94 E30.19564
G1 X76.648 Y83.781 E30.21786
G1 X75.961 Y83.426 E30.24358
G1 X75.495 Y82.923 E30.26639
G1 X75.081 Y82.229 E30.29326
G1 X74.955 Y81.472 E30.31879
G1 X74.945 Y80.335 E30.35661
G1 X75.104 Y79.683 E30.37893
G1 X75.459 Y78.996 E30.40465
G0 F6000 X75.782 Y79.242
G1 F1200 X76.201 Y78.854 E30.42364
G1 X76.796 Y78.499 E30.44669
G1 X77.479 Y78.385 E30.46972
G1 X157.703 Y78.38 E33.13798
G1 X158.263 Y78.517 E33.15715
G1 X158.843 Y78.817 E33.17887
G1 X159.231 Y79.236 E33.19787
G1 X159.586 Y79.831 E33.22091
G1 X159.7 Y80.514 E33.24394
G1 X159.705 Y81.537 E33.27797
G1 X159.568 Y82.098 E33.29717
G1 X159.268 Y82.678 E33.31889
G1 X158.849 Y83.066 E33.33789
G1 X158.254 Y83.421 E33.36093
G1 X157.571 Y83.535 E33.38396
G1 X77.347 Y83.54 E36.05222
G1 X76.787 Y83.403 E36.0714
G1 X76.207 Y83.103 E36.09312
G1 X75.819 Y82.684 E36.11211
G1 X75.464 Y82.089 E36.13515
G1 X75.35 Y81.406 E36.15818
G1 X75.345 Y80.383 E36.19221
G1 X75.482 Y79.822 E36.21142
G1 X75.782 Y79.242 E36.23314
G0 F6000 X76.105 Y79.488
G1 F1200 X76.443 Y79.175 E36.24846
G1 X76.934 Y78.882 E36.26748
G1 X77.545 Y78.78 E36.28808
G1 X157.653 Y78.78 E38.95248
G1 X158.124 Y78.895 E38.96861
G1 X158.597 Y79.14 E38.98632
G1 X158.91 Y79.478 E39.00165
G1 X159.203 Y79.969 E39.02066
G1 X159.305 Y80.58 E39.04127
G1 X159.305 Y81.488 E39.07147
G1 X159.19 Y81.959 E39.08759
G1 X158.945 Y82.432 E39.10531
G1 X158.607 Y82.745 E39.12063
G1 X158.116 Y83.038 E39.13965
G1 X157.505 Y83.14 E39.16025
G1 X77.397 Y83.14 E41.82466
G1 X76.926 Y83.025 E41.84078
G1 X76.453 Y82.78 E41.8585
G1 X76.14 Y82.442 E41.87382
G1 X75.847 Y81.951 E41.89284
G1 X75.745 Y81.34 E41.91344
G1 X75.745 Y80.432 E41.94364
G1 X75.86 Y79.961 E41.95977
G1 X76.105 Y79.488 E41.97748
G0 F6000 X76.428 Y79.734
G1 F1200 X76.685 Y79.496 E41.98913
G1 X77.072 Y79.265 E42.00412
G1 X77.545 Y79.18 E42.02011
G1 X157.603 Y79.18 E44.68285
G1 X157.985 Y79.273 E44.69592
G1 X158.351 Y79.463 E44.70964
G1 X158.589 Y79.72 E44.72129
G1 X158.82 Y80.107 E44.73628
G1 X158.905 Y80.58 E44.75226
G1 X158.905 Y81.438 E44.7808
G1 X158.812 Y81.82 E44.79388
G1 X158.622 Y82.186 E44.80759
G1 X158.365 Y82.424 E44.81924
G1 X157.978 Y82.655 E44.83423
G1 X157.505 Y82.74 E44.85022
G1 X77.447 Y82.74 E47.51296
G1 X77.065 Y82.647 E47.52604
G1 X76.699 Y82.457 E47.53975
G1 X76.461 Y82.2 E47.5514
G1 X76.23 Y81.813 E47.56639
G1 X76.145 Y81.34 E47.58238
G1 X76.145 Y80.482 E47.61091
G1 X76.238 Y80.1 E47.62399
G1 X76.428 Y79.734 E47.63771
G0 F6000 X76.752 Y79.979
G1 F1200 X76.615 Y80.242 E47.64757
G1 X76.545 Y80.531 E47.65746
G1 X76.545 Y81.34 E47.68437
G1 X76.61 Y81.668 E47.69549
G1 X76.805 Y81.995 E47.70815
G1 X76.944 Y82.133 E47.71466
G1 X77.207 Y82.27 E47.72453
G1 X77.496 Y82.34 E47.73442
G1 X157.505 Y82.34 E50.39553
G1 X157.833 Y82.275 E50.40665
G1 X158.16 Y82.08 E50.41931
G1 X158.298 Y81.941 E50.42583
G1 X158.435 Y81.678 E50.43569
G1 X158.505 Y81.389 E50.44558
G1 X158.505 Y80.58 E50.47249
G1 X158.44 Y80.252 E50.48361
G1 X158.245 Y79.925 E50.49627
G1 X158.106 Y79.787 E50.50279
G1 X157.843 Y79.65 E50.51265
G1 X157.554 Y79.58 E50.52254
G1 X77.545 Y79.58 E53.18365
G1 X77.217 Y79.645 E53.19477
G1 X76.89 Y79.84 E53.20744
G1 X76.752 Y79.979 E53.21395
G0 F6000 X77.384 Y80.461
G1 F1200 X77.545 Y80.38 E53.21994
G1 X157.505 Y80.38 E55.87942
G1 X157.624 Y80.419 E55.88359
G1 X157.705 Y80.58 E55.88958
G1 X157.705 Y81.34 E55.91486
G1 X157.666 Y81.459 E55.91903
G1 X157.505 Y81.54 E55.92502
G1 X77.545 Y81.54 E58.5845
G1 X77.426 Y81.501 E58.58867
G1 X77.345 Y81.34 E58.59466
G1 X77.345 Y80.58 E58.61994
G1 X77.384 Y80.461 E58.6241
G0 F6000 X77.004 Y80.336
G1 F1200 X77.095 Y80.184 E58.63
G1 X77.365 Y80.023 E58.64045
G1 X77.545 Y79.98 E58.64661
G1 X157.505 Y79.98 E61.30609
G1 X157.749 Y80.039 E61.31444
G1 X157.901 Y80.13 E61.32033
G1 X158.062 Y80.4 E61.33078
G1 X158.105 Y80.58 E61.33694
G1 X158.105 Y81.34 E61.36222
G1 X158.046 Y81.584 E61.37057
G1 X157.955 Y81.736 E61.37646
G1 X157.685 Y81.897 E61.38692
G1 X157.505 Y81.94 E61.39307
G1 X77.545 Y81.94 E64.05255
G1 X77.301 Y81.881 E64.0609
G1 X77.149 Y81.79 E64.06679
G1 X76.988 Y81.52 E64.07725
G1 X76.945 Y81.34 E64.0834
G1 X76.945 Y80.58 E64.10868
G1 X77.004 Y80.336 E64.11703
G1 F1500 E57.61703
;MESH:90deg_h40_w80_t36.STL
G0 F6000 X76.88 Y80.336
G0 X76.892 Y81.993
G0 X157.314 Y82.005
G0 X157.314 Y81.15
;TYPE:WALL-OUTER
G1 F1500 E64.11703
G1 F1263.2 X77.734 Y81.15 E67.0087
G1 X77.734 Y80.77 E67.02251
G1 X156.607 Y80.77 E69.8885
G0 F1080 X157.314 Y80.77
G0 X157.314 Y81.15
G0 F6000 X156.714 Y81.15
G1 F1500 E63.3885
;MESH:NONMESH
G0 F300 X156.714 Y81.15 Z0.4
G0 F6000 X157.324 Y81.16
;TIME_ELAPSED:111.414460
;LAYER:1
;note -- min layer time used
M106 S8.5
;TYPE:WALL-OUTER
;MESH:90deg_h40_w80_t36.STL
G1 F1500 E69.8885
G1 F960.7 X77.724 Y81.16 E72.93313
G1 X77.724 Y80.76 E72.94843
G1 X156.637 Y80.76 E75.96679
G0 F1890 X157.324 Y80.76
G0 X157.324 Y81.16
G0 F10500 X156.724 Y81.16
G1 F1500 E69.46679
;MESH:NONMESH
G0 F300 X156.724 Y81.16 Z0.6
G0 F10500 X157.324 Y81.16
;TIME_ELAPSED:122.224585
;LAYER:2
;note -- min layer time used
M106 S17
;TYPE:WALL-OUTER
;MESH:90deg_h40_w80_t36.STL
G1 F1500 E75.96679
G1 F960.5 X77.724 Y81.16 E79.01142
G1 X77.724 Y80.76 E79.02672
G1 X156.637 Y80.76 E82.04507
G0 F2700 X157.324 Y80.76
G0 X157.324 Y81.16
G0 F15000 X156.724 Y81.16
G1 F1500 E75.54507
;MESH:NONMESH
G0 F300 X156.724 Y81.16 Z0.8
G0 F15000 X157.324 Y81.16
;TIME_ELAPSED:133.038714
;LAYER:3
;note -- min layer time used
M106 S25.5
;TYPE:WALL-OUTER
;MESH:90deg_h40_w80_t36.STL
G1 F1500 E82.04507
G1 F960.5 X77.724 Y81.16 E85.08971
G1 X77.724 Y80.76 E85.10501
G1 X156.637 Y80.76 E88.12336
G0 F2700 X157.324 Y80.76
G0 X157.324 Y81.16
G0 F15000 X156.724 Y81.16
G1 F1500 E81.62336
;MESH:NONMESH
G0 F300 X156.724 Y81.16 Z1
G0 F15000 X157.324 Y81.16
;TIME_ELAPSED:143.852843
;LAYER:4
;note -- min layer time used
;TYPE:WALL-OUTER
;MESH:90deg_h40_w80_t36.STL
G1 F1500 E88.12336
G1 F960.5 X77.724 Y81.16 E91.16799
G1 X77.724 Y80.76 E91.18329
G1 X156.637 Y80.76 E94.20165
G0 F2700 X157.324 Y80.76
G0 X157.324 Y81.16
G0 F15000 X156.724 Y81.16
G1 F1500 E87.70165
;MESH:NONMESH
G0 F300 X156.724 Y81.16 Z1.2
G0 F15000 X157.324 Y81.16
;TIME_ELAPSED:154.666972
;LAYER:5
;note -- min layer time used
;TYPE:WALL-OUTER
;MESH:90deg_h40_w80_t36.STL
G1 F1500 E94.20165
G1 F960.5 X77.724 Y81.16 E97.24628
G1 X77.724 Y80.76 E97.26158
G1 X156.637 Y80.76 E100.27994
G0 F2700 X157.324 Y80.76
G0 X157.324 Y81.16
G0 F15000 X156.724 Y81.16
G1 F1500 E93.77994
;MESH:NONMESH
G0 F300 X156.724 Y81.16 Z1.4
G0 F15000 X157.324 Y81.16
;TIME_ELAPSED:165.481101
;LAYER:6
;note -- min layer time used
;TYPE:WALL-OUTER
;MESH:90deg_h40_w80_t36.STL
G1 F1500 E100.27994
G1 F960.5 X77.724 Y81.16 E103.32457
G1 X77.724 Y80.76 E103.33987
G1 X156.637 Y80.76 E106.35823
G0 F2700 X157.324 Y80.76
G0 X157.324 Y81.16
G0 F15000 X156.724 Y81.16
G1 F1500 E99.85823
;MESH:NONMESH
G0 F300 X156.724 Y81.16 Z1.6
G0 F15000 X157.324 Y81.16
;TIME_ELAPSED:176.295230
;LAYER:7
;note -- min layer time used
;TYPE:WALL-OUTER
;MESH:90deg_h40_w80_t36.STL
G1 F1500 E106.35823
G1 F960.5 X77.724 Y81.16 E109.40286
G1 X77.724 Y80.76 E109.41816
G1 X156.637 Y80.76 E112.43651
G0 F2700 X157.324 Y80.76
G0 X157.324 Y81.16
G0 F15000 X156.724 Y81.16
G1 F1500 E105.93651
;MESH:NONMESH
G0 F300 X156.724 Y81.16 Z1.8
G0 F15000 X157.324 Y81.16
;TIME_ELAPSED:187.109359
;LAYER:8
;note -- min layer time used
;TYPE:WALL-OUTER
;MESH:90deg_h40_w80_t36.STL
G1 F1500 E112.43651
G1 F960.5 X77.724 Y81.16 E115.48115
G1 X77.724 Y80.76 E115.49645
G1 X156.637 Y80.76 E118.5148
G0 F2700 X157.324 Y80.76
G0 X157.324 Y81.16
G0 F15000 X156.724 Y81.16
G1 F1500 E112.0148
;MESH:NONMESH
G0 F300 X156.724 Y81.16 Z2
G0 F15000 X157.324 Y81.16
;TIME_ELAPSED:197.923489
;LAYER:9
;note -- min layer time used
;TYPE:WALL-OUTER
;MESH:90deg_h40_w80_t36.STL
G1 F1500 E118.5148
G1 F960.5 X77.724 Y81.16 E121.55943
G1 X77.724 Y80.76 E121.57473
G1 X156.637 Y80.76 E124.59309
G0 F2700 X157.324 Y80.76
G0 X157.324 Y81.16
G0 F15000 X156.724 Y81.16
G1 F1500 E118.09309
;MESH:NONMESH
G0 F300 X156.724 Y81.16 Z2.2
G0 F15000 X157.324 Y81.16
;TIME_ELAPSED:208.737618
;LAYER:10
;note -- min layer time used
;TYPE:WALL-OUTER
;MESH:90deg_h40_w80_t36.STL
G1 F1500 E124.59309
G1 F960.5 X77.724 Y81.16 E127.63772
G1 X77.724 Y80.76 E127.65302
G1 X156.637 Y80.76 E130.67138
G0 F2700 X157.324 Y80.76
G0 X157.324 Y81.16
G0 F15000 X156.724 Y81.16
G1 F1500 E124.17138
;MESH:NONMESH
G0 F300 X156.724 Y81.16 Z2.4
G0 F15000 X157.324 Y81.16
;TIME_ELAPSED:219.551747
;LAYER:11
;note -- min layer time used
;TYPE:WALL-OUTER
;MESH:90deg_h40_w80_t36.STL
G1 F1500 E130.67138
G1 F960.5 X77.724 Y81.16 E133.71601
G1 X77.724 Y80.76 E133.73131
G1 X156.637 Y80.76 E136.74967
G0 F2700 X157.324 Y80.76
G0 X157.324 Y81.16
G0 F15000 X156.724 Y81.16
G1 F1500 E130.24967
;MESH:NONMESH
G0 F300 X156.724 Y81.16 Z2.6
G0 F15000 X157.324 Y81.16
;TIME_ELAPSED:230.365876
;LAYER:12
;note -- min layer time used
;TYPE:WALL-OUTER
;MESH:90deg_h40_w80_t36.STL
G1 F1500 E136.74967
G1 F960.5 X77.724 Y81.16 E139.7943
G1 X77.724 Y80.76 E139.8096
G1 X156.637 Y80.76 E142.82795
G0 F2700 X157.324 Y80.76
G0 X157.324 Y81.16
G0 F15000 X156.724 Y81.16
G1 F1500 E136.32795
;MESH:NONMESH
G0 F300 X156.724 Y81.16 Z2.8
G0 F15000 X157.324 Y81.16
;TIME_ELAPSED:241.180005
;LAYER:13
;note -- min layer time used
;TYPE:WALL-OUTER
;MESH:90deg_h40_w80_t36.STL
G1 F1500 E142.82795
G1 F960.5 X77.724 Y81.16 E145.87259
G1 X77.724 Y80.76 E145.88789
G1 X156.637 Y80.76 E148.90624
G0 F2700 X157.324 Y80.76
G0 X157.324 Y81.16
G0 F15000 X156.724 Y81.16
G1 F1500 E142.40624
;MESH:NONMESH
G0 F300 X156.724 Y81.16 Z3
G0 F15000 X157.324 Y81.16
;TIME_ELAPSED:251.994134
;LAYER:14
;note -- min layer time used
;TYPE:WALL-OUTER
;MESH:90deg_h40_w80_t36.STL
G1 F1500 E148.90624
G1 F960.5 X77.724 Y81.16 E151.95087
G1 X77.724 Y80.76 E151.96617
G1 X156.637 Y80.76 E154.98453
G0 F2700 X157.324 Y80.76
G0 X157.324 Y81.16
G0 F15000 X156.724 Y81.16
G1 F1500 E148.48453
;MESH:NONMESH
G0 F300 X156.724 Y81.16 Z3.2
G0 F15000 X157.324 Y81.16
;TIME_ELAPSED:262.808263
;LAYER:15
;note -- min layer time used
;TYPE:WALL-OUTER
;MESH:90deg_h40_w80_t36.STL
G1 F1500 E154.98453
G1 F960.5 X77.724 Y81.16 E158.02916
G1 X77.724 Y80.76 E158.04446
G1 X156.637 Y80.76 E161.06282
G0 F2700 X157.324 Y80.76
G0 X157.324 Y81.16
G0 F15000 X156.724 Y81.16
G1 F1500 E154.56282
;MESH:NONMESH
G0 F300 X156.724 Y81.16 Z3.4
G0 F15000 X157.324 Y81.16
;TIME_ELAPSED:273.622392
;LAYER:16
;note -- min layer time used
;TYPE:WALL-OUTER
;MESH:90deg_h40_w80_t36.STL
G1 F1500 E161.06282
G1 F960.5 X77.724 Y81.16 E164.10745
G1 X77.724 Y80.76 E164.12275
G1 X156.637 Y80.76 E167.14111
G0 F2700 X157.324 Y80.76
G0 X157.324 Y81.16
G0 F15000 X156.724 Y81.16
G1 F1500 E160.64111
;MESH:NONMESH
G0 F300 X156.724 Y81.16 Z3.6
G0 F15000 X157.324 Y81.16
;TIME_ELAPSED:284.436521
;LAYER:17
;note -- min layer time used
;TYPE:WALL-OUTER
;MESH:90deg_h40_w80_t36.STL
G1 F1500 E167.14111
G1 F960.5 X77.724 Y81.16 E170.18574
G1 X77.724 Y80.76 E170.20104
G1 X156.637 Y80.76 E173.21939
G0 F2700 X157.324 Y80.76
G0 X157.324 Y81.16
G0 F15000 X156.724 Y81.16
G1 F1500 E166.71939
;MESH:NONMESH
G0 F300 X156.724 Y81.16 Z3.8
G0 F15000 X157.324 Y81.16
;TIME_ELAPSED:295.250650
;LAYER:18
;note -- min layer time used
;TYPE:WALL-OUTER
;MESH:90deg_h40_w80_t36.STL
G1 F1500 E173.21939
G1 F960.5 X77.724 Y81.16 E176.26403
G1 X77.724 Y80.76 E176.27933
G1 X156.637 Y80.76 E179.29768
G0 F2700 X157.324 Y80.76
G0 X157.324 Y81.16
G0 F15000 X156.724 Y81.16
G1 F1500 E172.79768
;MESH:NONMESH
G0 F300 X156.724 Y81.16 Z4
G0 F15000 X157.324 Y81.16
;TIME_ELAPSED:306.064779
;LAYER:19
;note -- min layer time used
;TYPE:WALL-OUTER
;MESH:90deg_h40_w80_t36.STL
G1 F1500 E179.29768
G1 F960.5 X77.724 Y81.16 E182.34231
G1 X77.724 Y80.76 E182.35761
G1 X156.637 Y80.76 E185.37597
G0 F2700 X157.324 Y80.76
G0 X157.324 Y81.16
G0 F15000 X156.724 Y81.16
G1 F1500 E178.87597
;MESH:NONMESH
G0 F300 X156.724 Y81.16 Z4.2
G0 F15000 X157.324 Y81.16
;TIME_ELAPSED:316.878909
;LAYER:20
;note -- min layer time used
;TYPE:WALL-OUTER
;MESH:90deg_h40_w80_t36.STL
G1 F1500 E185.37597
G1 F960.5 X77.724 Y81.16 E188.4206
G1 X77.724 Y80.76 E188.4359
G1 X156.637 Y80.76 E191.45426
G0 F2700 X157.324 Y80.76
G0 X157.324 Y81.16
G0 F15000 X156.724 Y81.16
G1 F1500 E184.95426
;MESH:NONMESH
G0 F300 X156.724 Y81.16 Z4.4
G0 F15000 X157.324 Y81.16
;TIME_ELAPSED:327.693038
;LAYER:21
;note -- min layer time used
;TYPE:WALL-OUTER
;MESH:90deg_h40_w80_t36.STL
G1 F1500 E191.45426
G1 F960.5 X77.724 Y81.16 E194.49889
G1 X77.724 Y80.76 E194.51419
G1 X156.637 Y80.76 E197.53255
G0 F2700 X157.324 Y80.76
G0 X157.324 Y81.16
G0 F15000 X156.724 Y81.16
G1 F1500 E191.03255
;MESH:NONMESH
G0 F300 X156.724 Y81.16 Z4.6
G0 F15000 X157.324 Y81.16
;TIME_ELAPSED:338.507167
;LAYER:22
;note -- min layer time used
;TYPE:WALL-OUTER
;MESH:90deg_h40_w80_t36.STL
G1 F1500 E197.53255
G1 F960.5 X77.724 Y81.16 E200.57718
G1 X77.724 Y80.76 E200.59248
G1 X156.637 Y80.76 E203.61083
G0 F2700 X157.324 Y80.76
G0 X157.324 Y81.16
G0 F15000 X156.724 Y81.16
G1 F1500 E197.11083
;MESH:NONMESH
G0 F300 X156.724 Y81.16 Z4.8
G0 F15000 X157.324 Y81.16
;TIME_ELAPSED:349.321296
;LAYER:23
;note -- min layer time used
;TYPE:WALL-OUTER
;MESH:90deg_h40_w80_t36.STL
G1 F1500 E203.61083
G1 F960.5 X77.724 Y81.16 E206.65547
G1 X77.724 Y80.76 E206.67077
G1 X156.637 Y80.76 E209.68912
G0 F2700 X157.324 Y80.76
G0 X157.324 Y81.16
G0 F15000 X156.724 Y81.16
G1 F1500 E203.18912
;MESH:NONMESH
G0 F300 X156.724 Y81.16 Z5
G0 F15000 X157.324 Y81.16
;TIME_ELAPSED:360.135425
;LAYER:24
;note -- min layer time used
;TYPE:WALL-OUTER
;MESH:90deg_h40_w80_t36.STL
G1 F1500 E209.68912
G1 F960.5 X77.724 Y81.16 E212.73375
G1 X77.724 Y80.76 E212.74905
G1 X156.637 Y80.76 E215.76741
G0 F2700 X157.324 Y80.76
G0 X157.324 Y81.16
G0 F15000 X156.724 Y81.16
G1 F1500 E209.26741
;MESH:NONMESH
G0 F300 X156.724 Y81.16 Z5.2
G0 F15000 X157.324 Y81.16
;TIME_ELAPSED:370.949554
;LAYER:25
;note -- min layer time used
;TYPE:WALL-OUTER
;MESH:90deg_h40_w80_t36.STL
G1 F1500 E215.76741
G1 F960.5 X77.724 Y81.16 E218.81204
G1 X77.724 Y80.76 E218.82734
G1 X156.637 Y80.76 E221.8457
G0 F2700 X157.324 Y80.76
G0 X157.324 Y81.16
G0 F15000 X156.724 Y81.16
G1 F1500 E215.3457
;MESH:NONMESH
G0 F300 X156.724 Y81.16 Z5.4
G0 F15000 X157.324 Y81.16
;TIME_ELAPSED:381.763683
;LAYER:26
;note -- min layer time used
;TYPE:WALL-OUTER
;MESH:90deg_h40_w80_t36.STL
G1 F1500 E221.8457
G1 F960.5 X77.724 Y81.16 E224.89033
G1 X77.724 Y80.76 E224.90563
G1 X156.637 Y80.76 E227.92399
G0 F2700 X157.324 Y80.76
G0 X157.324 Y81.16
G0 F15000 X156.724 Y81.16
G1 F1500 E221.42399
;MESH:NONMESH
G0 F300 X156.724 Y81.16 Z5.6
G0 F15000 X157.324 Y81.16
;TIME_ELAPSED:392.577812
;LAYER:27
;note -- min layer time used
;TYPE:WALL-OUTER
;MESH:90deg_h40_w80_t36.STL
G1 F1500 E227.92399
G1 F960.5 X77.724 Y81.16 E230.96862
G1 X77.724 Y80.76 E230.98392
G1 X156.637 Y80.76 E234.00227
G0 F2700 X157.324 Y80.76
G0 X157.324 Y81.16
G0 F15000 X156.724 Y81.16
G1 F1500 E227.50227
;MESH:NONMESH
G0 F300 X156.724 Y81.16 Z5.8
G0 F15000 X157.324 Y81.16
;TIME_ELAPSED:403.391941
;LAYER:28
;note -- min layer time used
;TYPE:WALL-OUTER
;MESH:90deg_h40_w80_t36.STL
G1 F1500 E234.00227
G1 F960.5 X77.724 Y81.16 E237.04691
G1 X77.724 Y80.76 E237.06221
G1 X156.637 Y80.76 E240.08056
G0 F2700 X157.324 Y80.76
G0 X157.324 Y81.16
G0 F15000 X156.724 Y81.16
G1 F1500 E233.58056
;MESH:NONMESH
G0 F300 X156.724 Y81.16 Z6
G0 F15000 X157.324 Y81.16
;TIME_ELAPSED:414.206070
;LAYER:29
;note -- min layer time used
;TYPE:WALL-OUTER
;MESH:90deg_h40_w80_t36.STL
G1 F1500 E240.08056
G1 F960.5 X77.724 Y81.16 E243.12519
G1 X77.724 Y80.76 E243.14049
G1 X156.637 Y80.76 E246.15885
G0 F2700 X157.324 Y80.76
G0 X157.324 Y81.16
G0 F15000 X156.724 Y81.16
G1 F1500 E239.65885
;MESH:NONMESH
G0 F300 X156.724 Y81.16 Z6.2
G0 F15000 X157.324 Y81.16
;TIME_ELAPSED:425.020199
;LAYER:30
;note -- min layer time used
;TYPE:WALL-OUTER
;MESH:90deg_h40_w80_t36.STL
G1 F1500 E246.15885
G1 F960.5 X77.724 Y81.16 E249.20348
G1 X77.724 Y80.76 E249.21878
G1 X156.637 Y80.76 E252.23714
G0 F2700 X157.324 Y80.76
G0 X157.324 Y81.16
G0 F15000 X156.724 Y81.16
G1 F1500 E245.73714
;MESH:NONMESH
G0 F300 X156.724 Y81.16 Z6.4
G0 F15000 X157.324 Y81.16
;TIME_ELAPSED:435.834328
;LAYER:31
;note -- min layer time used
;TYPE:WALL-OUTER
;MESH:90deg_h40_w80_t36.STL
G1 F1500 E252.23714
G1 F960.5 X77.724 Y81.16 E255.28177
G1 X77.724 Y80.76 E255.29707
G1 X156.637 Y80.76 E258.31543
G0 F2700 X157.324 Y80.76
G0 X157.324 Y81.16
G0 F15000 X156.724 Y81.16
G1 F1500 E251.81543
;MESH:NONMESH
G0 F300 X156.724 Y81.16 Z6.6
G0 F15000 X157.324 Y81.16
;TIME_ELAPSED:446.648458
;LAYER:32
;note -- min layer time used
;TYPE:WALL-OUTER
;MESH:90deg_h40_w80_t36.STL
G1 F1500 E258.31543
G1 F960.5 X77.724 Y81.16 E261.36006
G1 X77.724 Y80.76 E261.37536
G1 X156.637 Y80.76 E264.39371
G0 F2700 X157.324 Y80.76
G0 X157.324 Y81.16
G0 F15000 X156.724 Y81.16
G1 F1500 E257.89371
;MESH:NONMESH
G0 F300 X156.724 Y81.16 Z6.8
G0 F15000 X157.324 Y81.16
;TIME_ELAPSED:457.462587
;LAYER:33
;note -- min layer time used
;TYPE:WALL-OUTER
;MESH:90deg_h40_w80_t36.STL
G1 F1500 E264.39371
G1 F960.5 X77.724 Y81.16 E267.43835
G1 X77.724 Y80.76 E267.45365
G1 X156.637 Y80.76 E270.472
G0 F2700 X157.324 Y80.76
G0 X157.324 Y81.16
G0 F15000 X156.724 Y81.16
G1 F1500 E263.972
;MESH:NONMESH
G0 F300 X156.724 Y81.16 Z7
G0 F15000 X157.324 Y81.16
;TIME_ELAPSED:468.276716
;LAYER:34
;note -- min layer time used
;TYPE:WALL-OUTER
;MESH:90deg_h40_w80_t36.STL
G1 F1500 E270.472
G1 F960.5 X77.724 Y81.16 E273.51663
G1 X77.724 Y80.76 E273.53193
G1 X156.637 Y80.76 E276.55029
G0 F2700 X157.324 Y80.76
G0 X157.324 Y81.16
G0 F15000 X156.724 Y81.16
G1 F1500 E270.05029
;MESH:NONMESH
G0 F300 X156.724 Y81.16 Z7.2
G0 F15000 X157.324 Y81.16
;TIME_ELAPSED:479.090845
;LAYER:35
;note -- min layer time used
;TYPE:WALL-OUTER
;MESH:90deg_h40_w80_t36.STL
G1 F1500 E276.55029
G1 F960.5 X77.724 Y81.16 E279.59492
G1 X77.724 Y80.76 E279.61022
G1 X156.637 Y80.76 E282.62858
G0 F2700 X157.324 Y80.76
G0 X157.324 Y81.16
G0 F15000 X156.724 Y81.16
G1 F1500 E276.12858
;MESH:NONMESH
G0 F300 X156.724 Y81.16 Z7.4
G0 F15000 X157.324 Y81.16
;TIME_ELAPSED:489.904974
;LAYER:36
;note -- min layer time used
;TYPE:WALL-OUTER
;MESH:90deg_h40_w80_t36.STL
G1 F1500 E282.62858
G1 F960.5 X77.724 Y81.16 E285.67321
G1 X77.724 Y80.76 E285.68851
G1 X156.637 Y80.76 E288.70687
G0 F2700 X157.324 Y80.76
G0 X157.324 Y81.16
G0 F15000 X156.724 Y81.16
G1 F1500 E282.20687
;MESH:NONMESH
G0 F300 X156.724 Y81.16 Z7.6
G0 F15000 X157.324 Y81.16
;TIME_ELAPSED:500.719103
;LAYER:37
;note -- min layer time used
;TYPE:WALL-OUTER
;MESH:90deg_h40_w80_t36.STL
G1 F1500 E288.70687
G1 F960.5 X77.724 Y81.16 E291.7515
G1 X77.724 Y80.76 E291.7668
G1 X156.637 Y80.76 E294.78515
G0 F2700 X157.324 Y80.76
G0 X157.324 Y81.16
G0 F15000 X156.724 Y81.16
G1 F1500 E288.28515
;MESH:NONMESH
G0 F300 X156.724 Y81.16 Z7.8
G0 F15000 X157.324 Y81.16
;TIME_ELAPSED:511.533232
;LAYER:38
;note -- min layer time used
;TYPE:WALL-OUTER
;MESH:90deg_h40_w80_t36.STL
G1 F1500 E294.78515
G1 F960.5 X77.724 Y81.16 E297.82979
G1 X77.724 Y80.76 E297.84509
G1 X156.637 Y80.76 E300.86344
G0 F2700 X157.324 Y80.76
G0 X157.324 Y81.16
G0 F15000 X156.724 Y81.16
G1 F1500 E294.36344
;MESH:NONMESH
G0 F300 X156.724 Y81.16 Z8
G0 F15000 X157.324 Y81.16
;TIME_ELAPSED:522.347361
;LAYER:39
;note -- min layer time used
;TYPE:WALL-OUTER
;MESH:90deg_h40_w80_t36.STL
G1 F1500 E300.86344
G1 F960.5 X77.724 Y81.16 E303.90807
G1 X77.724 Y80.76 E303.92337
G1 X156.637 Y80.76 E306.94173
G0 F2700 X157.324 Y80.76
G0 X157.324 Y81.16
G0 F15000 X156.724 Y81.16
G1 F1500 E300.44173
;MESH:NONMESH
G0 F300 X156.724 Y81.16 Z8.2
G0 F15000 X157.324 Y81.16
;TIME_ELAPSED:533.161490
;LAYER:40
;note -- min layer time used
;TYPE:WALL-OUTER
;MESH:90deg_h40_w80_t36.STL
G1 F1500 E306.94173
G1 F960.5 X77.724 Y81.16 E309.98636
G1 X77.724 Y80.76 E310.00166
G1 X156.637 Y80.76 E313.02002
G0 F2700 X157.324 Y80.76
G0 X157.324 Y81.16
G0 F15000 X156.724 Y81.16
G1 F1500 E306.52002
;MESH:NONMESH
G0 F300 X156.724 Y81.16 Z8.4
G0 F15000 X157.324 Y81.16
;TIME_ELAPSED:543.975619
;LAYER:41
;note -- min layer time used
;TYPE:WALL-OUTER
;MESH:90deg_h40_w80_t36.STL
G1 F1500 E313.02002
G1 F960.5 X77.724 Y81.16 E316.06465
G1 X77.724 Y80.76 E316.07995
G1 X156.637 Y80.76 E319.09831
G0 F2700 X157.324 Y80.76
G0 X157.324 Y81.16
G0 F15000 X156.724 Y81.16
G1 F1500 E312.59831
;MESH:NONMESH
G0 F300 X156.724 Y81.16 Z8.6
G0 F15000 X157.324 Y81.16
;TIME_ELAPSED:554.789748
;LAYER:42
;note -- min layer time used
;TYPE:WALL-OUTER
;MESH:90deg_h40_w80_t36.STL
G1 F1500 E319.09831
G1 F960.5 X77.724 Y81.16 E322.14294
G1 X77.724 Y80.76 E322.15824
G1 X156.637 Y80.76 E325.17659
G0 F2700 X157.324 Y80.76
G0 X157.324 Y81.16
G0 F15000 X156.724 Y81.16
G1 F1500 E318.67659
;MESH:NONMESH
G0 F300 X156.724 Y81.16 Z8.8
G0 F15000 X157.324 Y81.16
;TIME_ELAPSED:565.603878
;LAYER:43
;note -- min layer time used
;TYPE:WALL-OUTER
;MESH:90deg_h40_w80_t36.STL
G1 F1500 E325.17659
G1 F960.5 X77.724 Y81.16 E328.22123
G1 X77.724 Y80.76 E328.23653
G1 X156.637 Y80.76 E331.25488
G0 F2700 X157.324 Y80.76
G0 X157.324 Y81.16
G0 F15000 X156.724 Y81.16
G1 F1500 E324.75488
;MESH:NONMESH
G0 F300 X156.724 Y81.16 Z9
G0 F15000 X157.324 Y81.16
;TIME_ELAPSED:576.418007
;LAYER:44
;note -- min layer time used
;TYPE:WALL-OUTER
;MESH:90deg_h40_w80_t36.STL
G1 F1500 E331.25488
G1 F960.5 X77.724 Y81.16 E334.29951
G1 X77.724 Y80.76 E334.31481
G1 X156.637 Y80.76 E337.33317
G0 F2700 X157.324 Y80.76
G0 X157.324 Y81.16
G0 F15000 X156.724 Y81.16
G1 F1500 E330.83317
;MESH:NONMESH
G0 F300 X156.724 Y81.16 Z9.2
G0 F15000 X157.324 Y81.16
;TIME_ELAPSED:587.232136
;LAYER:45
;note -- min layer time used
;TYPE:WALL-OUTER
;MESH:90deg_h40_w80_t36.STL
G1 F1500 E337.33317
G1 F960.5 X77.724 Y81.16 E340.3778
G1 X77.724 Y80.76 E340.3931
G1 X156.637 Y80.76 E343.41146
G0 F2700 X157.324 Y80.76
G0 X157.324 Y81.16
G0 F15000 X156.724 Y81.16
G1 F1500 E336.91146
;MESH:NONMESH
G0 F300 X156.724 Y81.16 Z9.4
G0 F15000 X157.324 Y81.16
;TIME_ELAPSED:598.046265
;LAYER:46
;note -- min layer time used
;TYPE:WALL-OUTER
;MESH:90deg_h40_w80_t36.STL
G1 F1500 E343.41146
G1 F960.5 X77.724 Y81.16 E346.45609
G1 X77.724 Y80.76 E346.47139
G1 X156.637 Y80.76 E349.48975
G0 F2700 X157.324 Y80.76
G0 X157.324 Y81.16
G0 F15000 X156.724 Y81.16
G1 F1500 E342.98975
;MESH:NONMESH
G0 F300 X156.724 Y81.16 Z9.6
G0 F15000 X157.324 Y81.16
;TIME_ELAPSED:608.860394
;LAYER:47
;note -- min layer time used
;TYPE:WALL-OUTER
;MESH:90deg_h40_w80_t36.STL
G1 F1500 E349.48975
G1 F960.5 X77.724 Y81.16 E352.53438
G1 X77.724 Y80.76 E352.54968
G1 X156.637 Y80.76 E355.56803
G0 F2700 X157.324 Y80.76
G0 X157.324 Y81.16
G0 F15000 X156.724 Y81.16
G1 F1500 E349.06803
;MESH:NONMESH
G0 F300 X156.724 Y81.16 Z9.8
G0 F15000 X157.324 Y81.16
;TIME_ELAPSED:619.674523
;LAYER:48
;note -- min layer time used
;TYPE:WALL-OUTER
;MESH:90deg_h40_w80_t36.STL
G1 F1500 E355.56803
G1 F960.5 X77.724 Y81.16 E358.61267
G1 X77.724 Y80.76 E358.62797
G1 X156.637 Y80.76 E361.64632
G0 F2700 X157.324 Y80.76
G0 X157.324 Y81.16
G0 F15000 X156.724 Y81.16
G1 F1500 E355.14632
;MESH:NONMESH
G0 F300 X156.724 Y81.16 Z10
G0 F15000 X157.324 Y81.16
;TIME_ELAPSED:630.488652
;LAYER:49
;note -- min layer time used
;TYPE:WALL-OUTER
;MESH:90deg_h40_w80_t36.STL
G1 F1500 E361.64632
G1 F960.5 X77.724 Y81.16 E364.69095
G1 X77.724 Y80.76 E364.70625
G1 X156.637 Y80.76 E367.72461
G0 F2700 X157.324 Y80.76
G0 X157.324 Y81.16
G0 F15000 X156.724 Y81.16
G1 F1500 E361.22461
;MESH:NONMESH
G0 F300 X156.724 Y81.16 Z10.2
G0 F15000 X157.324 Y81.16
;TIME_ELAPSED:641.302781
;LAYER:50
;note -- min layer time used
;TYPE:WALL-OUTER
;MESH:90deg_h40_w80_t36.STL
G1 F1500 E367.72461
G1 F960.5 X77.724 Y81.16 E370.76924
G1 X77.724 Y80.76 E370.78454
G1 X156.637 Y80.76 E373.8029
G0 F2700 X157.324 Y80.76
G0 X157.324 Y81.16
G0 F15000 X156.724 Y81.16
G1 F1500 E367.3029
;MESH:NONMESH
G0 F300 X156.724 Y81.16 Z10.4
G0 F15000 X157.324 Y81.16
;TIME_ELAPSED:652.116910
;LAYER:51
;note -- min layer time used
;TYPE:WALL-OUTER
;MESH:90deg_h40_w80_t36.STL
G1 F1500 E373.8029
G1 F960.5 X77.724 Y81.16 E376.84753
G1 X77.724 Y80.76 E376.86283
G1 X156.637 Y80.76 E379.88119
G0 F2700 X157.324 Y80.76
G0 X157.324 Y81.16
G0 F15000 X156.724 Y81.16
G1 F1500 E373.38119
;MESH:NONMESH
G0 F300 X156.724 Y81.16 Z10.6
G0 F15000 X157.324 Y81.16
;TIME_ELAPSED:662.931039
;LAYER:52
;note -- min layer time used
;TYPE:WALL-OUTER
;MESH:90deg_h40_w80_t36.STL
G1 F1500 E379.88119
G1 F960.5 X77.724 Y81.16 E382.92582
G1 X77.724 Y80.76 E382.94112
G1 X156.637 Y80.76 E385.95947
G0 F2700 X157.324 Y80.76
G0 X157.324 Y81.16
G0 F15000 X156.724 Y81.16
G1 F1500 E379.45947
;MESH:NONMESH
G0 F300 X156.724 Y81.16 Z10.8
G0 F15000 X157.324 Y81.16
;TIME_ELAPSED:673.745168
;LAYER:53
;note -- min layer time used
;TYPE:WALL-OUTER
;MESH:90deg_h40_w80_t36.STL
G1 F1500 E385.95947
G1 F960.5 X77.724 Y81.16 E389.00411
G1 X77.724 Y80.76 E389.01941
G1 X156.637 Y80.76 E392.03776
G0 F2700 X157.324 Y80.76
G0 X157.324 Y81.16
G0 F15000 X156.724 Y81.16
G1 F1500 E385.53776
;MESH:NONMESH
G0 F300 X156.724 Y81.16 Z11
G0 F15000 X157.324 Y81.16
;TIME_ELAPSED:684.559297
;LAYER:54
;note -- min layer time used
;TYPE:WALL-OUTER
;MESH:90deg_h40_w80_t36.STL
G1 F1500 E392.03776
G1 F960.5 X77.724 Y81.16 E395.08239
G1 X77.724 Y80.76 E395.09769
G1 X156.637 Y80.76 E398.11605
G0 F2700 X157.324 Y80.76
G0 X157.324 Y81.16
G0 F15000 X156.724 Y81.16
G1 F1500 E391.61605
;MESH:NONMESH
G0 F300 X156.724 Y81.16 Z11.2
G0 F15000 X157.324 Y81.16
;TIME_ELAPSED:695.373427
;LAYER:55
;note -- min layer time used
;TYPE:WALL-OUTER
;MESH:90deg_h40_w80_t36.STL
G1 F1500 E398.11605
G1 F960.5 X77.724 Y81.16 E401.16068
G1 X77.724 Y80.76 E401.17598
G1 X156.637 Y80.76 E404.19434
G0 F2700 X157.324 Y80.76
G0 X157.324 Y81.16
G0 F15000 X156.724 Y81.16
G1 F1500 E397.69434
;MESH:NONMESH
G0 F300 X156.724 Y81.16 Z11.4
G0 F15000 X157.324 Y81.16
;TIME_ELAPSED:706.187556
;LAYER:56
;note -- min layer time used
;TYPE:WALL-OUTER
;MESH:90deg_h40_w80_t36.STL
G1 F1500 E404.19434
G1 F960.5 X77.724 Y81.16 E407.23897
G1 X77.724 Y80.76 E407.25427
G1 X156.637 Y80.76 E410.27263
G0 F2700 X157.324 Y80.76
G0 X157.324 Y81.16
G0 F15000 X156.724 Y81.16
G1 F1500 E403.77263
;MESH:NONMESH
G0 F300 X156.724 Y81.16 Z11.6
G0 F15000 X157.324 Y81.16
;TIME_ELAPSED:717.001685
;LAYER:57
;note -- min layer time used
;TYPE:WALL-OUTER
;MESH:90deg_h40_w80_t36.STL
G1 F1500 E410.27263
G1 F960.5 X77.724 Y81.16 E413.31726
G1 X77.724 Y80.76 E413.33256
G1 X156.637 Y80.76 E416.35091
G0 F2700 X157.324 Y80.76
G0 X157.324 Y81.16
G0 F15000 X156.724 Y81.16
G1 F1500 E409.85091
;MESH:NONMESH
G0 F300 X156.724 Y81.16 Z11.8
G0 F15000 X157.324 Y81.16
;TIME_ELAPSED:727.815814
;LAYER:58
;note -- min layer time used
;TYPE:WALL-OUTER
;MESH:90deg_h40_w80_t36.STL
G1 F1500 E416.35091
G1 F960.5 X77.724 Y81.16 E419.39555
G1 X77.724 Y80.76 E419.41085
G1 X156.637 Y80.76 E422.4292
G0 F2700 X157.324 Y80.76
G0 X157.324 Y81.16
G0 F15000 X156.724 Y81.16
G1 F1500 E415.9292
;MESH:NONMESH
G0 F300 X156.724 Y81.16 Z12
G0 F15000 X157.324 Y81.16
;TIME_ELAPSED:738.629943
;LAYER:59
;note -- min layer time used
;TYPE:WALL-OUTER
;MESH:90deg_h40_w80_t36.STL
G1 F1500 E422.4292
G1 F960.5 X77.724 Y81.16 E425.47383
G1 X77.724 Y80.76 E425.48913
G1 X156.637 Y80.76 E428.50749
G0 F2700 X157.324 Y80.76
G0 X157.324 Y81.16
G0 F15000 X156.724 Y81.16
G1 F1500 E422.00749
;MESH:NONMESH
G0 F300 X156.724 Y81.16 Z12.2
G0 F15000 X157.324 Y81.16
;TIME_ELAPSED:749.444072
;LAYER:60
;note -- min layer time used
;TYPE:WALL-OUTER
;MESH:90deg_h40_w80_t36.STL
G1 F1500 E428.50749
G1 F960.5 X77.724 Y81.16 E431.55212
G1 X77.724 Y80.76 E431.56742
G1 X156.637 Y80.76 E434.58578
G0 F2700 X157.324 Y80.76
G0 X157.324 Y81.16
G0 F15000 X156.724 Y81.16
G1 F1500 E428.08578
;MESH:NONMESH
G0 F300 X156.724 Y81.16 Z12.4
G0 F15000 X157.324 Y81.16
;TIME_ELAPSED:760.258201
;LAYER:61
;note -- min layer time used
;TYPE:WALL-OUTER
;MESH:90deg_h40_w80_t36.STL
G1 F1500 E434.58578
G1 F960.5 X77.724 Y81.16 E437.63041
G1 X77.724 Y80.76 E437.64571
G1 X156.637 Y80.76 E440.66407
G0 F2700 X157.324 Y80.76
G0 X157.324 Y81.16
G0 F15000 X156.724 Y81.16
G1 F1500 E434.16407
;MESH:NONMESH
G0 F300 X156.724 Y81.16 Z12.6
G0 F15000 X157.324 Y81.16
;TIME_ELAPSED:771.072330
;LAYER:62
;note -- min layer time used
;TYPE:WALL-OUTER
;MESH:90deg_h40_w80_t36.STL
G1 F1500 E440.66407
G1 F960.5 X77.724 Y81.16 E443.7087
G1 X77.724 Y80.76 E443.724
G1 X156.637 Y80.76 E446.74235
G0 F2700 X157.324 Y80.76
G0 X157.324 Y81.16
G0 F15000 X156.724 Y81.16
G1 F1500 E440.24235
;MESH:NONMESH
G0 F300 X156.724 Y81.16 Z12.8
G0 F15000 X157.324 Y81.16
;TIME_ELAPSED:781.886459
;LAYER:63
;note -- min layer time used
;TYPE:WALL-OUTER
;MESH:90deg_h40_w80_t36.STL
G1 F1500 E446.74235
G1 F960.5 X77.724 Y81.16 E449.78699
G1 X77.724 Y80.76 E449.80229
G1 X156.637 Y80.76 E452.82064
G0 F2700 X157.324 Y80.76
G0 X157.324 Y81.16
G0 F15000 X156.724 Y81.16
G1 F1500 E446.32064
;MESH:NONMESH
G0 F300 X156.724 Y81.16 Z13
G0 F15000 X157.324 Y81.16
;TIME_ELAPSED:792.700588
;LAYER:64
;note -- min layer time used
;TYPE:WALL-OUTER
;MESH:90deg_h40_w80_t36.STL
G1 F1500 E452.82064
G1 F960.5 X77.724 Y81.16 E455.86527
G1 X77.724 Y80.76 E455.88057
G1 X156.637 Y80.76 E458.89893
G0 F2700 X157.324 Y80.76
G0 X157.324 Y81.16
G0 F15000 X156.724 Y81.16
G1 F1500 E452.39893
;MESH:NONMESH
G0 F300 X156.724 Y81.16 Z13.2
G0 F15000 X157.324 Y81.16
;TIME_ELAPSED:803.514717
;LAYER:65
;note -- min layer time used
;TYPE:WALL-OUTER
;MESH:90deg_h40_w80_t36.STL
G1 F1500 E458.89893
G1 F960.5 X77.724 Y81.16 E461.94356
G1 X77.724 Y80.76 E461.95886
G1 X156.637 Y80.76 E464.97722
G0 F2700 X157.324 Y80.76
G0 X157.324 Y81.16
G0 F15000 X156.724 Y81.16
G1 F1500 E458.47722
;MESH:NONMESH
G0 F300 X156.724 Y81.16 Z13.4
G0 F15000 X157.324 Y81.16
;TIME_ELAPSED:814.328846
;LAYER:66
;note -- min layer time used
;TYPE:WALL-OUTER
;MESH:90deg_h40_w80_t36.STL
G1 F1500 E464.97722
G1 F960.5 X77.724 Y81.16 E468.02185
G1 X77.724 Y80.76 E468.03715
G1 X156.637 Y80.76 E471.05551
G0 F2700 X157.324 Y80.76
G0 X157.324 Y81.16
G0 F15000 X156.724 Y81.16
G1 F1500 E464.55551
;MESH:NONMESH
G0 F300 X156.724 Y81.16 Z13.6
G0 F15000 X157.324 Y81.16
;TIME_ELAPSED:825.142976
;LAYER:67
;note -- min layer time used
;TYPE:WALL-OUTER
;MESH:90deg_h40_w80_t36.STL
G1 F1500 E471.05551
G1 F960.5 X77.724 Y81.16 E474.10014
G1 X77.724 Y80.76 E474.11544
G1 X156.637 Y80.76 E477.13379
G0 F2700 X157.324 Y80.76
G0 X157.324 Y81.16
G0 F15000 X156.724 Y81.16
G1 F1500 E470.63379
;MESH:NONMESH
G0 F300 X156.724 Y81.16 Z13.8
G0 F15000 X157.324 Y81.16
;TIME_ELAPSED:835.957105
;LAYER:68
;note -- min layer time used
;TYPE:WALL-OUTER
;MESH:90deg_h40_w80_t36.STL
G1 F1500 E477.13379
G1 F960.5 X77.724 Y81.16 E480.17843
G1 X77.724 Y80.76 E480.19373
G1 X156.637 Y80.76 E483.21208
G0 F2700 X157.324 Y80.76
G0 X157.324 Y81.16
G0 F15000 X156.724 Y81.16
G1 F1500 E476.71208
;MESH:NONMESH
G0 F300 X156.724 Y81.16 Z14
G0 F15000 X157.324 Y81.16
;TIME_ELAPSED:846.771234
;LAYER:69
;note -- min layer time used
;TYPE:WALL-OUTER
;MESH:90deg_h40_w80_t36.STL
G1 F1500 E483.21208
G1 F960.5 X77.724 Y81.16 E486.25671
G1 X77.724 Y80.76 E486.27201
G1 X156.637 Y80.76 E489.29037
G0 F2700 X157.324 Y80.76
G0 X157.324 Y81.16
G0 F15000 X156.724 Y81.16
G1 F1500 E482.79037
;MESH:NONMESH
G0 F300 X156.724 Y81.16 Z14.2
G0 F15000 X157.324 Y81.16
;TIME_ELAPSED:857.585363
;LAYER:70
;note -- min layer time used
;TYPE:WALL-OUTER
;MESH:90deg_h40_w80_t36.STL
G1 F1500 E489.29037
G1 F960.5 X77.724 Y81.16 E492.335
G1 X77.724 Y80.76 E492.3503
G1 X156.637 Y80.76 E495.36866
G0 F2700 X157.324 Y80.76
G0 X157.324 Y81.16
G0 F15000 X156.724 Y81.16
G1 F1500 E488.86866
;MESH:NONMESH
G0 F300 X156.724 Y81.16 Z14.4
G0 F15000 X157.324 Y81.16
;TIME_ELAPSED:868.399492
;LAYER:71
;note -- min layer time used
;TYPE:WALL-OUTER
;MESH:90deg_h40_w80_t36.STL
G1 F1500 E495.36866
G1 F960.5 X77.724 Y81.16 E498.41329
G1 X77.724 Y80.76 E498.42859
G1 X156.637 Y80.76 E501.44695
G0 F2700 X157.324 Y80.76
G0 X157.324 Y81.16
G0 F15000 X156.724 Y81.16
G1 F1500 E494.94695
;MESH:NONMESH
G0 F300 X156.724 Y81.16 Z14.6
G0 F15000 X157.324 Y81.16
;TIME_ELAPSED:879.213621
;LAYER:72
;note -- min layer time used
;TYPE:WALL-OUTER
;MESH:90deg_h40_w80_t36.STL
G1 F1500 E501.44695
G1 F960.5 X77.724 Y81.16 E504.49158
G1 X77.724 Y80.76 E504.50688
G1 X156.637 Y80.76 E507.52523
G0 F2700 X157.324 Y80.76
G0 X157.324 Y81.16
G0 F15000 X156.724 Y81.16
G1 F1500 E501.02523
;MESH:NONMESH
G0 F300 X156.724 Y81.16 Z14.8
G0 F15000 X157.324 Y81.16
;TIME_ELAPSED:890.027750
;LAYER:73
;note -- min layer time used
;TYPE:WALL-OUTER
;MESH:90deg_h40_w80_t36.STL
G1 F1500 E507.52523
G1 F960.5 X77.724 Y81.16 E510.56987
G1 X77.724 Y80.76 E510.58517
G1 X156.637 Y80.76 E513.60352
G0 F2700 X157.324 Y80.76
G0 X157.324 Y81.16
G0 F15000 X156.724 Y81.16
G1 F1500 E507.10352
;MESH:NONMESH
G0 F300 X156.724 Y81.16 Z15
G0 F15000 X157.324 Y81.16
;TIME_ELAPSED:900.841879
;LAYER:74
;note -- min layer time used
;TYPE:WALL-OUTER
;MESH:90deg_h40_w80_t36.STL
G1 F1500 E513.60352
G1 F960.5 X77.724 Y81.16 E516.64816
G1 X77.724 Y80.76 E516.66345
G1 X156.637 Y80.76 E519.68181
G0 F2700 X157.324 Y80.76
G0 X157.324 Y81.16
G0 F15000 X156.724 Y81.16
G1 F1500 E513.18181
;MESH:NONMESH
G0 F300 X156.724 Y81.16 Z15.2
G0 F15000 X157.324 Y81.16
;TIME_ELAPSED:911.656008
;LAYER:75
;note -- min layer time used
;TYPE:WALL-OUTER
;MESH:90deg_h40_w80_t36.STL
G1 F1500 E519.68181
G1 F960.5 X77.724 Y81.16 E522.72644
G1 X77.724 Y80.76 E522.74174
G1 X156.637 Y80.76 E525.7601
G0 F2700 X157.324 Y80.76
G0 X157.324 Y81.16
G0 F15000 X156.724 Y81.16
G1 F1500 E519.2601
;MESH:NONMESH
G0 F300 X156.724 Y81.16 Z15.4
G0 F15000 X157.324 Y81.16
;TIME_ELAPSED:922.470137
;LAYER:76
;note -- min layer time used
;TYPE:WALL-OUTER
;MESH:90deg_h40_w80_t36.STL
G1 F1500 E525.7601
G1 F960.5 X77.724 Y81.16 E528.80473
G1 X77.724 Y80.76 E528.82003
G1 X156.637 Y80.76 E531.83839
G0 F2700 X157.324 Y80.76
G0 X157.324 Y81.16
G0 F15000 X156.724 Y81.16
G1 F1500 E525.33839
;MESH:NONMESH
G0 F300 X156.724 Y81.16 Z15.6
G0 F15000 X157.324 Y81.16
;TIME_ELAPSED:933.284266
;LAYER:77
;note -- min layer time used
;TYPE:WALL-OUTER
;MESH:90deg_h40_w80_t36.STL
G1 F1500 E531.83839
G1 F960.5 X77.724 Y81.16 E534.88302
G1 X77.724 Y80.76 E534.89832
G1 X156.637 Y80.76 E537.91667
G0 F2700 X157.324 Y80.76
G0 X157.324 Y81.16
G0 F15000 X156.724 Y81.16
G1 F1500 E531.41667
;MESH:NONMESH
G0 F300 X156.724 Y81.16 Z15.8
G0 F15000 X157.324 Y81.16
;TIME_ELAPSED:944.098396
;LAYER:78
;note -- min layer time used
;TYPE:WALL-OUTER
;MESH:90deg_h40_w80_t36.STL
G1 F1500 E537.91667
G1 F960.5 X77.724 Y81.16 E540.96131
G1 X77.724 Y80.76 E540.97661
G1 X156.637 Y80.76 E543.99496
G0 F2700 X157.324 Y80.76
G0 X157.324 Y81.16
G0 F15000 X156.724 Y81.16
G1 F1500 E537.49496
;MESH:NONMESH
G0 F300 X156.724 Y81.16 Z16
G0 F15000 X157.324 Y81.16
;TIME_ELAPSED:954.912525
;LAYER:79
;note -- min layer time used
;TYPE:WALL-OUTER
;MESH:90deg_h40_w80_t36.STL
G1 F1500 E543.99496
G1 F960.5 X77.724 Y81.16 E547.0396
G1 X77.724 Y80.76 E547.05489
G1 X156.637 Y80.76 E550.07325
G0 F2700 X157.324 Y80.76
G0 X157.324 Y81.16
G0 F15000 X156.724 Y81.16
G1 F1500 E543.57325
;MESH:NONMESH
G0 F300 X156.724 Y81.16 Z16.2
G0 F15000 X157.324 Y81.16
;TIME_ELAPSED:965.726654
;LAYER:80
;note -- min layer time used
;TYPE:WALL-OUTER
;MESH:90deg_h40_w80_t36.STL
G1 F1500 E550.07325
G1 F960.5 X77.724 Y81.16 E553.11788
G1 X77.724 Y80.76 E553.13318
G1 X156.637 Y80.76 E556.15154
G0 F2700 X157.324 Y80.76
G0 X157.324 Y81.16
G0 F15000 X156.724 Y81.16
G1 F1500 E549.65154
;MESH:NONMESH
G0 F300 X156.724 Y81.16 Z16.4
G0 F15000 X157.324 Y81.16
;TIME_ELAPSED:976.540783
;LAYER:81
;note -- min layer time used
;TYPE:WALL-OUTER
;MESH:90deg_h40_w80_t36.STL
G1 F1500 E556.15154
G1 F960.5 X77.724 Y81.16 E559.19617
G1 X77.724 Y80.76 E559.21147
G1 X156.637 Y80.76 E562.22983
G0 F2700 X157.324 Y80.76
G0 X157.324 Y81.16
G0 F15000 X156.724 Y81.16
G1 F1500 E555.72983
;MESH:NONMESH
G0 F300 X156.724 Y81.16 Z16.6
G0 F15000 X157.324 Y81.16
;TIME_ELAPSED:987.354912
;LAYER:82
;note -- min layer time used
;TYPE:WALL-OUTER
;MESH:90deg_h40_w80_t36.STL
G1 F1500 E562.22983
G1 F960.5 X77.724 Y81.16 E565.27446
G1 X77.724 Y80.76 E565.28976
G1 X156.637 Y80.76 E568.30811
G0 F2700 X157.324 Y80.76
G0 X157.324 Y81.16
G0 F15000 X156.724 Y81.16
G1 F1500 E561.80811
;MESH:NONMESH
G0 F300 X156.724 Y81.16 Z16.8
G0 F15000 X157.324 Y81.16
;TIME_ELAPSED:998.169041
;LAYER:83
;note -- min layer time used
;TYPE:WALL-OUTER
;MESH:90deg_h40_w80_t36.STL
G1 F1500 E568.30811
G1 F960.5 X77.724 Y81.16 E571.35275
G1 X77.724 Y80.76 E571.36805
G1 X156.637 Y80.76 E574.3864
G0 F2700 X157.324 Y80.76
G0 X157.324 Y81.16
G0 F15000 X156.724 Y81.16
G1 F1500 E567.8864
;MESH:NONMESH
G0 F300 X156.724 Y81.16 Z17
G0 F15000 X157.324 Y81.16
;TIME_ELAPSED:1008.983170
;LAYER:84
;note -- min layer time used
;TYPE:WALL-OUTER
;MESH:90deg_h40_w80_t36.STL
G1 F1500 E574.3864
G1 F960.5 X77.724 Y81.16 E577.43104
G1 X77.724 Y80.76 E577.44633
G1 X156.637 Y80.76 E580.46469
G0 F2700 X157.324 Y80.76
G0 X157.324 Y81.16
G0 F15000 X156.724 Y81.16
G1 F1500 E573.96469
;MESH:NONMESH
G0 F300 X156.724 Y81.16 Z17.2
G0 F15000 X157.324 Y81.16
;TIME_ELAPSED:1019.797299
;LAYER:85
;note -- min layer time used
;TYPE:WALL-OUTER
;MESH:90deg_h40_w80_t36.STL
G1 F1500 E580.46469
G1 F960.5 X77.724 Y81.16 E583.50932
G1 X77.724 Y80.76 E583.52462
G1 X156.637 Y80.76 E586.54298
G0 F2700 X157.324 Y80.76
G0 X157.324 Y81.16
G0 F15000 X156.724 Y81.16
G1 F1500 E580.04298
;MESH:NONMESH
G0 F300 X156.724 Y81.16 Z17.4
G0 F15000 X157.324 Y81.16
;TIME_ELAPSED:1030.611428
;LAYER:86
;note -- min layer time used
;TYPE:WALL-OUTER
;MESH:90deg_h40_w80_t36.STL
G1 F1500 E586.54298
G1 F960.5 X77.724 Y81.16 E589.58761
G1 X77.724 Y80.76 E589.60291
G1 X156.637 Y80.76 E592.62127
G0 F2700 X157.324 Y80.76
G0 X157.324 Y81.16
G0 F15000 X156.724 Y81.16
G1 F1500 E586.12127
;MESH:NONMESH
G0 F300 X156.724 Y81.16 Z17.6
G0 F15000 X157.324 Y81.16
;TIME_ELAPSED:1041.425557
;LAYER:87
;note -- min layer time used
;TYPE:WALL-OUTER
;MESH:90deg_h40_w80_t36.STL
G1 F1500 E592.62127
G1 F960.5 X77.724 Y81.16 E595.6659
G1 X77.724 Y80.76 E595.6812
G1 X156.637 Y80.76 E598.69955
G0 F2700 X157.324 Y80.76
G0 X157.324 Y81.16
G0 F15000 X156.724 Y81.16
G1 F1500 E592.19955
;MESH:NONMESH
G0 F300 X156.724 Y81.16 Z17.8
G0 F15000 X157.324 Y81.16
;TIME_ELAPSED:1052.239686
;LAYER:88
;note -- min layer time used
;TYPE:WALL-OUTER
;MESH:90deg_h40_w80_t36.STL
G1 F1500 E598.69955
G1 F960.5 X77.724 Y81.16 E601.74419
G1 X77.724 Y80.76 E601.75949
G1 X156.637 Y80.76 E604.77784
G0 F2700 X157.324 Y80.76
G0 X157.324 Y81.16
G0 F15000 X156.724 Y81.16
G1 F1500 E598.27784
;MESH:NONMESH
G0 F300 X156.724 Y81.16 Z18
G0 F15000 X157.324 Y81.16
;TIME_ELAPSED:1063.053815
;LAYER:89
;note -- min layer time used
;TYPE:WALL-OUTER
;MESH:90deg_h40_w80_t36.STL
G1 F1500 E604.77784
G1 F960.5 X77.724 Y81.16 E607.82248
G1 X77.724 Y80.76 E607.83777
G1 X156.637 Y80.76 E610.85613
G0 F2700 X157.324 Y80.76
G0 X157.324 Y81.16
G0 F15000 X156.724 Y81.16
G1 F1500 E604.35613
;MESH:NONMESH
G0 F300 X156.724 Y81.16 Z18.2
G0 F15000 X157.324 Y81.16
;TIME_ELAPSED:1073.867945
;LAYER:90
;note -- min layer time used
;TYPE:WALL-OUTER
;MESH:90deg_h40_w80_t36.STL
G1 F1500 E610.85613
G1 F960.5 X77.724 Y81.16 E613.90076
G1 X77.724 Y80.76 E613.91606
G1 X156.637 Y80.76 E616.93442
G0 F2700 X157.324 Y80.76
G0 X157.324 Y81.16
G0 F15000 X156.724 Y81.16
G1 F1500 E610.43442
;MESH:NONMESH
G0 F300 X156.724 Y81.16 Z18.4
G0 F15000 X157.324 Y81.16
;TIME_ELAPSED:1084.682074
;LAYER:91
;note -- min layer time used
;TYPE:WALL-OUTER
;MESH:90deg_h40_w80_t36.STL
G1 F1500 E616.93442
G1 F960.5 X77.724 Y81.16 E619.97905
G1 X77.724 Y80.76 E619.99435
G1 X156.637 Y80.76 E623.01271
G0 F2700 X157.324 Y80.76
G0 X157.324 Y81.16
G0 F15000 X156.724 Y81.16
G1 F1500 E616.51271
;MESH:NONMESH
G0 F300 X156.724 Y81.16 Z18.6
G0 F15000 X157.324 Y81.16
;TIME_ELAPSED:1095.496203
;LAYER:92
;note -- min layer time used
;TYPE:WALL-OUTER
;MESH:90deg_h40_w80_t36.STL
G1 F1500 E623.01271
G1 F960.5 X77.724 Y81.16 E626.05734
G1 X77.724 Y80.76 E626.07264
G1 X156.637 Y80.76 E629.09099
G0 F2700 X157.324 Y80.76
G0 X157.324 Y81.16
G0 F15000 X156.724 Y81.16
G1 F1500 E622.59099
;MESH:NONMESH
G0 F300 X156.724 Y81.16 Z18.8
G0 F15000 X157.324 Y81.16
;TIME_ELAPSED:1106.310332
;LAYER:93
;note -- min layer time used
;TYPE:WALL-OUTER
;MESH:90deg_h40_w80_t36.STL
G1 F1500 E629.09099
G1 F960.5 X77.724 Y81.16 E632.13563
G1 X77.724 Y80.76 E632.15093
G1 X156.637 Y80.76 E635.16928
G0 F2700 X157.324 Y80.76
G0 X157.324 Y81.16
G0 F15000 X156.724 Y81.16
G1 F1500 E628.66928
;MESH:NONMESH
G0 F300 X156.724 Y81.16 Z19
G0 F15000 X157.324 Y81.16
;TIME_ELAPSED:1117.124461
;LAYER:94
;note -- min layer time used
;TYPE:WALL-OUTER
;MESH:90deg_h40_w80_t36.STL
G1 F1500 E635.16928
G1 F960.5 X77.724 Y81.16 E638.21392
G1 X77.724 Y80.76 E638.22922
G1 X156.637 Y80.76 E641.24757
G0 F2700 X157.324 Y80.76
G0 X157.324 Y81.16
G0 F15000 X156.724 Y81.16
G1 F1500 E634.74757
;MESH:NONMESH
G0 F300 X156.724 Y81.16 Z19.2
G0 F15000 X157.324 Y81.16
;TIME_ELAPSED:1127.938590
;LAYER:95
;note -- min layer time used
;TYPE:WALL-OUTER
;MESH:90deg_h40_w80_t36.STL
G1 F1500 E641.24757
G1 F960.5 X77.724 Y81.16 E644.2922
G1 X77.724 Y80.76 E644.3075
G1 X156.637 Y80.76 E647.32586
G0 F2700 X157.324 Y80.76
G0 X157.324 Y81.16
G0 F15000 X156.724 Y81.16
G1 F1500 E640.82586
;MESH:NONMESH
G0 F300 X156.724 Y81.16 Z19.4
G0 F15000 X157.324 Y81.16
;TIME_ELAPSED:1138.752719
;LAYER:96
;note -- min layer time used
;TYPE:WALL-OUTER
;MESH:90deg_h40_w80_t36.STL
G1 F1500 E647.32586
G1 F960.5 X77.724 Y81.16 E650.37049
G1 X77.724 Y80.76 E650.38579
G1 X156.637 Y80.76 E653.40415
G0 F2700 X157.324 Y80.76
G0 X157.324 Y81.16
G0 F15000 X156.724 Y81.16
G1 F1500 E646.90415
;MESH:NONMESH
G0 F300 X156.724 Y81.16 Z19.6
G0 F15000 X157.324 Y81.16
;TIME_ELAPSED:1149.566848
;LAYER:97
;note -- min layer time used
;TYPE:WALL-OUTER
;MESH:90deg_h40_w80_t36.STL
G1 F1500 E653.40415
G1 F960.5 X77.724 Y81.16 E656.44878
G1 X77.724 Y80.76 E656.46408
G1 X156.637 Y80.76 E659.48243
G0 F2700 X157.324 Y80.76
G0 X157.324 Y81.16
G0 F15000 X156.724 Y81.16
G1 F1500 E652.98243
;MESH:NONMESH
G0 F300 X156.724 Y81.16 Z19.8
G0 F15000 X157.324 Y81.16
;TIME_ELAPSED:1160.380977
;LAYER:98
;note -- min layer time used
;TYPE:WALL-OUTER
;MESH:90deg_h40_w80_t36.STL
G1 F1500 E659.48243
G1 F960.5 X77.724 Y81.16 E662.52707
G1 X77.724 Y80.76 E662.54237
G1 X156.637 Y80.76 E665.56072
G0 F2700 X157.324 Y80.76
G0 X157.324 Y81.16
G0 F15000 X156.724 Y81.16
G1 F1500 E659.06072
;MESH:NONMESH
G0 F300 X156.724 Y81.16 Z20
G0 F15000 X157.324 Y81.16
;TIME_ELAPSED:1171.195106
;LAYER:99
;note -- min layer time used
;TYPE:WALL-OUTER
;MESH:90deg_h40_w80_t36.STL
G1 F1500 E665.56072
G1 F960.5 X77.724 Y81.16 E668.60536
G1 X77.724 Y80.76 E668.62066
G1 X156.637 Y80.76 E671.63901
G0 F2700 X157.324 Y80.76
G0 X157.324 Y81.16
G0 F15000 X156.724 Y81.16
G1 F1500 E665.13901
;MESH:NONMESH
G0 F300 X156.724 Y81.16 Z20.2
G0 F15000 X157.324 Y81.16
;TIME_ELAPSED:1182.009235
;LAYER:100
;note -- min layer time used
;TYPE:WALL-OUTER
;MESH:90deg_h40_w80_t36.STL
G1 F1500 E671.63901
G1 F960.5 X77.724 Y81.16 E674.68364
G1 X77.724 Y80.76 E674.69894
G1 X156.637 Y80.76 E677.7173
G0 F2700 X157.324 Y80.76
G0 X157.324 Y81.16
G0 F15000 X156.724 Y81.16
G1 F1500 E671.2173
;MESH:NONMESH
G0 F300 X156.724 Y81.16 Z20.4
G0 F15000 X157.324 Y81.16
;TIME_ELAPSED:1192.823364
;LAYER:101
;note -- min layer time used
;TYPE:WALL-OUTER
;MESH:90deg_h40_w80_t36.STL
G1 F1500 E677.7173
G1 F960.5 X77.724 Y81.16 E680.76193
G1 X77.724 Y80.76 E680.77723
G1 X156.637 Y80.76 E683.79559
G0 F2700 X157.324 Y80.76
G0 X157.324 Y81.16
G0 F15000 X156.724 Y81.16
G1 F1500 E677.29559
;MESH:NONMESH
G0 F300 X156.724 Y81.16 Z20.6
G0 F15000 X157.324 Y81.16
;TIME_ELAPSED:1203.637494
;LAYER:102
;note -- min layer time used
;TYPE:WALL-OUTER
;MESH:90deg_h40_w80_t36.STL
G1 F1500 E683.79559
G1 F960.5 X77.724 Y81.16 E686.84022
G1 X77.724 Y80.76 E686.85552
G1 X156.637 Y80.76 E689.87387
G0 F2700 X157.324 Y80.76
G0 X157.324 Y81.16
G0 F15000 X156.724 Y81.16
G1 F1500 E683.37387
;MESH:NONMESH
G0 F300 X156.724 Y81.16 Z20.8
G0 F15000 X157.324 Y81.16
;TIME_ELAPSED:1214.451623
;LAYER:103
;note -- min layer time used
;TYPE:WALL-OUTER
;MESH:90deg_h40_w80_t36.STL
G1 F1500 E689.87387
G1 F960.5 X77.724 Y81.16 E692.91851
G1 X77.724 Y80.76 E692.93381
G1 X156.637 Y80.76 E695.95216
G0 F2700 X157.324 Y80.76
G0 X157.324 Y81.16
G0 F15000 X156.724 Y81.16
G1 F1500 E689.45216
;MESH:NONMESH
G0 F300 X156.724 Y81.16 Z21
G0 F15000 X157.324 Y81.16
;TIME_ELAPSED:1225.265752
;LAYER:104
;note -- min layer time used
;TYPE:WALL-OUTER
;MESH:90deg_h40_w80_t36.STL
G1 F1500 E695.95216
G1 F960.5 X77.724 Y81.16 E698.9968
G1 X77.724 Y80.76 E699.0121
G1 X156.637 Y80.76 E702.03045
G0 F2700 X157.324 Y80.76
G0 X157.324 Y81.16
G0 F15000 X156.724 Y81.16
G1 F1500 E695.53045
;MESH:NONMESH
G0 F300 X156.724 Y81.16 Z21.2
G0 F15000 X157.324 Y81.16
;TIME_ELAPSED:1236.079881
;LAYER:105
;note -- min layer time used
;TYPE:WALL-OUTER
;MESH:90deg_h40_w80_t36.STL
G1 F1500 E702.03045
G1 F960.5 X77.724 Y81.16 E705.07508
G1 X77.724 Y80.76 E705.09038
G1 X156.637 Y80.76 E708.10874
G0 F2700 X157.324 Y80.76
G0 X157.324 Y81.16
G0 F15000 X156.724 Y81.16
G1 F1500 E701.60874
;MESH:NONMESH
G0 F300 X156.724 Y81.16 Z21.4
G0 F15000 X157.324 Y81.16
;TIME_ELAPSED:1246.894010
;LAYER:106
;note -- min layer time used
;TYPE:WALL-OUTER
;MESH:90deg_h40_w80_t36.STL
G1 F1500 E708.10874
G1 F960.5 X77.724 Y81.16 E711.15337
G1 X77.724 Y80.76 E711.16867
G1 X156.637 Y80.76 E714.18703
G0 F2700 X157.324 Y80.76
G0 X157.324 Y81.16
G0 F15000 X156.724 Y81.16
G1 F1500 E707.68703
;MESH:NONMESH
G0 F300 X156.724 Y81.16 Z21.6
G0 F15000 X157.324 Y81.16
;TIME_ELAPSED:1257.708139
;LAYER:107
;note -- min layer time used
;TYPE:WALL-OUTER
;MESH:90deg_h40_w80_t36.STL
G1 F1500 E714.18703
G1 F960.5 X77.724 Y81.16 E717.23166
G1 X77.724 Y80.76 E717.24696
G1 X156.637 Y80.76 E720.26531
G0 F2700 X157.324 Y80.76
G0 X157.324 Y81.16
G0 F15000 X156.724 Y81.16
G1 F1500 E713.76531
;MESH:NONMESH
G0 F300 X156.724 Y81.16 Z21.8
G0 F15000 X157.324 Y81.16
;TIME_ELAPSED:1268.522268
;LAYER:108
;note -- min layer time used
;TYPE:WALL-OUTER
;MESH:90deg_h40_w80_t36.STL
G1 F1500 E720.26531
G1 F960.5 X77.724 Y81.16 E723.30995
G1 X77.724 Y80.76 E723.32525
G1 X156.637 Y80.76 E726.3436
G0 F2700 X157.324 Y80.76
G0 X157.324 Y81.16
G0 F15000 X156.724 Y81.16
G1 F1500 E719.8436
;MESH:NONMESH
G0 F300 X156.724 Y81.16 Z22
G0 F15000 X157.324 Y81.16
;TIME_ELAPSED:1279.336397
;LAYER:109
;note -- min layer time used
;TYPE:WALL-OUTER
;MESH:90deg_h40_w80_t36.STL
G1 F1500 E726.3436
G1 F960.5 X77.724 Y81.16 E729.38824
G1 X77.724 Y80.76 E729.40354
G1 X156.637 Y80.76 E732.42189
G0 F2700 X157.324 Y80.76
G0 X157.324 Y81.16
G0 F15000 X156.724 Y81.16
;TIME_ELAPSED:1289.723356
G1 F1500 E725.92189
M140 S0
M107
G91 ;Relative positioning
G1 E-2 F2700 ;Retract a bit
G1 E-2 Z0.2 F2400 ;Retract and raise Z
G1 X5 Y5 F3000 ;Wipe out
G1 Z10 ;Raise Z more
G90 ;Absolute positioning

G1 X0 Y235 ;Present print
M106 S0 ;Turn-off fan
M104 S0 ;Turn-off hotend
M140 S0 ;Turn-off bed

M84 X Y E ;Disable all steppers but Z

M82 ;absolute extrusion mode
M104 S0
;End of Gcode
;SETTING_3 {"global_quality": "[general]\\nversion = 4\\nname = Standard 0.2 luc
;SETTING_3 \\ndefinition = creality_ender3\\n\\n[metadata]\\ntype = quality_chan
;SETTING_3 ges\\nquality_type = standard\\nsetting_version = 25\\n\\n[values]\\n
;SETTING_3 adhesion_type = brim\\nbridge_settings_enabled = True\\nlayer_height_
;SETTING_3 0 = 0.2\\nraft_smoothing = 2\\nretraction_combing = noskin\\nsupport_
;SETTING_3 enable = True\\nsupport_structure = tree\\nsupport_type = buildplate\
;SETTING_3 \n\\n", "extruder_quality": ["[general]\\nversion = 4\\nname = Standa
;SETTING_3 rd 0.2 luc\\ndefinition = creality_ender3\\n\\n[metadata]\\ntype = qu
;SETTING_3 ality_changes\\nquality_type = standard\\nintent_category = default\\
;SETTING_3 nposition = 0\\nsetting_version = 25\\n\\n[values]\\nalternate_extra_
;SETTING_3 perimeter = False\\nbridge_skin_material_flow = 80\\nbridge_wall_mate
;SETTING_3 rial_flow = 90\\nbrim_inside_margin = 1.5\\nbrim_width = 4.4\\ncoasti
;SETTING_3 ng_enable = True\\ncoasting_volume = 0.1\\ncool_fan_speed = 10\\nhole
;SETTING_3 _xy_offset = 0.1\\ninfill_material_flow = 145.0\\ninfill_overlap = 60
;SETTING_3 \\ninfill_pattern = cubicsubdiv\\nmaterial_print_temperature = 212\\n
;SETTING_3 raft_airgap = 0.26\\nraft_margin = 2\\nretract_at_layer_change = True
;SETTING_3 \\nretraction_hop_enabled = False\\nretraction_hop_only_when_collides
;SETTING_3  = True\\nskin_overlap = 15.0\\nspeed_infill = 45\\nspeed_print = 100
;SETTING_3 \\nsupport_bottom_enable = False\\nsupport_bottom_height = =extruderV
;SETTING_3 alue(support_bottom_extruder_nr, 'support_interface_height')\\nsuppor
;SETTING_3 t_interface_density = 65\\nsupport_interface_height = 0.6\\nsupport_i
;SETTING_3 nterface_material_flow = 105\\nsupport_interface_pattern = zigzag\\ns
;SETTING_3 upport_material_flow = 115\\nsupport_roof_enable = False\\nsupport_tr
;SETTING_3 ee_tip_diameter = 1.2\\nsupport_z_distance = 0.17\\nsupport_z_seam_aw
;SETTING_3 ay_from_model = False\\nsupport_z_seam_min_distance = 1.2\\ntop_botto
;SETTING_3 m_pattern = zigzag\\ntop_bottom_thickness = 2\\nwall_0_wipe_dist = 0.
;SETTING_3 6\\nwall_line_count = 5\\nwall_material_flow = 115\\nxy_offset_layer_
;SETTING_3 0 = -0.02\\nz_seam_corner = z_seam_corner_inner\\nz_seam_type = sharp
;SETTING_3 est_corner\\n\\n"]}
