;FLAVOR:Marlin
;TIME:866
;Filament used: 1.59704m
;Layer height: 0.4
;MINX:73.345
;MINY:76.38
;MINZ:0.4
;MAXX:161.705
;MAXY:102.809
;MAXZ:22
;TARGET_MACHINE.NAME:Creality Ender-3
;Generated with Cura_SteamEngine 5.11.0
M140 S60
M105
M190 S60
M104 S212
M105
M109 S212
; Ender 3 Custom Start G-code
G92 E0 ; Reset Extruder
G28 ; Home all axes
G1 Z2.0 F3000 ; Move Z Axis up little to prevent scratching of Heat Bed
G1 X0.1 Y20 Z0.3 F5000.0 ; Move to start position
G1 X0.1 Y200.0 Z0.3 F1500.0 E15 ; Draw the first line
G1 X0.4 Y200.0 Z0.3 F5000.0 ; Move to side a little
G1 X0.4 Y20 Z0.3 F1500.0 E30 ; Draw the second line
G92 E0 ; Reset Extruder
G1 Z2.0 F3000 ; Move Z Axis up little to prevent scratching of Heat Bed
G1 X5 Y20 Z0.3 F5000.0 ; Move over to prevent blob squish
M82 ;absolute extrusion mode
G92 E0
G92 E0
G1 F1500 E-6.5
;LAYER_COUNT:55
;LAYER:0
M107
G0 F6000 X74.168 Y78.014 Z0.4
;TYPE:SKIRT
G1 F1500 E0
G1 F1200 X75.003 Y77.236 E0.07592
G1 X76.096 Y76.584 E0.16058
G1 X77.151 Y76.41 E0.2317
G1 X157.941 Y76.38 E5.60588
G1 X158.97 Y76.633 E5.67637
G1 X160.071 Y77.203 E5.75884
G1 X160.848 Y78.037 E5.83466
G1 X161.462 Y79.07 E5.9146
G1 X161.513 Y79.214 E5.92476
G1 X161.695 Y80.435 E6.00688
G1 X161.705 Y81.777 E6.09615
G1 X161.458 Y82.793 E6.16571
G1 X160.882 Y83.906 E6.24907
G1 X160.047 Y84.684 E6.32499
G1 X158.954 Y85.336 E6.40965
G1 X157.899 Y85.51 E6.48077
G1 X77.109 Y85.54 E11.85495
G1 X76.08 Y85.287 E11.92544
G1 X74.979 Y84.717 E12.00791
G1 X74.202 Y83.883 E12.08373
G1 X73.588 Y82.85 E12.16367
G1 X73.537 Y82.706 E12.17383
G1 X73.355 Y81.485 E12.25595
G1 X73.345 Y80.143 E12.34522
G1 X73.592 Y79.127 E12.41477
G1 X74.168 Y78.014 E12.49814
G0 F6000 X74.49 Y78.261
G1 F1200 X75.245 Y77.558 E12.56676
G1 X76.236 Y76.967 E12.64352
G1 X77.216 Y76.805 E12.70959
G1 X157.895 Y76.78 E18.07638
G1 X158.827 Y77.009 E18.14022
G1 X159.824 Y77.525 E18.2149
G1 X160.527 Y78.28 E18.28352
G1 X161.118 Y79.274 E18.36045
G1 X161.295 Y80.438 E18.43877
G1 X161.305 Y81.729 E18.52465
G1 X161.08 Y82.654 E18.58797
G1 X160.56 Y83.659 E18.66324
G1 X159.805 Y84.362 E18.73187
G1 X158.814 Y84.953 E18.80862
G1 X157.834 Y85.115 E18.8747
G1 X77.155 Y85.14 E24.24149
G1 X76.223 Y84.911 E24.30533
G1 X75.226 Y84.395 E24.38
G1 X74.523 Y83.64 E24.44863
G1 X73.932 Y82.646 E24.52555
G1 X73.755 Y81.482 E24.60387
G1 X73.745 Y80.191 E24.68975
G1 X73.97 Y79.266 E24.75308
G1 X74.49 Y78.261 E24.82835
G0 F6000 X74.813 Y78.506
G1 F1200 X75.484 Y77.882 E24.8893
G1 X76.376 Y77.35 E24.95839
G1 X77.281 Y77.2 E25.01941
G1 X157.849 Y77.18 E30.37882
G1 X158.684 Y77.385 E30.43601
G1 X159.579 Y77.848 E30.50304
G1 X160.203 Y78.519 E30.56399
G1 X160.735 Y79.413 E30.6332
G1 X160.895 Y80.441 E30.7024
G1 X160.905 Y81.681 E30.78489
G1 X160.702 Y82.515 E30.84199
G1 X160.237 Y83.414 E30.90932
G1 X159.566 Y84.038 E30.97027
G1 X158.674 Y84.57 E31.03936
G1 X157.769 Y84.72 E31.10038
G1 X77.201 Y84.74 E36.45978
G1 X76.366 Y84.535 E36.51698
G1 X75.471 Y84.072 E36.58401
G1 X74.847 Y83.401 E36.64496
G1 X74.315 Y82.507 E36.71416
G1 X74.155 Y81.479 E36.78337
G1 X74.145 Y80.239 E36.86586
G1 X74.348 Y79.405 E36.92296
G1 X74.813 Y78.506 E36.99028
G0 F6000 X75.136 Y78.751
G1 F1200 X75.723 Y78.206 E37.04357
G1 X76.516 Y77.733 E37.10499
G1 X77.347 Y77.595 E37.16102
G1 X157.803 Y77.58 E42.51298
G1 X158.541 Y77.761 E42.56352
G1 X159.334 Y78.171 E42.62291
G1 X159.879 Y78.758 E42.67619
G1 X160.352 Y79.552 E42.73767
G1 X160.495 Y80.444 E42.79776
G1 X160.505 Y81.633 E42.87686
G1 X160.324 Y82.376 E42.92773
G1 X159.914 Y83.169 E42.98711
G1 X159.327 Y83.714 E43.04039
G1 X158.534 Y84.187 E43.10182
G1 X157.703 Y84.325 E43.15785
G1 X77.247 Y84.34 E48.50981
G1 X76.509 Y84.159 E48.56035
G1 X75.716 Y83.749 E48.61974
G1 X75.171 Y83.162 E48.67302
G1 X74.698 Y82.368 E48.7345
G1 X74.555 Y81.476 E48.79459
G1 X74.545 Y80.287 E48.87369
G1 X74.726 Y79.544 E48.92456
G1 X75.136 Y78.751 E48.98394
G0 F6000 X75.459 Y78.996
G1 F1200 X75.962 Y78.53 E49.02955
G1 X76.656 Y78.116 E49.08331
G1 X77.413 Y77.99 E49.13436
G1 X157.753 Y77.98 E54.4786
G1 X158.402 Y78.139 E54.52304
G1 X159.089 Y78.494 E54.57448
G1 X159.555 Y78.997 E54.6201
G1 X159.969 Y79.691 E54.67385
G1 X160.095 Y80.448 E54.7249
G1 X160.105 Y81.585 E54.80054
G1 X159.946 Y82.237 E54.84518
G1 X159.591 Y82.924 E54.89662
G1 X159.088 Y83.39 E54.94223
G1 X158.394 Y83.804 E54.99599
G1 X157.637 Y83.93 E55.04704
G1 X77.297 Y83.94 E60.39127
G1 X76.648 Y83.781 E60.43572
G1 X75.961 Y83.426 E60.48716
G1 X75.495 Y82.923 E60.53277
G1 X75.081 Y82.229 E60.58653
G1 X74.955 Y81.472 E60.63758
G1 X74.945 Y80.335 E60.71321
G1 X75.104 Y79.683 E60.75786
G1 X75.459 Y78.996 E60.8093
G0 F6000 X75.782 Y79.242
G1 F1200 X76.201 Y78.854 E60.84728
G1 X76.796 Y78.499 E60.89337
G1 X77.479 Y78.385 E60.93944
G1 X157.703 Y78.38 E66.27596
G1 X158.263 Y78.517 E66.31431
G1 X158.843 Y78.817 E66.35774
G1 X159.231 Y79.236 E66.39573
G1 X159.586 Y79.831 E66.44182
G1 X159.7 Y80.514 E66.48788
G1 X159.705 Y81.537 E66.55593
G1 X159.568 Y82.098 E66.59435
G1 X159.268 Y82.678 E66.63778
G1 X158.849 Y83.066 E66.67577
G1 X158.254 Y83.421 E66.72186
G1 X157.571 Y83.535 E66.76792
G1 X77.347 Y83.54 E72.10444
G1 X76.787 Y83.403 E72.14279
G1 X76.207 Y83.103 E72.18623
G1 X75.819 Y82.684 E72.22422
G1 X75.464 Y82.089 E72.27031
G1 X75.35 Y81.406 E72.31637
G1 X75.345 Y80.383 E72.38442
G1 X75.482 Y79.822 E72.42284
G1 X75.782 Y79.242 E72.46627
G0 F6000 X76.105 Y79.488
G1 F1200 X75.86 Y79.961 E72.50171
G1 X75.745 Y80.432 E72.53396
G1 X75.745 Y81.34 E72.59436
G1 X75.847 Y81.951 E72.63556
G1 X76.14 Y82.442 E72.6736
G1 X76.453 Y82.78 E72.70424
G1 X76.926 Y83.025 E72.73968
G1 X77.397 Y83.14 E72.77193
G1 X157.505 Y83.14 E78.10074
G1 X158.116 Y83.038 E78.14194
G1 X158.607 Y82.745 E78.17998
G1 X158.945 Y82.432 E78.21062
G1 X159.19 Y81.959 E78.24605
G1 X159.305 Y81.488 E78.27831
G1 X159.305 Y80.58 E78.33871
G1 X159.203 Y79.969 E78.37991
G1 X158.91 Y79.478 E78.41795
G1 X158.597 Y79.14 E78.44859
G1 X158.124 Y78.895 E78.48403
G1 X157.653 Y78.78 E78.51628
G1 X77.545 Y78.78 E83.84508
G1 X76.934 Y78.882 E83.88629
G1 X76.443 Y79.175 E83.92432
G1 X76.105 Y79.488 E83.95497
G0 F6000 X76.428 Y79.734
G1 F1200 X76.238 Y80.1 E83.9824
G1 X76.145 Y80.482 E84.00855
G1 X76.145 Y81.34 E84.06563
G1 X76.23 Y81.813 E84.09759
G1 X76.461 Y82.2 E84.12757
G1 X76.699 Y82.457 E84.15088
G1 X77.065 Y82.647 E84.17831
G1 X77.447 Y82.74 E84.20446
G1 X157.505 Y82.74 E89.52994
G1 X157.978 Y82.655 E89.56191
G1 X158.365 Y82.424 E89.59189
G1 X158.622 Y82.186 E89.61519
G1 X158.812 Y81.82 E89.64262
G1 X158.905 Y81.438 E89.66877
G1 X158.905 Y80.58 E89.72585
G1 X158.82 Y80.107 E89.75782
G1 X158.589 Y79.72 E89.7878
G1 X158.351 Y79.463 E89.8111
G1 X157.985 Y79.273 E89.83853
G1 X157.603 Y79.18 E89.86468
G1 X77.545 Y79.18 E95.19016
G1 X77.072 Y79.265 E95.22213
G1 X76.685 Y79.496 E95.25211
G1 X76.428 Y79.734 E95.27541
G0 F6000 X76.752 Y79.979
G1 F1200 X76.615 Y80.242 E95.29514
G1 X76.545 Y80.531 E95.31492
G1 X76.545 Y81.34 E95.36873
G1 X76.61 Y81.668 E95.39097
G1 X76.805 Y81.995 E95.4163
G1 X76.944 Y82.133 E95.42933
G1 X77.207 Y82.27 E95.44906
G1 X77.496 Y82.34 E95.46884
G1 X157.505 Y82.34 E100.79106
G1 X157.833 Y82.275 E100.8133
G1 X158.16 Y82.08 E100.83863
G1 X158.298 Y81.941 E100.85165
G1 X158.435 Y81.678 E100.87138
G1 X158.505 Y81.389 E100.89116
G1 X158.505 Y80.58 E100.94498
G1 X158.44 Y80.252 E100.96722
G1 X158.245 Y79.925 E100.99255
G1 X158.106 Y79.787 E101.00557
G1 X157.843 Y79.65 E101.0253
G1 X157.554 Y79.58 E101.04508
G1 X77.545 Y79.58 E106.3673
G1 X77.217 Y79.645 E106.38954
G1 X76.89 Y79.84 E106.41487
G1 X76.752 Y79.979 E106.4279
G0 F6000 X77.384 Y80.461
G1 F1200 X77.545 Y80.38 E106.43989
G1 X157.505 Y80.38 E111.75885
G1 X157.624 Y80.419 E111.76718
G1 X157.705 Y80.58 E111.77917
G1 X157.705 Y81.34 E111.82972
G1 X157.666 Y81.459 E111.83805
G1 X157.505 Y81.54 E111.85004
G1 X77.545 Y81.54 E117.169
G1 X77.426 Y81.501 E117.17733
G1 X77.345 Y81.34 E117.18932
G1 X77.345 Y80.58 E117.23988
G1 X77.384 Y80.461 E117.24821
G0 F6000 X77.004 Y80.336
G1 F1200 X76.945 Y80.58 E117.26491
G1 X76.945 Y81.34 E117.31546
G1 X76.988 Y81.52 E117.32777
G1 X77.149 Y81.79 E117.34868
G1 X77.301 Y81.881 E117.36047
G1 X77.545 Y81.94 E117.37717
G1 X157.505 Y81.94 E122.69613
G1 X157.685 Y81.897 E122.70844
G1 X157.955 Y81.736 E122.72935
G1 X158.046 Y81.584 E122.74113
G1 X158.105 Y81.34 E122.75783
G1 X158.105 Y80.58 E122.80839
G1 X158.062 Y80.4 E122.8207
G1 X157.901 Y80.13 E122.84161
G1 X157.749 Y80.039 E122.85339
G1 X157.505 Y79.98 E122.87009
G1 X77.545 Y79.98 E128.18905
G1 X77.365 Y80.023 E128.20136
G1 X77.095 Y80.184 E128.22228
G1 X77.004 Y80.336 E128.23406
G1 F1500 E121.73406
G0 F6000 X76.88 Y80.336
G0 X77.151 Y93.679
G1 F1500 E128.23406
G1 F1200 X157.941 Y93.649 E133.60823
G1 X158.97 Y93.902 E133.67872
G1 X160.071 Y94.472 E133.76119
G1 X160.848 Y95.306 E133.83702
G1 X161.462 Y96.339 E133.91695
G1 X161.513 Y96.483 E133.92712
G1 X161.695 Y97.704 E134.00924
G1 X161.705 Y99.046 E134.09851
G1 X161.458 Y100.062 E134.16806
G1 X160.882 Y101.175 E134.25143
G1 X160.047 Y101.953 E134.32734
G1 X158.954 Y102.605 E134.412
G1 X157.899 Y102.779 E134.48313
G1 X77.109 Y102.809 E139.8573
G1 X76.08 Y102.556 E139.92779
G1 X74.979 Y101.986 E140.01026
G1 X74.202 Y101.152 E140.08609
G1 X73.588 Y100.119 E140.16602
G1 X73.537 Y99.975 E140.17619
G1 X73.355 Y98.754 E140.2583
G1 X73.345 Y97.412 E140.34758
G1 X73.592 Y96.396 E140.41713
G1 X74.168 Y95.283 E140.50049
G1 X75.003 Y94.505 E140.57641
G1 X76.096 Y93.853 E140.66107
G1 X77.151 Y93.679 E140.7322
G0 F6000 X77.216 Y94.074
G1 F1200 X157.895 Y94.049 E146.09899
G1 X158.827 Y94.278 E146.16283
G1 X159.824 Y94.794 E146.23751
G1 X160.527 Y95.549 E146.30613
G1 X161.118 Y96.543 E146.38306
G1 X161.295 Y97.707 E146.46138
G1 X161.305 Y98.998 E146.54726
G1 X161.08 Y99.923 E146.61058
G1 X160.56 Y100.928 E146.68585
G1 X159.805 Y101.631 E146.75448
G1 X158.814 Y102.222 E146.83123
G1 X157.834 Y102.384 E146.8973
G1 X77.155 Y102.409 E152.26409
G1 X76.223 Y102.18 E152.32793
G1 X75.226 Y101.664 E152.40261
G1 X74.523 Y100.909 E152.47123
G1 X73.932 Y99.915 E152.54816
G1 X73.755 Y98.751 E152.62648
G1 X73.745 Y97.46 E152.71236
G1 X73.97 Y96.535 E152.77569
G1 X74.49 Y95.53 E152.85096
G1 X75.245 Y94.827 E152.91958
G1 X76.236 Y94.236 E152.99634
G1 X77.216 Y94.074 E153.06241
G0 F6000 X77.281 Y94.469
G1 F1200 X157.849 Y94.449 E158.42181
G1 X158.684 Y94.654 E158.47901
G1 X159.579 Y95.117 E158.54604
G1 X160.203 Y95.788 E158.60699
G1 X160.735 Y96.682 E158.67619
G1 X160.895 Y97.71 E158.7454
G1 X160.905 Y98.95 E158.82789
G1 X160.702 Y99.784 E158.88499
G1 X160.237 Y100.683 E158.95231
G1 X159.566 Y101.307 E159.01327
G1 X158.674 Y101.839 E159.08235
G1 X157.769 Y101.989 E159.14338
G1 X77.201 Y102.009 E164.50278
G1 X76.366 Y101.804 E164.55998
G1 X75.471 Y101.341 E164.62701
G1 X74.847 Y100.67 E164.68796
G1 X74.315 Y99.776 E164.75716
G1 X74.155 Y98.748 E164.82637
G1 X74.145 Y97.508 E164.90886
G1 X74.348 Y96.674 E164.96595
G1 X74.813 Y95.775 E165.03328
G1 X75.484 Y95.151 E165.09423
G1 X76.376 Y94.619 E165.16332
G1 X77.281 Y94.469 E165.22434
G0 F6000 X77.347 Y94.864
G1 F1200 X157.803 Y94.849 E170.5763
G1 X158.541 Y95.03 E170.62685
G1 X159.334 Y95.44 E170.68623
G1 X159.879 Y96.027 E170.73951
G1 X160.352 Y96.821 E170.80099
G1 X160.495 Y97.713 E170.86108
G1 X160.505 Y98.902 E170.94018
G1 X160.324 Y99.645 E170.99105
G1 X159.914 Y100.438 E171.05043
G1 X159.327 Y100.983 E171.10372
G1 X158.534 Y101.456 E171.16514
G1 X157.703 Y101.594 E171.22117
G1 X77.247 Y101.609 E176.57313
G1 X76.509 Y101.428 E176.62367
G1 X75.716 Y101.018 E176.68306
G1 X75.171 Y100.431 E176.73634
G1 X74.698 Y99.637 E176.79782
G1 X74.555 Y98.745 E176.85791
G1 X74.545 Y97.556 E176.93701
G1 X74.726 Y96.813 E176.98788
G1 X75.136 Y96.02 E177.04726
G1 X75.723 Y95.475 E177.10055
G1 X76.516 Y95.002 E177.16197
G1 X77.347 Y94.864 E177.218
G0 F6000 X77.413 Y95.259
G1 F1200 X157.753 Y95.249 E182.56224
G1 X158.402 Y95.408 E182.60669
G1 X159.089 Y95.763 E182.65813
G1 X159.555 Y96.266 E182.70374
G1 X159.969 Y96.96 E182.7575
G1 X160.095 Y97.717 E182.80855
G1 X160.105 Y98.854 E182.88418
G1 X159.946 Y99.506 E182.92882
G1 X159.591 Y100.193 E182.98026
G1 X159.088 Y100.659 E183.02588
G1 X158.394 Y101.073 E183.07963
G1 X157.637 Y101.199 E183.13068
G1 X77.297 Y101.209 E188.47492
G1 X76.648 Y101.05 E188.51937
G1 X75.961 Y100.695 E188.57081
G1 X75.495 Y100.192 E188.61642
G1 X75.081 Y99.498 E188.67017
G1 X74.955 Y98.741 E188.72122
G1 X74.945 Y97.604 E188.79686
G1 X75.104 Y96.952 E188.8415
G1 X75.459 Y96.265 E188.89294
G1 X75.962 Y95.799 E188.93855
G1 X76.656 Y95.385 E188.99231
G1 X77.413 Y95.259 E189.04336
G0 F6000 X77.479 Y95.654
G1 F1200 X157.703 Y95.649 E194.37988
G1 X158.263 Y95.786 E194.41823
G1 X158.843 Y96.086 E194.46167
G1 X159.231 Y96.505 E194.49965
G1 X159.586 Y97.1 E194.54574
G1 X159.7 Y97.783 E194.59181
G1 X159.705 Y98.806 E194.65986
G1 X159.568 Y99.367 E194.69827
G1 X159.268 Y99.947 E194.74171
G1 X158.849 Y100.335 E194.77969
G1 X158.254 Y100.69 E194.82578
G1 X157.571 Y100.804 E194.87185
G1 X77.347 Y100.809 E200.20837
G1 X76.787 Y100.672 E200.24672
G1 X76.207 Y100.372 E200.29016
G1 X75.819 Y99.953 E200.32814
G1 X75.464 Y99.358 E200.37423
G1 X75.35 Y98.675 E200.42029
G1 X75.345 Y97.652 E200.48834
G1 X75.482 Y97.091 E200.52676
G1 X75.782 Y96.511 E200.5702
G1 X76.201 Y96.123 E200.60818
G1 X76.796 Y95.768 E200.65427
G1 X77.479 Y95.654 E200.70033
G0 F6000 X77.545 Y96.049
G1 F1200 X157.653 Y96.049 E206.02914
G1 X158.124 Y96.164 E206.06139
G1 X158.597 Y96.409 E206.09682
G1 X158.91 Y96.747 E206.12747
G1 X159.203 Y97.238 E206.1655
G1 X159.305 Y97.849 E206.20671
G1 X159.305 Y98.757 E206.26711
G1 X159.19 Y99.228 E206.29936
G1 X158.945 Y99.701 E206.3348
G1 X158.607 Y100.014 E206.36544
G1 X158.116 Y100.307 E206.40347
G1 X157.505 Y100.409 E206.44468
G1 X77.397 Y100.409 E211.77349
G1 X76.926 Y100.294 E211.80574
G1 X76.453 Y100.049 E211.84117
G1 X76.14 Y99.711 E211.87182
G1 X75.847 Y99.22 E211.90985
G1 X75.745 Y98.609 E211.95106
G1 X75.745 Y97.701 E212.01146
G1 X75.86 Y97.23 E212.04371
G1 X76.105 Y96.757 E212.07914
G1 X76.443 Y96.444 E212.10979
G1 X76.934 Y96.151 E212.14782
G1 X77.545 Y96.049 E212.18903
G0 F6000 X77.545 Y96.449
G1 F1200 X157.603 Y96.449 E217.51451
G1 X157.985 Y96.542 E217.54066
G1 X158.351 Y96.732 E217.56809
G1 X158.589 Y96.989 E217.59139
G1 X158.82 Y97.376 E217.62137
G1 X158.905 Y97.849 E217.65334
G1 X158.905 Y98.707 E217.71042
G1 X158.812 Y99.089 E217.73657
G1 X158.622 Y99.455 E217.764
G1 X158.365 Y99.693 E217.7873
G1 X157.978 Y99.924 E217.81728
G1 X157.505 Y100.009 E217.84925
G1 X77.447 Y100.009 E223.17473
G1 X77.065 Y99.916 E223.20088
G1 X76.699 Y99.726 E223.22831
G1 X76.461 Y99.469 E223.25161
G1 X76.23 Y99.082 E223.28159
G1 X76.145 Y98.609 E223.31356
G1 X76.145 Y97.751 E223.37064
G1 X76.238 Y97.369 E223.39679
G1 X76.428 Y97.003 E223.42422
G1 X76.685 Y96.765 E223.44752
G1 X77.072 Y96.534 E223.4775
G1 X77.545 Y96.449 E223.50947
G0 F6000 X77.545 Y96.849
G1 F1200 X77.217 Y96.914 E223.53171
G1 X76.89 Y97.109 E223.55704
G1 X76.752 Y97.248 E223.57007
G1 X76.615 Y97.511 E223.5898
G1 X76.545 Y97.8 E223.60958
G1 X76.545 Y98.609 E223.66339
G1 X76.61 Y98.937 E223.68563
G1 X76.805 Y99.264 E223.71096
G1 X76.944 Y99.402 E223.72399
G1 X77.207 Y99.539 E223.74372
G1 X77.496 Y99.609 E223.7635
G1 X157.505 Y99.609 E229.08572
G1 X157.833 Y99.544 E229.10796
G1 X158.16 Y99.349 E229.13328
G1 X158.298 Y99.21 E229.14631
G1 X158.435 Y98.947 E229.16604
G1 X158.505 Y98.658 E229.18582
G1 X158.505 Y97.849 E229.23964
G1 X158.44 Y97.521 E229.26188
G1 X158.245 Y97.194 E229.2872
G1 X158.106 Y97.056 E229.30023
G1 X157.843 Y96.919 E229.31996
G1 X157.554 Y96.849 E229.33974
G1 X77.545 Y96.849 E234.66196
G0 F6000 X77.545 Y97.649
G1 F1200 X157.505 Y97.649 E239.98092
G1 X157.624 Y97.688 E239.98925
G1 X157.705 Y97.849 E240.00124
G1 X157.705 Y98.609 E240.0518
G1 X157.666 Y98.728 E240.06013
G1 X157.505 Y98.809 E240.07211
G1 X77.545 Y98.809 E245.39108
G1 X77.426 Y98.77 E245.39941
G1 X77.345 Y98.609 E245.41139
G1 X77.345 Y97.849 E245.46195
G1 X77.384 Y97.73 E245.47028
G1 X77.545 Y97.649 E245.48227
G0 F6000 X77.365 Y97.292
G1 F1200 X77.545 Y97.249 E245.49458
G1 X157.505 Y97.249 E250.81354
G1 X157.749 Y97.308 E250.83024
G1 X157.901 Y97.399 E250.84202
G1 X158.062 Y97.669 E250.86293
G1 X158.105 Y97.849 E250.87525
G1 X158.105 Y98.609 E250.9258
G1 X158.046 Y98.853 E250.9425
G1 X157.955 Y99.005 E250.95428
G1 X157.685 Y99.166 E250.9752
G1 X157.505 Y99.209 E250.98751
G1 X77.545 Y99.209 E256.30647
G1 X77.301 Y99.15 E256.32317
G1 X77.149 Y99.059 E256.33495
G1 X76.988 Y98.789 E256.35586
G1 X76.945 Y98.609 E256.36817
G1 X76.945 Y97.849 E256.41873
G1 X77.004 Y97.605 E256.43543
G1 X77.095 Y97.453 E256.44721
G1 X77.365 Y97.292 E256.46812
G1 F1500 E249.96812
;MESH:90deg_h40_w80_t36.STL
G0 F6000 X77.365 Y97.184
G0 X157.314 Y82.005
G0 X157.314 Y81.15
;TYPE:WALL-OUTER
G1 F1500 E256.46812
G1 F1263.2 X77.734 Y81.15 E262.25147
G1 X77.734 Y80.77 E262.27909
G1 X157.151 Y80.77 E268.05059
G0 F1080 X157.314 Y80.77
G0 X157.314 Y81.15
G0 F6000 X156.714 Y81.15
G1 F1500 E261.55059
;MESH:90deg_h40_w80_t36.STL(1)
G0 F6000 X156.714 Y82.005
G0 X158.158 Y97.196
G0 X158.17 Y98.418
G0 X157.314 Y98.418
G1 F1500 E268.05059
G1 F1263.2 X77.734 Y98.418 E273.83394
G1 X77.734 Y98.038 E273.86155
G1 X157.151 Y98.038 E279.63306
G0 F1080 X157.314 Y98.038
G0 X157.314 Y98.418
G0 F6000 X156.714 Y98.418
G1 F1500 E273.13306
;MESH:NONMESH
G0 F300 X156.714 Y98.418 Z0.8
G0 F6000 X156.714 Y97.184
G0 X157.324 Y82.005
G0 X157.324 Y81.16
;TIME_ELAPSED:218.319799
;LAYER:1
;note -- min layer time used
M106 S8.5
;TYPE:WALL-OUTER
;MESH:90deg_h40_w80_t36.STL
G1 F1500 E279.63306
G1 F2014.6 X77.724 Y81.16 E285.72232
G1 X77.724 Y80.76 E285.75292
G1 X157.181 Y80.76 E291.83125
G0 F1890 X157.324 Y80.76
G0 X157.324 Y81.16
G0 F10500 X156.724 Y81.16
G1 F1500 E285.33125
;MESH:90deg_h40_w80_t36.STL(1)
G0 F10500 X156.724 Y82.025
G0 X158.178 Y97.176
G0 X158.19 Y98.428
G0 X157.324 Y98.428
G1 F1500 E291.83125
G1 F2014.6 X77.724 Y98.428 E297.92051
G1 X77.724 Y98.028 E297.95111
G1 X157.181 Y98.028 E304.02944
G0 F1890 X157.324 Y98.028
G0 X157.324 Y98.428
G0 F10500 X156.724 Y98.428
G1 F1500 E297.52944
;MESH:NONMESH
G0 F300 X156.724 Y98.428 Z1.2
G0 F10500 X156.724 Y97.164
G0 X157.324 Y82.025
G0 X157.324 Y81.16
;TIME_ELAPSED:230.264215
;LAYER:2
;note -- min layer time used
M106 S17
;TYPE:WALL-OUTER
;MESH:90deg_h40_w80_t36.STL
G1 F1500 E304.02944
G1 F2001.4 X77.724 Y81.16 E310.1187
G1 X77.724 Y80.76 E310.1493
G1 X157.181 Y80.76 E316.22763
G0 F2700 X157.324 Y80.76
G0 X157.324 Y81.16
G0 F15000 X156.724 Y81.16
G1 F1500 E309.72763
;MESH:90deg_h40_w80_t36.STL(1)
G0 F15000 X156.724 Y82.025
G0 X158.178 Y97.176
G0 X158.19 Y98.428
G0 X157.324 Y98.428
G1 F1500 E316.22763
G1 F2001.4 X77.724 Y98.428 E322.3169
G1 X77.724 Y98.028 E322.3475
G1 X157.181 Y98.028 E328.42582
G0 F2700 X157.324 Y98.028
G0 X157.324 Y98.428
G0 F15000 X156.724 Y98.428
G1 F1500 E321.92582
;MESH:NONMESH
G0 F300 X156.724 Y98.428 Z1.6
G0 F15000 X156.724 Y97.164
G0 X157.324 Y82.025
G0 X157.324 Y81.16
;TIME_ELAPSED:242.274648
;LAYER:3
;note -- min layer time used
M106 S25.5
;TYPE:WALL-OUTER
;MESH:90deg_h40_w80_t36.STL
G1 F1500 E328.42582
G1 F2001.4 X77.724 Y81.16 E334.51509
G1 X77.724 Y80.76 E334.54569
G1 X157.181 Y80.76 E340.62401
G0 F2700 X157.324 Y80.76
G0 X157.324 Y81.16
G0 F15000 X156.724 Y81.16
G1 F1500 E334.12401
;MESH:90deg_h40_w80_t36.STL(1)
G0 F15000 X156.724 Y82.025
G0 X158.178 Y97.176
G0 X158.19 Y98.428
G0 X157.324 Y98.428
G1 F1500 E340.62401
G1 F2001.4 X77.724 Y98.428 E346.71328
G1 X77.724 Y98.028 E346.74388
G1 X157.181 Y98.028 E352.8222
G0 F2700 X157.324 Y98.028
G0 X157.324 Y98.428
G0 F15000 X156.724 Y98.428
G1 F1500 E346.3222
;MESH:NONMESH
G0 F300 X156.724 Y98.428 Z2
G0 F15000 X156.724 Y97.164
G0 X157.324 Y82.025
G0 X157.324 Y81.16
;TIME_ELAPSED:254.285081
;LAYER:4
;note -- min layer time used
;TYPE:WALL-OUTER
;MESH:90deg_h40_w80_t36.STL
G1 F1500 E352.8222
G1 F2001.4 X77.724 Y81.16 E358.91147
G1 X77.724 Y80.76 E358.94207
G1 X157.181 Y80.76 E365.02039
G0 F2700 X157.324 Y80.76
G0 X157.324 Y81.16
G0 F15000 X156.724 Y81.16
G1 F1500 E358.52039
;MESH:90deg_h40_w80_t36.STL(1)
G0 F15000 X156.724 Y82.025
G0 X158.178 Y97.176
G0 X158.19 Y98.428
G0 X157.324 Y98.428
G1 F1500 E365.02039
G1 F2001.4 X77.724 Y98.428 E371.10966
G1 X77.724 Y98.028 E371.14026
G1 X157.181 Y98.028 E377.21859
G0 F2700 X157.324 Y98.028
G0 X157.324 Y98.428
G0 F15000 X156.724 Y98.428
G1 F1500 E370.71859
;MESH:NONMESH
G0 F300 X156.724 Y98.428 Z2.4
G0 F15000 X156.724 Y97.164
G0 X157.324 Y82.025
G0 X157.324 Y81.16
;TIME_ELAPSED:266.295514
;LAYER:5
;note -- min layer time used
;TYPE:WALL-OUTER
;MESH:90deg_h40_w80_t36.STL
G1 F1500 E377.21859
G1 F2001.4 X77.724 Y81.16 E383.30785
G1 X77.724 Y80.76 E383.33845
G1 X157.181 Y80.76 E389.41678
G0 F2700 X157.324 Y80.76
G0 X157.324 Y81.16
G0 F15000 X156.724 Y81.16
G1 F1500 E382.91678
;MESH:90deg_h40_w80_t36.STL(1)
G0 F15000 X156.724 Y82.025
G0 X158.178 Y97.176
G0 X158.19 Y98.428
G0 X157.324 Y98.428
G1 F1500 E389.41678
G1 F2001.4 X77.724 Y98.428 E395.50604
G1 X77.724 Y98.028 E395.53664
G1 X157.181 Y98.028 E401.61497
G0 F2700 X157.324 Y98.028
G0 X157.324 Y98.428
G0 F15000 X156.724 Y98.428
G1 F1500 E395.11497
;MESH:NONMESH
G0 F300 X156.724 Y98.428 Z2.8
G0 F15000 X156.724 Y97.164
G0 X157.324 Y82.025
G0 X157.324 Y81.16
;TIME_ELAPSED:278.305947
;LAYER:6
;note -- min layer time used
;TYPE:WALL-OUTER
;MESH:90deg_h40_w80_t36.STL
G1 F1500 E401.61497
G1 F2001.4 X77.724 Y81.16 E407.70423
G1 X77.724 Y80.76 E407.73483
G1 X157.181 Y80.76 E413.81316
G0 F2700 X157.324 Y80.76
G0 X157.324 Y81.16
G0 F15000 X156.724 Y81.16
G1 F1500 E407.31316
;MESH:90deg_h40_w80_t36.STL(1)
G0 F15000 X156.724 Y82.025
G0 X158.178 Y97.176
G0 X158.19 Y98.428
G0 X157.324 Y98.428
G1 F1500 E413.81316
G1 F2001.4 X77.724 Y98.428 E419.90242
G1 X77.724 Y98.028 E419.93302
G1 X157.181 Y98.028 E426.01135
G0 F2700 X157.324 Y98.028
G0 X157.324 Y98.428
G0 F15000 X156.724 Y98.428
G1 F1500 E419.51135
;MESH:NONMESH
G0 F300 X156.724 Y98.428 Z3.2
G0 F15000 X156.724 Y97.164
G0 X157.324 Y82.025
G0 X157.324 Y81.16
;TIME_ELAPSED:290.316380
;LAYER:7
;note -- min layer time used
;TYPE:WALL-OUTER
;MESH:90deg_h40_w80_t36.STL
G1 F1500 E426.01135
G1 F2001.4 X77.724 Y81.16 E432.10062
G1 X77.724 Y80.76 E432.13122
G1 X157.181 Y80.76 E438.20954
G0 F2700 X157.324 Y80.76
G0 X157.324 Y81.16
G0 F15000 X156.724 Y81.16
G1 F1500 E431.70954
;MESH:90deg_h40_w80_t36.STL(1)
G0 F15000 X156.724 Y82.025
G0 X158.178 Y97.176
G0 X158.19 Y98.428
G0 X157.324 Y98.428
G1 F1500 E438.20954
G1 F2001.4 X77.724 Y98.428 E444.29881
G1 X77.724 Y98.028 E444.32941
G1 X157.181 Y98.028 E450.40773
G0 F2700 X157.324 Y98.028
G0 X157.324 Y98.428
G0 F15000 X156.724 Y98.428
G1 F1500 E443.90773
;MESH:NONMESH
G0 F300 X156.724 Y98.428 Z3.6
G0 F15000 X156.724 Y97.164
G0 X157.324 Y82.025
G0 X157.324 Y81.16
;TIME_ELAPSED:302.326813
;LAYER:8
;note -- min layer time used
;TYPE:WALL-OUTER
;MESH:90deg_h40_w80_t36.STL
G1 F1500 E450.40773
G1 F2001.4 X77.724 Y81.16 E456.497
G1 X77.724 Y80.76 E456.5276
G1 X157.181 Y80.76 E462.60592
G0 F2700 X157.324 Y80.76
G0 X157.324 Y81.16
G0 F15000 X156.724 Y81.16
G1 F1500 E456.10592
;MESH:90deg_h40_w80_t36.STL(1)
G0 F15000 X156.724 Y82.025
G0 X158.178 Y97.176
G0 X158.19 Y98.428
G0 X157.324 Y98.428
G1 F1500 E462.60592
G1 F2001.4 X77.724 Y98.428 E468.69519
G1 X77.724 Y98.028 E468.72579
G1 X157.181 Y98.028 E474.80411
G0 F2700 X157.324 Y98.028
G0 X157.324 Y98.428
G0 F15000 X156.724 Y98.428
G1 F1500 E468.30411
;MESH:NONMESH
G0 F300 X156.724 Y98.428 Z4
G0 F15000 X156.724 Y97.164
G0 X157.324 Y82.025
G0 X157.324 Y81.16
;TIME_ELAPSED:314.337246
;LAYER:9
;note -- min layer time used
;TYPE:WALL-OUTER
;MESH:90deg_h40_w80_t36.STL
G1 F1500 E474.80411
G1 F2001.4 X77.724 Y81.16 E480.89338
G1 X77.724 Y80.76 E480.92398
G1 X157.181 Y80.76 E487.00231
G0 F2700 X157.324 Y80.76
G0 X157.324 Y81.16
G0 F15000 X156.724 Y81.16
G1 F1500 E480.50231
;MESH:90deg_h40_w80_t36.STL(1)
G0 F15000 X156.724 Y82.025
G0 X158.178 Y97.176
G0 X158.19 Y98.428
G0 X157.324 Y98.428
G1 F1500 E487.00231
G1 F2001.4 X77.724 Y98.428 E493.09157
G1 X77.724 Y98.028 E493.12217
G1 X157.181 Y98.028 E499.2005
G0 F2700 X157.324 Y98.028
G0 X157.324 Y98.428
G0 F15000 X156.724 Y98.428
G1 F1500 E492.7005
;MESH:NONMESH
G0 F300 X156.724 Y98.428 Z4.4
G0 F15000 X156.724 Y97.164
G0 X157.324 Y82.025
G0 X157.324 Y81.16
;TIME_ELAPSED:326.347679
;LAYER:10
;note -- min layer time used
;TYPE:WALL-OUTER
;MESH:90deg_h40_w80_t36.STL
G1 F1500 E499.2005
G1 F2001.4 X77.724 Y81.16 E505.28976
G1 X77.724 Y80.76 E505.32036
G1 X157.181 Y80.76 E511.39869
G0 F2700 X157.324 Y80.76
G0 X157.324 Y81.16
G0 F15000 X156.724 Y81.16
G1 F1500 E504.89869
;MESH:90deg_h40_w80_t36.STL(1)
G0 F15000 X156.724 Y82.025
G0 X158.178 Y97.176
G0 X158.19 Y98.428
G0 X157.324 Y98.428
G1 F1500 E511.39869
G1 F2001.4 X77.724 Y98.428 E517.48795
G1 X77.724 Y98.028 E517.51855
G1 X157.181 Y98.028 E523.59688
G0 F2700 X157.324 Y98.028
G0 X157.324 Y98.428
G0 F15000 X156.724 Y98.428
G1 F1500 E517.09688
;MESH:NONMESH
G0 F300 X156.724 Y98.428 Z4.8
G0 F15000 X156.724 Y97.164
G0 X157.324 Y82.025
G0 X157.324 Y81.16
;TIME_ELAPSED:338.358112
;LAYER:11
;note -- min layer time used
;TYPE:WALL-OUTER
;MESH:90deg_h40_w80_t36.STL
G1 F1500 E523.59688
G1 F2001.4 X77.724 Y81.16 E529.68614
G1 X77.724 Y80.76 E529.71674
G1 X157.181 Y80.76 E535.79507
G0 F2700 X157.324 Y80.76
G0 X157.324 Y81.16
G0 F15000 X156.724 Y81.16
G1 F1500 E529.29507
;MESH:90deg_h40_w80_t36.STL(1)
G0 F15000 X156.724 Y82.025
G0 X158.178 Y97.176
G0 X158.19 Y98.428
G0 X157.324 Y98.428
G1 F1500 E535.79507
G1 F2001.4 X77.724 Y98.428 E541.88434
G1 X77.724 Y98.028 E541.91494
G1 X157.181 Y98.028 E547.99326
G0 F2700 X157.324 Y98.028
G0 X157.324 Y98.428
G0 F15000 X156.724 Y98.428
G1 F1500 E541.49326
;MESH:NONMESH
G0 F300 X156.724 Y98.428 Z5.2
G0 F15000 X156.724 Y97.164
G0 X157.324 Y82.025
G0 X157.324 Y81.16
;TIME_ELAPSED:350.368545
;LAYER:12
;note -- min layer time used
;TYPE:WALL-OUTER
;MESH:90deg_h40_w80_t36.STL
G1 F1500 E547.99326
G1 F2001.4 X77.724 Y81.16 E554.08253
G1 X77.724 Y80.76 E554.11313
G1 X157.181 Y80.76 E560.19145
G0 F2700 X157.324 Y80.76
G0 X157.324 Y81.16
G0 F15000 X156.724 Y81.16
G1 F1500 E553.69145
;MESH:90deg_h40_w80_t36.STL(1)
G0 F15000 X156.724 Y82.025
G0 X158.178 Y97.176
G0 X158.19 Y98.428
G0 X157.324 Y98.428
G1 F1500 E560.19145
G1 F2001.4 X77.724 Y98.428 E566.28072
G1 X77.724 Y98.028 E566.31132
G1 X157.181 Y98.028 E572.38964
G0 F2700 X157.324 Y98.028
G0 X157.324 Y98.428
G0 F15000 X156.724 Y98.428
G1 F1500 E565.88964
;MESH:NONMESH
G0 F300 X156.724 Y98.428 Z5.6
G0 F15000 X156.724 Y97.164
G0 X157.324 Y82.025
G0 X157.324 Y81.16
;TIME_ELAPSED:362.378978
;LAYER:13
;note -- min layer time used
;TYPE:WALL-OUTER
;MESH:90deg_h40_w80_t36.STL
G1 F1500 E572.38964
G1 F2001.4 X77.724 Y81.16 E578.47891
G1 X77.724 Y80.76 E578.50951
G1 X157.181 Y80.76 E584.58783
G0 F2700 X157.324 Y80.76
G0 X157.324 Y81.16
G0 F15000 X156.724 Y81.16
G1 F1500 E578.08783
;MESH:90deg_h40_w80_t36.STL(1)
G0 F15000 X156.724 Y82.025
G0 X158.178 Y97.176
G0 X158.19 Y98.428
G0 X157.324 Y98.428
G1 F1500 E584.58783
G1 F2001.4 X77.724 Y98.428 E590.6771
G1 X77.724 Y98.028 E590.7077
G1 X157.181 Y98.028 E596.78603
G0 F2700 X157.324 Y98.028
G0 X157.324 Y98.428
G0 F15000 X156.724 Y98.428
G1 F1500 E590.28603
;MESH:NONMESH
G0 F300 X156.724 Y98.428 Z6
G0 F15000 X156.724 Y97.164
G0 X157.324 Y82.025
G0 X157.324 Y81.16
;TIME_ELAPSED:374.389411
;LAYER:14
;note -- min layer time used
;TYPE:WALL-OUTER
;MESH:90deg_h40_w80_t36.STL
G1 F1500 E596.78603
G1 F2001.4 X77.724 Y81.16 E602.87529
G1 X77.724 Y80.76 E602.90589
G1 X157.181 Y80.76 E608.98422
G0 F2700 X157.324 Y80.76
G0 X157.324 Y81.16
G0 F15000 X156.724 Y81.16
G1 F1500 E602.48422
;MESH:90deg_h40_w80_t36.STL(1)
G0 F15000 X156.724 Y82.025
G0 X158.178 Y97.176
G0 X158.19 Y98.428
G0 X157.324 Y98.428
G1 F1500 E608.98422
G1 F2001.4 X77.724 Y98.428 E615.07348
G1 X77.724 Y98.028 E615.10408
G1 X157.181 Y98.028 E621.18241
G0 F2700 X157.324 Y98.028
G0 X157.324 Y98.428
G0 F15000 X156.724 Y98.428
G1 F1500 E614.68241
;MESH:NONMESH
G0 F300 X156.724 Y98.428 Z6.4
G0 F15000 X156.724 Y97.164
G0 X157.324 Y82.025
G0 X157.324 Y81.16
;TIME_ELAPSED:386.399844
;LAYER:15
;note -- min layer time used
;TYPE:WALL-OUTER
;MESH:90deg_h40_w80_t36.STL
G1 F1500 E621.18241
G1 F2001.4 X77.724 Y81.16 E627.27167
G1 X77.724 Y80.76 E627.30227
G1 X157.181 Y80.76 E633.3806
G0 F2700 X157.324 Y80.76
G0 X157.324 Y81.16
G0 F15000 X156.724 Y81.16
G1 F1500 E626.8806
;MESH:90deg_h40_w80_t36.STL(1)
G0 F15000 X156.724 Y82.025
G0 X158.178 Y97.176
G0 X158.19 Y98.428
G0 X157.324 Y98.428
G1 F1500 E633.3806
G1 F2001.4 X77.724 Y98.428 E639.46986
G1 X77.724 Y98.028 E639.50046
G1 X157.181 Y98.028 E645.57879
G0 F2700 X157.324 Y98.028
G0 X157.324 Y98.428
G0 F15000 X156.724 Y98.428
G1 F1500 E639.07879
;MESH:NONMESH
G0 F300 X156.724 Y98.428 Z6.8
G0 F15000 X156.724 Y97.164
G0 X157.324 Y82.025
G0 X157.324 Y81.16
;TIME_ELAPSED:398.410277
;LAYER:16
;note -- min layer time used
;TYPE:WALL-OUTER
;MESH:90deg_h40_w80_t36.STL
G1 F1500 E645.57879
G1 F2001.4 X77.724 Y81.16 E651.66806
G1 X77.724 Y80.76 E651.69866
G1 X157.181 Y80.76 E657.77698
G0 F2700 X157.324 Y80.76
G0 X157.324 Y81.16
G0 F15000 X156.724 Y81.16
G1 F1500 E651.27698
;MESH:90deg_h40_w80_t36.STL(1)
G0 F15000 X156.724 Y82.025
G0 X158.178 Y97.176
G0 X158.19 Y98.428
G0 X157.324 Y98.428
G1 F1500 E657.77698
G1 F2001.4 X77.724 Y98.428 E663.86625
G1 X77.724 Y98.028 E663.89685
G1 X157.181 Y98.028 E669.97517
G0 F2700 X157.324 Y98.028
G0 X157.324 Y98.428
G0 F15000 X156.724 Y98.428
G1 F1500 E663.47517
;MESH:NONMESH
G0 F300 X156.724 Y98.428 Z7.2
G0 F15000 X156.724 Y97.164
G0 X157.324 Y82.025
G0 X157.324 Y81.16
;TIME_ELAPSED:410.420710
;LAYER:17
;note -- min layer time used
;TYPE:WALL-OUTER
;MESH:90deg_h40_w80_t36.STL
G1 F1500 E669.97517
G1 F2001.4 X77.724 Y81.16 E676.06444
G1 X77.724 Y80.76 E676.09504
G1 X157.181 Y80.76 E682.17336
G0 F2700 X157.324 Y80.76
G0 X157.324 Y81.16
G0 F15000 X156.724 Y81.16
G1 F1500 E675.67336
;MESH:90deg_h40_w80_t36.STL(1)
G0 F15000 X156.724 Y82.025
G0 X158.178 Y97.176
G0 X158.19 Y98.428
G0 X157.324 Y98.428
G1 F1500 E682.17336
G1 F2001.4 X77.724 Y98.428 E688.26263
G1 X77.724 Y98.028 E688.29323
G1 X157.181 Y98.028 E694.37155
G0 F2700 X157.324 Y98.028
G0 X157.324 Y98.428
G0 F15000 X156.724 Y98.428
G1 F1500 E687.87155
;MESH:NONMESH
G0 F300 X156.724 Y98.428 Z7.6
G0 F15000 X156.724 Y97.164
G0 X157.324 Y82.025
G0 X157.324 Y81.16
;TIME_ELAPSED:422.431143
;LAYER:18
;note -- min layer time used
;TYPE:WALL-OUTER
;MESH:90deg_h40_w80_t36.STL
G1 F1500 E694.37155
G1 F2001.4 X77.724 Y81.16 E700.46082
G1 X77.724 Y80.76 E700.49142
G1 X157.181 Y80.76 E706.56975
G0 F2700 X157.324 Y80.76
G0 X157.324 Y81.16
G0 F15000 X156.724 Y81.16
G1 F1500 E700.06975
;MESH:90deg_h40_w80_t36.STL(1)
G0 F15000 X156.724 Y82.025
G0 X158.178 Y97.176
G0 X158.19 Y98.428
G0 X157.324 Y98.428
G1 F1500 E706.56975
G1 F2001.4 X77.724 Y98.428 E712.65901
G1 X77.724 Y98.028 E712.68961
G1 X157.181 Y98.028 E718.76794
G0 F2700 X157.324 Y98.028
G0 X157.324 Y98.428
G0 F15000 X156.724 Y98.428
G1 F1500 E712.26794
;MESH:NONMESH
G0 F300 X156.724 Y98.428 Z8
G0 F15000 X156.724 Y97.164
G0 X157.324 Y82.025
G0 X157.324 Y81.16
;TIME_ELAPSED:434.441576
;LAYER:19
;note -- min layer time used
;TYPE:WALL-OUTER
;MESH:90deg_h40_w80_t36.STL
G1 F1500 E718.76794
G1 F2001.4 X77.724 Y81.16 E724.8572
G1 X77.724 Y80.76 E724.8878
G1 X157.181 Y80.76 E730.96613
G0 F2700 X157.324 Y80.76
G0 X157.324 Y81.16
G0 F15000 X156.724 Y81.16
G1 F1500 E724.46613
;MESH:90deg_h40_w80_t36.STL(1)
G0 F15000 X156.724 Y82.025
G0 X158.178 Y97.176
G0 X158.19 Y98.428
G0 X157.324 Y98.428
G1 F1500 E730.96613
G1 F2001.4 X77.724 Y98.428 E737.05539
G1 X77.724 Y98.028 E737.08599
G1 X157.181 Y98.028 E743.16432
G0 F2700 X157.324 Y98.028
G0 X157.324 Y98.428
G0 F15000 X156.724 Y98.428
G1 F1500 E736.66432
;MESH:NONMESH
G0 F300 X156.724 Y98.428 Z8.4
G0 F15000 X156.724 Y97.164
G0 X157.324 Y82.025
G0 X157.324 Y81.16
;TIME_ELAPSED:446.452009
;LAYER:20
;note -- min layer time used
;TYPE:WALL-OUTER
;MESH:90deg_h40_w80_t36.STL
G1 F1500 E743.16432
G1 F2001.4 X77.724 Y81.16 E749.25358
G1 X77.724 Y80.76 E749.28418
G1 X157.181 Y80.76 E755.36251
G0 F2700 X157.324 Y80.76
G0 X157.324 Y81.16
G0 F15000 X156.724 Y81.16
G1 F1500 E748.86251
;MESH:90deg_h40_w80_t36.STL(1)
G0 F15000 X156.724 Y82.025
G0 X158.178 Y97.176
G0 X158.19 Y98.428
G0 X157.324 Y98.428
G1 F1500 E755.36251
G1 F2001.4 X77.724 Y98.428 E761.45178
G1 X77.724 Y98.028 E761.48238
G1 X157.181 Y98.028 E767.5607
G0 F2700 X157.324 Y98.028
G0 X157.324 Y98.428
G0 F15000 X156.724 Y98.428
G1 F1500 E761.0607
;MESH:NONMESH
G0 F300 X156.724 Y98.428 Z8.8
G0 F15000 X156.724 Y97.164
G0 X157.324 Y82.025
G0 X157.324 Y81.16
;TIME_ELAPSED:458.462442
;LAYER:21
;note -- min layer time used
;TYPE:WALL-OUTER
;MESH:90deg_h40_w80_t36.STL
G1 F1500 E767.5607
G1 F2001.4 X77.724 Y81.16 E773.64997
G1 X77.724 Y80.76 E773.68057
G1 X157.181 Y80.76 E779.75889
G0 F2700 X157.324 Y80.76
G0 X157.324 Y81.16
G0 F15000 X156.724 Y81.16
G1 F1500 E773.25889
;MESH:90deg_h40_w80_t36.STL(1)
G0 F15000 X156.724 Y82.025
G0 X158.178 Y97.176
G0 X158.19 Y98.428
G0 X157.324 Y98.428
G1 F1500 E779.75889
G1 F2001.4 X77.724 Y98.428 E785.84816
G1 X77.724 Y98.028 E785.87876
G1 X157.181 Y98.028 E791.95708
G0 F2700 X157.324 Y98.028
G0 X157.324 Y98.428
G0 F15000 X156.724 Y98.428
G1 F1500 E785.45708
;MESH:NONMESH
G0 F300 X156.724 Y98.428 Z9.2
G0 F15000 X156.724 Y97.164
G0 X157.324 Y82.025
G0 X157.324 Y81.16
;TIME_ELAPSED:470.472875
;LAYER:22
;note -- min layer time used
;TYPE:WALL-OUTER
;MESH:90deg_h40_w80_t36.STL
G1 F1500 E791.95708
G1 F2001.4 X77.724 Y81.16 E798.04635
G1 X77.724 Y80.76 E798.07695
G1 X157.181 Y80.76 E804.15527
G0 F2700 X157.324 Y80.76
G0 X157.324 Y81.16
G0 F15000 X156.724 Y81.16
G1 F1500 E797.65527
;MESH:90deg_h40_w80_t36.STL(1)
G0 F15000 X156.724 Y82.025
G0 X158.178 Y97.176
G0 X158.19 Y98.428
G0 X157.324 Y98.428
G1 F1500 E804.15527
G1 F2001.4 X77.724 Y98.428 E810.24454
G1 X77.724 Y98.028 E810.27514
G1 X157.181 Y98.028 E816.35347
G0 F2700 X157.324 Y98.028
G0 X157.324 Y98.428
G0 F15000 X156.724 Y98.428
G1 F1500 E809.85347
;MESH:NONMESH
G0 F300 X156.724 Y98.428 Z9.6
G0 F15000 X156.724 Y97.164
G0 X157.324 Y82.025
G0 X157.324 Y81.16
;TIME_ELAPSED:482.483308
;LAYER:23
;note -- min layer time used
;TYPE:WALL-OUTER
;MESH:90deg_h40_w80_t36.STL
G1 F1500 E816.35347
G1 F2001.4 X77.724 Y81.16 E822.44273
G1 X77.724 Y80.76 E822.47333
G1 X157.181 Y80.76 E828.55166
G0 F2700 X157.324 Y80.76
G0 X157.324 Y81.16
G0 F15000 X156.724 Y81.16
G1 F1500 E822.05166
;MESH:90deg_h40_w80_t36.STL(1)
G0 F15000 X156.724 Y82.025
G0 X158.178 Y97.176
G0 X158.19 Y98.428
G0 X157.324 Y98.428
G1 F1500 E828.55166
G1 F2001.4 X77.724 Y98.428 E834.64092
G1 X77.724 Y98.028 E834.67152
G1 X157.181 Y98.028 E840.74985
G0 F2700 X157.324 Y98.028
G0 X157.324 Y98.428
G0 F15000 X156.724 Y98.428
G1 F1500 E834.24985
;MESH:NONMESH
G0 F300 X156.724 Y98.428 Z10
G0 F15000 X156.724 Y97.164
G0 X157.324 Y82.025
G0 X157.324 Y81.16
;TIME_ELAPSED:494.493740
;LAYER:24
;note -- min layer time used
;TYPE:WALL-OUTER
;MESH:90deg_h40_w80_t36.STL
G1 F1500 E840.74985
G1 F2001.4 X77.724 Y81.16 E846.83911
G1 X77.724 Y80.76 E846.86971
G1 X157.181 Y80.76 E852.94804
G0 F2700 X157.324 Y80.76
G0 X157.324 Y81.16
G0 F15000 X156.724 Y81.16
G1 F1500 E846.44804
;MESH:90deg_h40_w80_t36.STL(1)
G0 F15000 X156.724 Y82.025
G0 X158.178 Y97.176
G0 X158.19 Y98.428
G0 X157.324 Y98.428
G1 F1500 E852.94804
G1 F2001.4 X77.724 Y98.428 E859.0373
G1 X77.724 Y98.028 E859.0679
G1 X157.181 Y98.028 E865.14623
G0 F2700 X157.324 Y98.028
G0 X157.324 Y98.428
G0 F15000 X156.724 Y98.428
G1 F1500 E858.64623
;MESH:NONMESH
G0 F300 X156.724 Y98.428 Z10.4
G0 F15000 X156.724 Y97.164
G0 X157.324 Y82.025
G0 X157.324 Y81.16
;TIME_ELAPSED:506.504173
;LAYER:25
;note -- min layer time used
;TYPE:WALL-OUTER
;MESH:90deg_h40_w80_t36.STL
G1 F1500 E865.14623
G1 F2001.4 X77.724 Y81.16 E871.2355
G1 X77.724 Y80.76 E871.2661
G1 X157.181 Y80.76 E877.34442
G0 F2700 X157.324 Y80.76
G0 X157.324 Y81.16
G0 F15000 X156.724 Y81.16
G1 F1500 E870.84442
;MESH:90deg_h40_w80_t36.STL(1)
G0 F15000 X156.724 Y82.025
G0 X158.178 Y97.176
G0 X158.19 Y98.428
G0 X157.324 Y98.428
G1 F1500 E877.34442
G1 F2001.4 X77.724 Y98.428 E883.43369
G1 X77.724 Y98.028 E883.46429
G1 X157.181 Y98.028 E889.54261
G0 F2700 X157.324 Y98.028
G0 X157.324 Y98.428
G0 F15000 X156.724 Y98.428
G1 F1500 E883.04261
;MESH:NONMESH
G0 F300 X156.724 Y98.428 Z10.8
G0 F15000 X156.724 Y97.164
G0 X157.324 Y82.025
G0 X157.324 Y81.16
;TIME_ELAPSED:518.514606
;LAYER:26
;note -- min layer time used
;TYPE:WALL-OUTER
;MESH:90deg_h40_w80_t36.STL
G1 F1500 E889.54261
G1 F2001.4 X77.724 Y81.16 E895.63188
G1 X77.724 Y80.76 E895.66248
G1 X157.181 Y80.76 E901.7408
G0 F2700 X157.324 Y80.76
G0 X157.324 Y81.16
G0 F15000 X156.724 Y81.16
G1 F1500 E895.2408
;MESH:90deg_h40_w80_t36.STL(1)
G0 F15000 X156.724 Y82.025
G0 X158.178 Y97.176
G0 X158.19 Y98.428
G0 X157.324 Y98.428
G1 F1500 E901.7408
G1 F2001.4 X77.724 Y98.428 E907.83007
G1 X77.724 Y98.028 E907.86067
G1 X157.181 Y98.028 E913.93899
G0 F2700 X157.324 Y98.028
G0 X157.324 Y98.428
G0 F15000 X156.724 Y98.428
G1 F1500 E907.43899
;MESH:NONMESH
G0 F300 X156.724 Y98.428 Z11.2
G0 F15000 X156.724 Y97.164
G0 X157.324 Y82.025
G0 X157.324 Y81.16
;TIME_ELAPSED:530.525039
;LAYER:27
;note -- min layer time used
;TYPE:WALL-OUTER
;MESH:90deg_h40_w80_t36.STL
G1 F1500 E913.93899
G1 F2001.4 X77.724 Y81.16 E920.02826
G1 X77.724 Y80.76 E920.05886
G1 X157.181 Y80.76 E926.13719
G0 F2700 X157.324 Y80.76
G0 X157.324 Y81.16
G0 F15000 X156.724 Y81.16
G1 F1500 E919.63719
;MESH:90deg_h40_w80_t36.STL(1)
G0 F15000 X156.724 Y82.025
G0 X158.178 Y97.176
G0 X158.19 Y98.428
G0 X157.324 Y98.428
G1 F1500 E926.13719
G1 F2001.4 X77.724 Y98.428 E932.22645
G1 X77.724 Y98.028 E932.25705
G1 X157.181 Y98.028 E938.33538
G0 F2700 X157.324 Y98.028
G0 X157.324 Y98.428
G0 F15000 X156.724 Y98.428
G1 F1500 E931.83538
;MESH:NONMESH
G0 F300 X156.724 Y98.428 Z11.6
G0 F15000 X156.724 Y97.164
G0 X157.324 Y82.025
G0 X157.324 Y81.16
;TIME_ELAPSED:542.535472
;LAYER:28
;note -- min layer time used
;TYPE:WALL-OUTER
;MESH:90deg_h40_w80_t36.STL
G1 F1500 E938.33538
G1 F2001.4 X77.724 Y81.16 E944.42464
G1 X77.724 Y80.76 E944.45524
G1 X157.181 Y80.76 E950.53357
G0 F2700 X157.324 Y80.76
G0 X157.324 Y81.16
G0 F15000 X156.724 Y81.16
G1 F1500 E944.03357
;MESH:90deg_h40_w80_t36.STL(1)
G0 F15000 X156.724 Y82.025
G0 X158.178 Y97.176
G0 X158.19 Y98.428
G0 X157.324 Y98.428
G1 F1500 E950.53357
G1 F2001.4 X77.724 Y98.428 E956.62283
G1 X77.724 Y98.028 E956.65343
G1 X157.181 Y98.028 E962.73176
G0 F2700 X157.324 Y98.028
G0 X157.324 Y98.428
G0 F15000 X156.724 Y98.428
G1 F1500 E956.23176
;MESH:NONMESH
G0 F300 X156.724 Y98.428 Z12
G0 F15000 X156.724 Y97.164
G0 X157.324 Y82.025
G0 X157.324 Y81.16
;TIME_ELAPSED:554.545905
;LAYER:29
;note -- min layer time used
;TYPE:WALL-OUTER
;MESH:90deg_h40_w80_t36.STL
G1 F1500 E962.73176
G1 F2001.4 X77.724 Y81.16 E968.82102
G1 X77.724 Y80.76 E968.85162
G1 X157.181 Y80.76 E974.92995
G0 F2700 X157.324 Y80.76
G0 X157.324 Y81.16
G0 F15000 X156.724 Y81.16
G1 F1500 E968.42995
;MESH:90deg_h40_w80_t36.STL(1)
G0 F15000 X156.724 Y82.025
G0 X158.178 Y97.176
G0 X158.19 Y98.428
G0 X157.324 Y98.428
G1 F1500 E974.92995
G1 F2001.4 X77.724 Y98.428 E981.01922
G1 X77.724 Y98.028 E981.04982
G1 X157.181 Y98.028 E987.12814
G0 F2700 X157.324 Y98.028
G0 X157.324 Y98.428
G0 F15000 X156.724 Y98.428
G1 F1500 E980.62814
;MESH:NONMESH
G0 F300 X156.724 Y98.428 Z12.4
G0 F15000 X156.724 Y97.164
G0 X157.324 Y82.025
G0 X157.324 Y81.16
;TIME_ELAPSED:566.556338
;LAYER:30
;note -- min layer time used
;TYPE:WALL-OUTER
;MESH:90deg_h40_w80_t36.STL
G1 F1500 E987.12814
G1 F2001.4 X77.724 Y81.16 E993.21741
G1 X77.724 Y80.76 E993.24801
G1 X157.181 Y80.76 E999.32633
G0 F2700 X157.324 Y80.76
G0 X157.324 Y81.16
G0 F15000 X156.724 Y81.16
G1 F1500 E992.82633
;MESH:90deg_h40_w80_t36.STL(1)
G0 F15000 X156.724 Y82.025
G0 X158.178 Y97.176
G0 X158.19 Y98.428
G0 X157.324 Y98.428
G1 F1500 E999.32633
G1 F2001.4 X77.724 Y98.428 E1005.4156
G1 X77.724 Y98.028 E1005.4462
G1 X157.181 Y98.028 E1011.52452
G0 F2700 X157.324 Y98.028
G0 X157.324 Y98.428
G0 F15000 X156.724 Y98.428
G1 F1500 E1005.02452
;MESH:NONMESH
G0 F300 X156.724 Y98.428 Z12.8
G0 F15000 X156.724 Y97.164
G0 X157.324 Y82.025
G0 X157.324 Y81.16
;TIME_ELAPSED:578.566771
;LAYER:31
;note -- min layer time used
;TYPE:WALL-OUTER
;MESH:90deg_h40_w80_t36.STL
G1 F1500 E1011.52452
G1 F2001.4 X77.724 Y81.16 E1017.61379
G1 X77.724 Y80.76 E1017.64439
G1 X157.181 Y80.76 E1023.72271
G0 F2700 X157.324 Y80.76
G0 X157.324 Y81.16
G0 F15000 X156.724 Y81.16
G1 F1500 E1017.22271
;MESH:90deg_h40_w80_t36.STL(1)
G0 F15000 X156.724 Y82.025
G0 X158.178 Y97.176
G0 X158.19 Y98.428
G0 X157.324 Y98.428
G1 F1500 E1023.72271
G1 F2001.4 X77.724 Y98.428 E1029.81198
G1 X77.724 Y98.028 E1029.84258
G1 X157.181 Y98.028 E1035.92091
G0 F2700 X157.324 Y98.028
G0 X157.324 Y98.428
G0 F15000 X156.724 Y98.428
G1 F1500 E1029.42091
;MESH:NONMESH
G0 F300 X156.724 Y98.428 Z13.2
G0 F15000 X156.724 Y97.164
G0 X157.324 Y82.025
G0 X157.324 Y81.16
;TIME_ELAPSED:590.577204
;LAYER:32
;note -- min layer time used
;TYPE:WALL-OUTER
;MESH:90deg_h40_w80_t36.STL
G1 F1500 E1035.92091
G1 F2001.4 X77.724 Y81.16 E1042.01017
G1 X77.724 Y80.76 E1042.04077
G1 X157.181 Y80.76 E1048.1191
G0 F2700 X157.324 Y80.76
G0 X157.324 Y81.16
G0 F15000 X156.724 Y81.16
G1 F1500 E1041.6191
;MESH:90deg_h40_w80_t36.STL(1)
G0 F15000 X156.724 Y82.025
G0 X158.178 Y97.176
G0 X158.19 Y98.428
G0 X157.324 Y98.428
G1 F1500 E1048.1191
G1 F2001.4 X77.724 Y98.428 E1054.20836
G1 X77.724 Y98.028 E1054.23896
G1 X157.181 Y98.028 E1060.31729
G0 F2700 X157.324 Y98.028
G0 X157.324 Y98.428
G0 F15000 X156.724 Y98.428
G1 F1500 E1053.81729
;MESH:NONMESH
G0 F300 X156.724 Y98.428 Z13.6
G0 F15000 X156.724 Y97.164
G0 X157.324 Y82.025
G0 X157.324 Y81.16
;TIME_ELAPSED:602.587637
;LAYER:33
;note -- min layer time used
;TYPE:WALL-OUTER
;MESH:90deg_h40_w80_t36.STL
G1 F1500 E1060.31729
G1 F2001.4 X77.724 Y81.16 E1066.40655
G1 X77.724 Y80.76 E1066.43715
G1 X157.181 Y80.76 E1072.51548
G0 F2700 X157.324 Y80.76
G0 X157.324 Y81.16
G0 F15000 X156.724 Y81.16
G1 F1500 E1066.01548
;MESH:90deg_h40_w80_t36.STL(1)
G0 F15000 X156.724 Y82.025
G0 X158.178 Y97.176
G0 X158.19 Y98.428
G0 X157.324 Y98.428
G1 F1500 E1072.51548
G1 F2001.4 X77.724 Y98.428 E1078.60474
G1 X77.724 Y98.028 E1078.63534
G1 X157.181 Y98.028 E1084.71367
G0 F2700 X157.324 Y98.028
G0 X157.324 Y98.428
G0 F15000 X156.724 Y98.428
G1 F1500 E1078.21367
;MESH:NONMESH
G0 F300 X156.724 Y98.428 Z14
G0 F15000 X156.724 Y97.164
G0 X157.324 Y82.025
G0 X157.324 Y81.16
;TIME_ELAPSED:614.598070
;LAYER:34
;note -- min layer time used
;TYPE:WALL-OUTER
;MESH:90deg_h40_w80_t36.STL
G1 F1500 E1084.71367
G1 F2001.4 X77.724 Y81.16 E1090.80294
G1 X77.724 Y80.76 E1090.83354
G1 X157.181 Y80.76 E1096.91186
G0 F2700 X157.324 Y80.76
G0 X157.324 Y81.16
G0 F15000 X156.724 Y81.16
G1 F1500 E1090.41186
;MESH:90deg_h40_w80_t36.STL(1)
G0 F15000 X156.724 Y82.025
G0 X158.178 Y97.176
G0 X158.19 Y98.428
G0 X157.324 Y98.428
G1 F1500 E1096.91186
G1 F2001.4 X77.724 Y98.428 E1103.00113
G1 X77.724 Y98.028 E1103.03173
G1 X157.181 Y98.028 E1109.11005
G0 F2700 X157.324 Y98.028
G0 X157.324 Y98.428
G0 F15000 X156.724 Y98.428
G1 F1500 E1102.61005
;MESH:NONMESH
G0 F300 X156.724 Y98.428 Z14.4
G0 F15000 X156.724 Y97.164
G0 X157.324 Y82.025
G0 X157.324 Y81.16
;TIME_ELAPSED:626.608503
;LAYER:35
;note -- min layer time used
;TYPE:WALL-OUTER
;MESH:90deg_h40_w80_t36.STL
G1 F1500 E1109.11005
G1 F2001.4 X77.724 Y81.16 E1115.19932
G1 X77.724 Y80.76 E1115.22992
G1 X157.181 Y80.76 E1121.30824
G0 F2700 X157.324 Y80.76
G0 X157.324 Y81.16
G0 F15000 X156.724 Y81.16
G1 F1500 E1114.80824
;MESH:90deg_h40_w80_t36.STL(1)
G0 F15000 X156.724 Y82.025
G0 X158.178 Y97.176
G0 X158.19 Y98.428
G0 X157.324 Y98.428
G1 F1500 E1121.30824
G1 F2001.4 X77.724 Y98.428 E1127.39751
G1 X77.724 Y98.028 E1127.42811
G1 X157.181 Y98.028 E1133.50643
G0 F2700 X157.324 Y98.028
G0 X157.324 Y98.428
G0 F15000 X156.724 Y98.428
G1 F1500 E1127.00643
;MESH:NONMESH
G0 F300 X156.724 Y98.428 Z14.8
G0 F15000 X156.724 Y97.164
G0 X157.324 Y82.025
G0 X157.324 Y81.16
;TIME_ELAPSED:638.618936
;LAYER:36
;note -- min layer time used
;TYPE:WALL-OUTER
;MESH:90deg_h40_w80_t36.STL
G1 F1500 E1133.50643
G1 F2001.4 X77.724 Y81.16 E1139.5957
G1 X77.724 Y80.76 E1139.6263
G1 X157.181 Y80.76 E1145.70463
G0 F2700 X157.324 Y80.76
G0 X157.324 Y81.16
G0 F15000 X156.724 Y81.16
G1 F1500 E1139.20463
;MESH:90deg_h40_w80_t36.STL(1)
G0 F15000 X156.724 Y82.025
G0 X158.178 Y97.176
G0 X158.19 Y98.428
G0 X157.324 Y98.428
G1 F1500 E1145.70463
G1 F2001.4 X77.724 Y98.428 E1151.79389
G1 X77.724 Y98.028 E1151.82449
G1 X157.181 Y98.028 E1157.90282
G0 F2700 X157.324 Y98.028
G0 X157.324 Y98.428
G0 F15000 X156.724 Y98.428
G1 F1500 E1151.40282
;MESH:NONMESH
G0 F300 X156.724 Y98.428 Z15.2
G0 F15000 X156.724 Y97.164
G0 X157.324 Y82.025
G0 X157.324 Y81.16
;TIME_ELAPSED:650.629369
;LAYER:37
;note -- min layer time used
;TYPE:WALL-OUTER
;MESH:90deg_h40_w80_t36.STL
G1 F1500 E1157.90282
G1 F2001.4 X77.724 Y81.16 E1163.99208
G1 X77.724 Y80.76 E1164.02268
G1 X157.181 Y80.76 E1170.10101
G0 F2700 X157.324 Y80.76
G0 X157.324 Y81.16
G0 F15000 X156.724 Y81.16
G1 F1500 E1163.60101
;MESH:90deg_h40_w80_t36.STL(1)
G0 F15000 X156.724 Y82.025
G0 X158.178 Y97.176
G0 X158.19 Y98.428
G0 X157.324 Y98.428
G1 F1500 E1170.10101
G1 F2001.4 X77.724 Y98.428 E1176.19027
G1 X77.724 Y98.028 E1176.22087
G1 X157.181 Y98.028 E1182.2992
G0 F2700 X157.324 Y98.028
G0 X157.324 Y98.428
G0 F15000 X156.724 Y98.428
G1 F1500 E1175.7992
;MESH:NONMESH
G0 F300 X156.724 Y98.428 Z15.6
G0 F15000 X156.724 Y97.164
G0 X157.324 Y82.025
G0 X157.324 Y81.16
;TIME_ELAPSED:662.639802
;LAYER:38
;note -- min layer time used
;TYPE:WALL-OUTER
;MESH:90deg_h40_w80_t36.STL
G1 F1500 E1182.2992
G1 F2001.4 X77.724 Y81.16 E1188.38846
G1 X77.724 Y80.76 E1188.41906
G1 X157.181 Y80.76 E1194.49739
G0 F2700 X157.324 Y80.76
G0 X157.324 Y81.16
G0 F15000 X156.724 Y81.16
G1 F1500 E1187.99739
;MESH:90deg_h40_w80_t36.STL(1)
G0 F15000 X156.724 Y82.025
G0 X158.178 Y97.176
G0 X158.19 Y98.428
G0 X157.324 Y98.428
G1 F1500 E1194.49739
G1 F2001.4 X77.724 Y98.428 E1200.58666
G1 X77.724 Y98.028 E1200.61726
G1 X157.181 Y98.028 E1206.69558
G0 F2700 X157.324 Y98.028
G0 X157.324 Y98.428
G0 F15000 X156.724 Y98.428
G1 F1500 E1200.19558
;MESH:NONMESH
G0 F300 X156.724 Y98.428 Z16
G0 F15000 X156.724 Y97.164
G0 X157.324 Y82.025
G0 X157.324 Y81.16
;TIME_ELAPSED:674.650235
;LAYER:39
;note -- min layer time used
;TYPE:WALL-OUTER
;MESH:90deg_h40_w80_t36.STL
G1 F1500 E1206.69558
G1 F2001.4 X77.724 Y81.16 E1212.78485
G1 X77.724 Y80.76 E1212.81545
G1 X157.181 Y80.76 E1218.89377
G0 F2700 X157.324 Y80.76
G0 X157.324 Y81.16
G0 F15000 X156.724 Y81.16
G1 F1500 E1212.39377
;MESH:90deg_h40_w80_t36.STL(1)
G0 F15000 X156.724 Y82.025
G0 X158.178 Y97.176
G0 X158.19 Y98.428
G0 X157.324 Y98.428
G1 F1500 E1218.89377
G1 F2001.4 X77.724 Y98.428 E1224.98304
G1 X77.724 Y98.028 E1225.01364
G1 X157.181 Y98.028 E1231.09196
G0 F2700 X157.324 Y98.028
G0 X157.324 Y98.428
G0 F15000 X156.724 Y98.428
G1 F1500 E1224.59196
;MESH:NONMESH
G0 F300 X156.724 Y98.428 Z16.4
G0 F15000 X156.724 Y97.164
G0 X157.324 Y82.025
G0 X157.324 Y81.16
;TIME_ELAPSED:686.660668
;LAYER:40
;note -- min layer time used
;TYPE:WALL-OUTER
;MESH:90deg_h40_w80_t36.STL
G1 F1500 E1231.09196
G1 F2001.4 X77.724 Y81.16 E1237.18123
G1 X77.724 Y80.76 E1237.21183
G1 X157.181 Y80.76 E1243.29015
G0 F2700 X157.324 Y80.76
G0 X157.324 Y81.16
G0 F15000 X156.724 Y81.16
G1 F1500 E1236.79015
;MESH:90deg_h40_w80_t36.STL(1)
G0 F15000 X156.724 Y82.025
G0 X158.178 Y97.176
G0 X158.19 Y98.428
G0 X157.324 Y98.428
G1 F1500 E1243.29015
G1 F2001.4 X77.724 Y98.428 E1249.37942
G1 X77.724 Y98.028 E1249.41002
G1 X157.181 Y98.028 E1255.48835
G0 F2700 X157.324 Y98.028
G0 X157.324 Y98.428
G0 F15000 X156.724 Y98.428
G1 F1500 E1248.98835
;MESH:NONMESH
G0 F300 X156.724 Y98.428 Z16.8
G0 F15000 X156.724 Y97.164
G0 X157.324 Y82.025
G0 X157.324 Y81.16
;TIME_ELAPSED:698.671101
;LAYER:41
;note -- min layer time used
;TYPE:WALL-OUTER
;MESH:90deg_h40_w80_t36.STL
G1 F1500 E1255.48835
G1 F2001.4 X77.724 Y81.16 E1261.57761
G1 X77.724 Y80.76 E1261.60821
G1 X157.181 Y80.76 E1267.68654
G0 F2700 X157.324 Y80.76
G0 X157.324 Y81.16
G0 F15000 X156.724 Y81.16
G1 F1500 E1261.18654
;MESH:90deg_h40_w80_t36.STL(1)
G0 F15000 X156.724 Y82.025
G0 X158.178 Y97.176
G0 X158.19 Y98.428
G0 X157.324 Y98.428
G1 F1500 E1267.68654
G1 F2001.4 X77.724 Y98.428 E1273.7758
G1 X77.724 Y98.028 E1273.8064
G1 X157.181 Y98.028 E1279.88473
G0 F2700 X157.324 Y98.028
G0 X157.324 Y98.428
G0 F15000 X156.724 Y98.428
G1 F1500 E1273.38473
;MESH:NONMESH
G0 F300 X156.724 Y98.428 Z17.2
G0 F15000 X156.724 Y97.164
G0 X157.324 Y82.025
G0 X157.324 Y81.16
;TIME_ELAPSED:710.681534
;LAYER:42
;note -- min layer time used
;TYPE:WALL-OUTER
;MESH:90deg_h40_w80_t36.STL
G1 F1500 E1279.88473
G1 F2001.4 X77.724 Y81.16 E1285.97399
G1 X77.724 Y80.76 E1286.00459
G1 X157.181 Y80.76 E1292.08292
G0 F2700 X157.324 Y80.76
G0 X157.324 Y81.16
G0 F15000 X156.724 Y81.16
G1 F1500 E1285.58292
;MESH:90deg_h40_w80_t36.STL(1)
G0 F15000 X156.724 Y82.025
G0 X158.178 Y97.176
G0 X158.19 Y98.428
G0 X157.324 Y98.428
G1 F1500 E1292.08292
G1 F2001.4 X77.724 Y98.428 E1298.17218
G1 X77.724 Y98.028 E1298.20278
G1 X157.181 Y98.028 E1304.28111
G0 F2700 X157.324 Y98.028
G0 X157.324 Y98.428
G0 F15000 X156.724 Y98.428
G1 F1500 E1297.78111
;MESH:NONMESH
G0 F300 X156.724 Y98.428 Z17.6
G0 F15000 X156.724 Y97.164
G0 X157.324 Y82.025
G0 X157.324 Y81.16
;TIME_ELAPSED:722.691967
;LAYER:43
;note -- min layer time used
;TYPE:WALL-OUTER
;MESH:90deg_h40_w80_t36.STL
G1 F1500 E1304.28111
G1 F2001.4 X77.724 Y81.16 E1310.37038
G1 X77.724 Y80.76 E1310.40098
G1 X157.181 Y80.76 E1316.4793
G0 F2700 X157.324 Y80.76
G0 X157.324 Y81.16
G0 F15000 X156.724 Y81.16
G1 F1500 E1309.9793
;MESH:90deg_h40_w80_t36.STL(1)
G0 F15000 X156.724 Y82.025
G0 X158.178 Y97.176
G0 X158.19 Y98.428
G0 X157.324 Y98.428
G1 F1500 E1316.4793
G1 F2001.4 X77.724 Y98.428 E1322.56857
G1 X77.724 Y98.028 E1322.59917
G1 X157.181 Y98.028 E1328.67749
G0 F2700 X157.324 Y98.028
G0 X157.324 Y98.428
G0 F15000 X156.724 Y98.428
G1 F1500 E1322.17749
;MESH:NONMESH
G0 F300 X156.724 Y98.428 Z18
G0 F15000 X156.724 Y97.164
G0 X157.324 Y82.025
G0 X157.324 Y81.16
;TIME_ELAPSED:734.702400
;LAYER:44
;note -- min layer time used
;TYPE:WALL-OUTER
;MESH:90deg_h40_w80_t36.STL
G1 F1500 E1328.67749
G1 F2001.4 X77.724 Y81.16 E1334.76676
G1 X77.724 Y80.76 E1334.79736
G1 X157.181 Y80.76 E1340.87568
G0 F2700 X157.324 Y80.76
G0 X157.324 Y81.16
G0 F15000 X156.724 Y81.16
G1 F1500 E1334.37568
;MESH:90deg_h40_w80_t36.STL(1)
G0 F15000 X156.724 Y82.025
G0 X158.178 Y97.176
G0 X158.19 Y98.428
G0 X157.324 Y98.428
G1 F1500 E1340.87568
G1 F2001.4 X77.724 Y98.428 E1346.96495
G1 X77.724 Y98.028 E1346.99555
G1 X157.181 Y98.028 E1353.07387
G0 F2700 X157.324 Y98.028
G0 X157.324 Y98.428
G0 F15000 X156.724 Y98.428
G1 F1500 E1346.57387
;MESH:NONMESH
G0 F300 X156.724 Y98.428 Z18.4
G0 F15000 X156.724 Y97.164
G0 X157.324 Y82.025
G0 X157.324 Y81.16
;TIME_ELAPSED:746.712833
;LAYER:45
;note -- min layer time used
;TYPE:WALL-OUTER
;MESH:90deg_h40_w80_t36.STL
G1 F1500 E1353.07387
G1 F2001.4 X77.724 Y81.16 E1359.16314
G1 X77.724 Y80.76 E1359.19374
G1 X157.181 Y80.76 E1365.27207
G0 F2700 X157.324 Y80.76
G0 X157.324 Y81.16
G0 F15000 X156.724 Y81.16
G1 F1500 E1358.77207
;MESH:90deg_h40_w80_t36.STL(1)
G0 F15000 X156.724 Y82.025
G0 X158.178 Y97.176
G0 X158.19 Y98.428
G0 X157.324 Y98.428
G1 F1500 E1365.27207
G1 F2001.4 X77.724 Y98.428 E1371.36133
G1 X77.724 Y98.028 E1371.39193
G1 X157.181 Y98.028 E1377.47026
G0 F2700 X157.324 Y98.028
G0 X157.324 Y98.428
G0 F15000 X156.724 Y98.428
G1 F1500 E1370.97026
;MESH:NONMESH
G0 F300 X156.724 Y98.428 Z18.8
G0 F15000 X156.724 Y97.164
G0 X157.324 Y82.025
G0 X157.324 Y81.16
;TIME_ELAPSED:758.723266
;LAYER:46
;note -- min layer time used
;TYPE:WALL-OUTER
;MESH:90deg_h40_w80_t36.STL
G1 F1500 E1377.47026
G1 F2001.4 X77.724 Y81.16 E1383.55952
G1 X77.724 Y80.76 E1383.59012
G1 X157.181 Y80.76 E1389.66845
G0 F2700 X157.324 Y80.76
G0 X157.324 Y81.16
G0 F15000 X156.724 Y81.16
G1 F1500 E1383.16845
;MESH:90deg_h40_w80_t36.STL(1)
G0 F15000 X156.724 Y82.025
G0 X158.178 Y97.176
G0 X158.19 Y98.428
G0 X157.324 Y98.428
G1 F1500 E1389.66845
G1 F2001.4 X77.724 Y98.428 E1395.75771
G1 X77.724 Y98.028 E1395.78831
G1 X157.181 Y98.028 E1401.86664
G0 F2700 X157.324 Y98.028
G0 X157.324 Y98.428
G0 F15000 X156.724 Y98.428
G1 F1500 E1395.36664
;MESH:NONMESH
G0 F300 X156.724 Y98.428 Z19.2
G0 F15000 X156.724 Y97.164
G0 X157.324 Y82.025
G0 X157.324 Y81.16
;TIME_ELAPSED:770.733699
;LAYER:47
;note -- min layer time used
;TYPE:WALL-OUTER
;MESH:90deg_h40_w80_t36.STL
G1 F1500 E1401.86664
G1 F2001.4 X77.724 Y81.16 E1407.9559
G1 X77.724 Y80.76 E1407.9865
G1 X157.181 Y80.76 E1414.06483
G0 F2700 X157.324 Y80.76
G0 X157.324 Y81.16
G0 F15000 X156.724 Y81.16
G1 F1500 E1407.56483
;MESH:90deg_h40_w80_t36.STL(1)
G0 F15000 X156.724 Y82.025
G0 X158.178 Y97.176
G0 X158.19 Y98.428
G0 X157.324 Y98.428
G1 F1500 E1414.06483
G1 F2001.4 X77.724 Y98.428 E1420.1541
G1 X77.724 Y98.028 E1420.1847
G1 X157.181 Y98.028 E1426.26302
G0 F2700 X157.324 Y98.028
G0 X157.324 Y98.428
G0 F15000 X156.724 Y98.428
G1 F1500 E1419.76302
;MESH:NONMESH
G0 F300 X156.724 Y98.428 Z19.6
G0 F15000 X156.724 Y97.164
G0 X157.324 Y82.025
G0 X157.324 Y81.16
;TIME_ELAPSED:782.744132
;LAYER:48
;note -- min layer time used
;TYPE:WALL-OUTER
;MESH:90deg_h40_w80_t36.STL
G1 F1500 E1426.26302
G1 F2001.4 X77.724 Y81.16 E1432.35229
G1 X77.724 Y80.76 E1432.38289
G1 X157.181 Y80.76 E1438.46121
G0 F2700 X157.324 Y80.76
G0 X157.324 Y81.16
G0 F15000 X156.724 Y81.16
G1 F1500 E1431.96121
;MESH:90deg_h40_w80_t36.STL(1)
G0 F15000 X156.724 Y82.025
G0 X158.178 Y97.176
G0 X158.19 Y98.428
G0 X157.324 Y98.428
G1 F1500 E1438.46121
G1 F2001.4 X77.724 Y98.428 E1444.55048
G1 X77.724 Y98.028 E1444.58108
G1 X157.181 Y98.028 E1450.6594
G0 F2700 X157.324 Y98.028
G0 X157.324 Y98.428
G0 F15000 X156.724 Y98.428
G1 F1500 E1444.1594
;MESH:NONMESH
G0 F300 X156.724 Y98.428 Z20
G0 F15000 X156.724 Y97.164
G0 X157.324 Y82.025
G0 X157.324 Y81.16
;TIME_ELAPSED:794.754565
;LAYER:49
;note -- min layer time used
;TYPE:WALL-OUTER
;MESH:90deg_h40_w80_t36.STL
G1 F1500 E1450.6594
G1 F2001.4 X77.724 Y81.16 E1456.74867
G1 X77.724 Y80.76 E1456.77927
G1 X157.181 Y80.76 E1462.85759
G0 F2700 X157.324 Y80.76
G0 X157.324 Y81.16
G0 F15000 X156.724 Y81.16
G1 F1500 E1456.35759
;MESH:90deg_h40_w80_t36.STL(1)
G0 F15000 X156.724 Y82.025
G0 X158.178 Y97.176
G0 X158.19 Y98.428
G0 X157.324 Y98.428
G1 F1500 E1462.85759
G1 F2001.4 X77.724 Y98.428 E1468.94686
G1 X77.724 Y98.028 E1468.97746
G1 X157.181 Y98.028 E1475.05579
G0 F2700 X157.324 Y98.028
G0 X157.324 Y98.428
G0 F15000 X156.724 Y98.428
G1 F1500 E1468.55579
;MESH:NONMESH
G0 F300 X156.724 Y98.428 Z20.4
G0 F15000 X156.724 Y97.164
G0 X157.324 Y82.025
G0 X157.324 Y81.16
;TIME_ELAPSED:806.764998
;LAYER:50
;note -- min layer time used
;TYPE:WALL-OUTER
;MESH:90deg_h40_w80_t36.STL
G1 F1500 E1475.05579
G1 F2001.4 X77.724 Y81.16 E1481.14505
G1 X77.724 Y80.76 E1481.17565
G1 X157.181 Y80.76 E1487.25398
G0 F2700 X157.324 Y80.76
G0 X157.324 Y81.16
G0 F15000 X156.724 Y81.16
G1 F1500 E1480.75398
;MESH:90deg_h40_w80_t36.STL(1)
G0 F15000 X156.724 Y82.025
G0 X158.178 Y97.176
G0 X158.19 Y98.428
G0 X157.324 Y98.428
G1 F1500 E1487.25398
G1 F2001.4 X77.724 Y98.428 E1493.34324
G1 X77.724 Y98.028 E1493.37384
G1 X157.181 Y98.028 E1499.45217
G0 F2700 X157.324 Y98.028
G0 X157.324 Y98.428
G0 F15000 X156.724 Y98.428
G1 F1500 E1492.95217
;MESH:NONMESH
G0 F300 X156.724 Y98.428 Z20.8
G0 F15000 X156.724 Y97.164
G0 X157.324 Y82.025
G0 X157.324 Y81.16
;TIME_ELAPSED:818.775431
;LAYER:51
;note -- min layer time used
;TYPE:WALL-OUTER
;MESH:90deg_h40_w80_t36.STL
G1 F1500 E1499.45217
G1 F2001.4 X77.724 Y81.16 E1505.54143
G1 X77.724 Y80.76 E1505.57203
G1 X157.181 Y80.76 E1511.65036
G0 F2700 X157.324 Y80.76
G0 X157.324 Y81.16
G0 F15000 X156.724 Y81.16
G1 F1500 E1505.15036
;MESH:90deg_h40_w80_t36.STL(1)
G0 F15000 X156.724 Y82.025
G0 X158.178 Y97.176
G0 X158.19 Y98.428
G0 X157.324 Y98.428
G1 F1500 E1511.65036
G1 F2001.4 X77.724 Y98.428 E1517.73962
G1 X77.724 Y98.028 E1517.77022
G1 X157.181 Y98.028 E1523.84855
G0 F2700 X157.324 Y98.028
G0 X157.324 Y98.428
G0 F15000 X156.724 Y98.428
G1 F1500 E1517.34855
;MESH:NONMESH
G0 F300 X156.724 Y98.428 Z21.2
G0 F15000 X156.724 Y97.164
G0 X157.324 Y82.025
G0 X157.324 Y81.16
;TIME_ELAPSED:830.785864
;LAYER:52
;note -- min layer time used
;TYPE:WALL-OUTER
;MESH:90deg_h40_w80_t36.STL
G1 F1500 E1523.84855
G1 F2001.4 X77.724 Y81.16 E1529.93782
G1 X77.724 Y80.76 E1529.96842
G1 X157.181 Y80.76 E1536.04674
G0 F2700 X157.324 Y80.76
G0 X157.324 Y81.16
G0 F15000 X156.724 Y81.16
G1 F1500 E1529.54674
;MESH:90deg_h40_w80_t36.STL(1)
G0 F15000 X156.724 Y82.025
G0 X158.178 Y97.176
G0 X158.19 Y98.428
G0 X157.324 Y98.428
G1 F1500 E1536.04674
G1 F2001.4 X77.724 Y98.428 E1542.13601
G1 X77.724 Y98.028 E1542.16661
G1 X157.181 Y98.028 E1548.24493
G0 F2700 X157.324 Y98.028
G0 X157.324 Y98.428
G0 F15000 X156.724 Y98.428
G1 F1500 E1541.74493
;MESH:NONMESH
G0 F300 X156.724 Y98.428 Z21.6
G0 F15000 X156.724 Y97.164
G0 X157.324 Y82.025
G0 X157.324 Y81.16
;TIME_ELAPSED:842.796297
;LAYER:53
;note -- min layer time used
;TYPE:WALL-OUTER
;MESH:90deg_h40_w80_t36.STL
G1 F1500 E1548.24493
G1 F2001.4 X77.724 Y81.16 E1554.3342
G1 X77.724 Y80.76 E1554.3648
G1 X157.181 Y80.76 E1560.44312
G0 F2700 X157.324 Y80.76
G0 X157.324 Y81.16
G0 F15000 X156.724 Y81.16
G1 F1500 E1553.94312
;MESH:90deg_h40_w80_t36.STL(1)
G0 F15000 X156.724 Y82.025
G0 X158.178 Y97.176
G0 X158.19 Y98.428
G0 X157.324 Y98.428
G1 F1500 E1560.44312
G1 F2001.4 X77.724 Y98.428 E1566.53239
G1 X77.724 Y98.028 E1566.56299
G1 X157.181 Y98.028 E1572.64132
G0 F2700 X157.324 Y98.028
G0 X157.324 Y98.428
G0 F15000 X156.724 Y98.428
G1 F1500 E1566.14132
;MESH:NONMESH
G0 F300 X156.724 Y98.428 Z22
G0 F15000 X156.724 Y97.164
G0 X157.324 Y82.025
G0 X157.324 Y81.16
;TIME_ELAPSED:854.806730
;LAYER:54
;note -- min layer time used
;TYPE:WALL-OUTER
;MESH:90deg_h40_w80_t36.STL
G1 F1500 E1572.64132
G1 F2001.4 X77.724 Y81.16 E1578.73058
G1 X77.724 Y80.76 E1578.76118
G1 X157.181 Y80.76 E1584.83951
G0 F2700 X157.324 Y80.76
G0 X157.324 Y81.16
G0 F15000 X156.724 Y81.16
G1 F1500 E1578.33951
;MESH:90deg_h40_w80_t36.STL(1)
G0 F15000 X156.724 Y82.025
G0 X158.178 Y97.176
G0 X158.19 Y98.428
G0 X157.324 Y98.428
G1 F1500 E1584.83951
G1 F2001.4 X77.724 Y98.428 E1590.92877
G1 X77.724 Y98.028 E1590.95937
G1 X157.181 Y98.028 E1597.0377
G0 F2700 X157.324 Y98.028
G0 X157.324 Y98.428
G0 F15000 X156.724 Y98.428
;TIME_ELAPSED:866.048629
G1 F1500 E1590.5377
M140 S0
M107
G91 ;Relative positioning
G1 E-2 F2700 ;Retract a bit
G1 E-2 Z0.2 F2400 ;Retract and raise Z
G1 X5 Y5 F3000 ;Wipe out
G1 Z10 ;Raise Z more
G90 ;Absolute positioning

G1 X0 Y235 ;Present print
M106 S0 ;Turn-off fan
M104 S0 ;Turn-off hotend
M140 S0 ;Turn-off bed

M84 X Y E ;Disable all steppers but Z

M82 ;absolute extrusion mode
M104 S0
;End of Gcode
;SETTING_3 {"global_quality": "[general]\\nversion = 4\\nname = Standard 0.2 luc
;SETTING_3 \\ndefinition = creality_ender3\\n\\n[metadata]\\ntype = quality_chan
;SETTING_3 ges\\nquality_type = standard\\nsetting_version = 25\\n\\n[values]\\n
;SETTING_3 adhesion_type = brim\\nbridge_settings_enabled = True\\nlayer_height 
;SETTING_3 = 0.4\\nlayer_height_0 = 0.4\\nraft_smoothing = 2\\nretraction_combin
;SETTING_3 g = noskin\\nsupport_enable = True\\nsupport_structure = tree\\nsuppo
;SETTING_3 rt_type = buildplate\\n\\n", "extruder_quality": ["[general]\\nversio
;SETTING_3 n = 4\\nname = Standard 0.2 luc\\ndefinition = creality_ender3\\n\\n[
;SETTING_3 metadata]\\ntype = quality_changes\\nquality_type = standard\\nintent
;SETTING_3 _category = default\\nposition = 0\\nsetting_version = 25\\n\\n[value
;SETTING_3 s]\\nalternate_extra_perimeter = False\\nbridge_skin_material_flow = 
;SETTING_3 80\\nbridge_wall_material_flow = 90\\nbrim_inside_margin = 1.5\\nbrim
;SETTING_3 _width = 4.4\\ncoasting_enable = True\\ncoasting_volume = 0.1\\ncool_
;SETTING_3 fan_speed = 10\\nhole_xy_offset = 0.1\\ninfill_material_flow = 145.0\
;SETTING_3 \ninfill_overlap = 60\\ninfill_pattern = cubicsubdiv\\nmaterial_print
;SETTING_3 _temperature = 212\\nraft_airgap = 0.26\\nraft_margin = 2\\nretract_a
;SETTING_3 t_layer_change = True\\nretraction_hop_enabled = False\\nretraction_h
;SETTING_3 op_only_when_collides = True\\nskin_overlap = 15.0\\nspeed_infill = 4
;SETTING_3 5\\nspeed_print = 100\\nsupport_bottom_enable = False\\nsupport_botto
;SETTING_3 m_height = =extruderValue(support_bottom_extruder_nr, 'support_interf
;SETTING_3 ace_height')\\nsupport_interface_density = 65\\nsupport_interface_hei
;SETTING_3 ght = 0.6\\nsupport_interface_material_flow = 105\\nsupport_interface
;SETTING_3 _pattern = zigzag\\nsupport_material_flow = 115\\nsupport_roof_enable
;SETTING_3  = False\\nsupport_tree_tip_diameter = 1.2\\nsupport_z_distance = 0.1
;SETTING_3 7\\nsupport_z_seam_away_from_model = False\\nsupport_z_seam_min_dista
;SETTING_3 nce = 1.2\\ntop_bottom_pattern = zigzag\\ntop_bottom_thickness = 2\\n
;SETTING_3 wall_0_wipe_dist = 0.6\\nwall_line_count = 5\\nwall_material_flow = 1
;SETTING_3 15\\nxy_offset_layer_0 = -0.02\\nz_seam_corner = z_seam_corner_inner\
;SETTING_3 \nz_seam_type = sharpest_corner\\n\\n"]}
