;FLAVOR:Marlin
;TIME:578
;Filament used: 0.830877m
;Layer height: 0.5
;MINX:73.345
;MINY:92.67
;MINZ:0.5
;MAXX:161.705
;MAXY:101.83
;MAXZ:22
;TARGET_MACHINE.NAME:Creality Ender-3
;Generated with Cura_SteamEngine 5.11.0
M140 S60
M105
M190 S60
M104 S212
M105
M109 S212
; Ender 3 Custom Start G-code
G92 E0 ; Reset Extruder
G28 ; Home all axes
G1 Z2.0 F3000 ; Move Z Axis up little to prevent scratching of Heat Bed
G1 X0.1 Y20 Z0.3 F5000.0 ; Move to start position
G1 X0.1 Y200.0 Z0.3 F1500.0 E15 ; Draw the first line
G1 X0.4 Y200.0 Z0.3 F5000.0 ; Move to side a little
G1 X0.4 Y20 Z0.3 F1500.0 E30 ; Draw the second line
G92 E0 ; Reset Extruder
G1 Z2.0 F3000 ; Move Z Axis up little to prevent scratching of Heat Bed
G1 X5 Y20 Z0.3 F5000.0 ; Move over to prevent blob squish
M82 ;absolute extrusion mode
G92 E0
G92 E0
G1 F1500 E-6.5
;LAYER_COUNT:44
;LAYER:0
M107
G0 F6000 X75.003 Y93.526 Z0.5
;TYPE:SKIRT
G1 F1500 E0
G1 F1200 X76.096 Y92.874 E0.10583
G1 X77.151 Y92.7 E0.19473
G1 X157.941 Y92.67 E6.91245
G1 X158.97 Y92.923 E7.00056
G1 X160.071 Y93.493 E7.10365
G1 X160.848 Y94.327 E7.19843
G1 X161.462 Y95.36 E7.29835
G1 X161.513 Y95.504 E7.31105
G1 X161.695 Y96.725 E7.4137
G1 X161.705 Y98.067 E7.52529
G1 X161.458 Y99.083 E7.61223
G1 X160.882 Y100.196 E7.71644
G1 X160.047 Y100.974 E7.81134
G1 X158.954 Y101.626 E7.91716
G1 X157.899 Y101.8 E8.00607
G1 X77.109 Y101.83 E14.72379
G1 X76.08 Y101.577 E14.8119
G1 X74.979 Y101.007 E14.91499
G1 X74.202 Y100.173 E15.00977
G1 X73.588 Y99.14 E15.10969
G1 X73.537 Y98.996 E15.12239
G1 X73.355 Y97.775 E15.22504
G1 X73.345 Y96.433 E15.33663
G1 X73.592 Y95.417 E15.42357
G1 X74.168 Y94.304 E15.52778
G1 X75.003 Y93.526 E15.62267
G0 F6000 X75.245 Y93.848
G1 F1200 X76.236 Y93.257 E15.71862
G1 X77.216 Y93.095 E15.80121
G1 X157.895 Y93.07 E22.5097
G1 X158.827 Y93.299 E22.5895
G1 X159.824 Y93.815 E22.68284
G1 X160.527 Y94.57 E22.76862
G1 X161.118 Y95.564 E22.86478
G1 X161.295 Y96.728 E22.96268
G1 X161.305 Y98.019 E23.07003
G1 X161.08 Y98.944 E23.14919
G1 X160.56 Y99.949 E23.24328
G1 X159.805 Y100.652 E23.32905
G1 X158.814 Y101.243 E23.425
G1 X157.834 Y101.405 E23.50759
G1 X77.155 Y101.43 E30.21608
G1 X76.223 Y101.201 E30.29588
G1 X75.226 Y100.685 E30.38922
G1 X74.523 Y99.93 E30.475
G1 X73.932 Y98.936 E30.57116
G1 X73.755 Y97.772 E30.66906
G1 X73.745 Y96.481 E30.77641
G1 X73.97 Y95.556 E30.85557
G1 X74.49 Y94.551 E30.94966
G1 X75.245 Y93.848 E31.03544
G0 F6000 X75.484 Y94.172
G1 F1200 X76.376 Y93.64 E31.1218
G1 X77.281 Y93.49 E31.19807
G1 X157.849 Y93.47 E37.89733
G1 X158.684 Y93.675 E37.96882
G1 X159.579 Y94.138 E38.05261
G1 X160.203 Y94.809 E38.1288
G1 X160.735 Y95.703 E38.2153
G1 X160.895 Y96.731 E38.30181
G1 X160.905 Y97.971 E38.40492
G1 X160.702 Y98.805 E38.47629
G1 X160.237 Y99.704 E38.56045
G1 X159.566 Y100.328 E38.63664
G1 X158.674 Y100.86 E38.723
G1 X157.769 Y101.01 E38.79928
G1 X77.201 Y101.03 E45.49854
G1 X76.366 Y100.825 E45.57003
G1 X75.471 Y100.362 E45.65382
G1 X74.847 Y99.691 E45.73001
G1 X74.315 Y98.797 E45.81651
G1 X74.155 Y97.769 E45.90302
G1 X74.145 Y96.529 E46.00613
G1 X74.348 Y95.695 E46.0775
G1 X74.813 Y94.796 E46.16166
G1 X75.484 Y94.172 E46.23785
G0 F6000 X75.723 Y94.496
G1 F1200 X76.516 Y94.023 E46.31463
G1 X77.347 Y93.885 E46.38467
G1 X157.803 Y93.87 E53.07462
G1 X158.541 Y94.051 E53.1378
G1 X159.334 Y94.461 E53.21203
G1 X159.879 Y95.048 E53.27864
G1 X160.352 Y95.842 E53.35548
G1 X160.495 Y96.734 E53.4306
G1 X160.505 Y97.923 E53.52947
G1 X160.324 Y98.666 E53.59306
G1 X159.914 Y99.459 E53.66729
G1 X159.327 Y100.004 E53.73389
G1 X158.534 Y100.477 E53.81067
G1 X157.703 Y100.615 E53.88071
G1 X77.247 Y100.63 E60.57066
G1 X76.509 Y100.449 E60.63384
G1 X75.716 Y100.039 E60.70807
G1 X75.171 Y99.452 E60.77467
G1 X74.698 Y98.658 E60.85152
G1 X74.555 Y97.766 E60.92664
G1 X74.545 Y96.577 E61.02551
G1 X74.726 Y95.834 E61.08909
G1 X75.136 Y95.041 E61.16332
G1 X75.723 Y94.496 E61.22993
G0 F6000 X75.962 Y94.82
G1 F1200 X76.656 Y94.406 E61.29712
G1 X77.413 Y94.28 E61.36093
G1 X157.753 Y94.27 E68.04123
G1 X158.402 Y94.429 E68.09679
G1 X159.089 Y94.784 E68.16109
G1 X159.555 Y95.287 E68.21811
G1 X159.969 Y95.981 E68.2853
G1 X160.095 Y96.738 E68.34911
G1 X160.105 Y97.875 E68.44366
G1 X159.946 Y98.527 E68.49946
G1 X159.591 Y99.214 E68.56376
G1 X159.088 Y99.68 E68.62077
G1 X158.394 Y100.094 E68.68797
G1 X157.637 Y100.22 E68.75178
G1 X77.297 Y100.23 E75.43208
G1 X76.648 Y100.071 E75.48764
G1 X75.961 Y99.716 E75.55194
G1 X75.495 Y99.213 E75.60895
G1 X75.081 Y98.519 E75.67615
G1 X74.955 Y97.762 E75.73996
G1 X74.945 Y96.625 E75.8345
G1 X75.104 Y95.973 E75.89031
G1 X75.459 Y95.286 E75.95461
G1 X75.962 Y94.82 E76.01162
G0 F6000 X76.201 Y95.144
G1 F1200 X76.796 Y94.789 E76.06923
G1 X77.479 Y94.675 E76.12681
G1 X157.703 Y94.67 E82.79746
G1 X158.263 Y94.807 E82.8454
G1 X158.843 Y95.107 E82.8997
G1 X159.231 Y95.526 E82.94718
G1 X159.586 Y96.121 E83.00479
G1 X159.7 Y96.804 E83.06237
G1 X159.705 Y97.827 E83.14743
G1 X159.568 Y98.388 E83.19545
G1 X159.268 Y98.968 E83.24975
G1 X158.849 Y99.356 E83.29723
G1 X158.254 Y99.711 E83.35484
G1 X157.571 Y99.825 E83.41242
G1 X77.347 Y99.83 E90.08307
G1 X76.787 Y99.693 E90.13101
G1 X76.207 Y99.393 E90.18531
G1 X75.819 Y98.974 E90.23279
G1 X75.464 Y98.379 E90.2904
G1 X75.35 Y97.696 E90.34798
G1 X75.345 Y96.673 E90.43304
G1 X75.482 Y96.112 E90.48106
G1 X75.782 Y95.532 E90.53536
G1 X76.201 Y95.144 E90.58284
G0 F6000 X76.443 Y95.465
G1 F1200 X76.934 Y95.172 E90.63038
G1 X77.545 Y95.07 E90.68189
G1 X157.653 Y95.07 E97.3429
G1 X158.124 Y95.185 E97.38321
G1 X158.597 Y95.43 E97.42751
G1 X158.91 Y95.768 E97.46581
G1 X159.203 Y96.259 E97.51335
G1 X159.305 Y96.87 E97.56486
G1 X159.305 Y97.778 E97.64036
G1 X159.19 Y98.249 E97.68068
G1 X158.945 Y98.722 E97.72497
G1 X158.607 Y99.035 E97.76327
G1 X158.116 Y99.328 E97.81082
G1 X157.505 Y99.43 E97.86233
G1 X77.397 Y99.43 E104.52333
G1 X76.926 Y99.315 E104.56365
G1 X76.453 Y99.07 E104.60794
G1 X76.14 Y98.732 E104.64625
G1 X75.847 Y98.241 E104.69379
G1 X75.745 Y97.63 E104.7453
G1 X75.745 Y96.722 E104.8208
G1 X75.86 Y96.251 E104.86111
G1 X76.105 Y95.778 E104.9054
G1 X76.443 Y95.465 E104.94371
G0 F6000 X76.685 Y95.786
G1 F1200 X77.072 Y95.555 E104.98118
G1 X77.545 Y95.47 E105.02114
G1 X157.603 Y95.47 E111.67799
G1 X157.985 Y95.563 E111.71069
G1 X158.351 Y95.753 E111.74498
G1 X158.589 Y96.01 E111.7741
G1 X158.82 Y96.397 E111.81158
G1 X158.905 Y96.87 E111.85154
G1 X158.905 Y97.728 E111.92288
G1 X158.812 Y98.11 E111.95557
G1 X158.622 Y98.476 E111.98986
G1 X158.365 Y98.714 E112.01899
G1 X157.978 Y98.945 E112.05646
G1 X157.505 Y99.03 E112.09642
G1 X77.447 Y99.03 E118.75327
G1 X77.065 Y98.937 E118.78596
G1 X76.699 Y98.747 E118.82025
G1 X76.461 Y98.49 E118.84938
G1 X76.23 Y98.103 E118.88685
G1 X76.145 Y97.63 E118.92681
G1 X76.145 Y96.772 E118.99816
G1 X76.238 Y96.39 E119.03085
G1 X76.428 Y96.024 E119.06514
G1 X76.685 Y95.786 E119.09426
G0 F6000 X76.89 Y96.13
G1 F1200 X76.752 Y96.269 E119.11055
G1 X76.615 Y96.532 E119.13521
G1 X76.545 Y96.821 E119.15993
G1 X76.545 Y97.63 E119.2272
G1 X76.61 Y97.958 E119.255
G1 X76.805 Y98.285 E119.28666
G1 X76.944 Y98.423 E119.30295
G1 X77.207 Y98.56 E119.32761
G1 X77.496 Y98.63 E119.35233
G1 X157.505 Y98.63 E126.00511
G1 X157.833 Y98.565 E126.03291
G1 X158.16 Y98.37 E126.06457
G1 X158.298 Y98.231 E126.08086
G1 X158.435 Y97.968 E126.10551
G1 X158.505 Y97.679 E126.13024
G1 X158.505 Y96.87 E126.19751
G1 X158.44 Y96.542 E126.22531
G1 X158.245 Y96.215 E126.25697
G1 X158.106 Y96.077 E126.27326
G1 X157.843 Y95.94 E126.29791
G1 X157.554 Y95.87 E126.32264
G1 X77.545 Y95.87 E132.97541
G1 X77.217 Y95.935 E133.00322
G1 X76.89 Y96.13 E133.03487
G0 F6000 X77.384 Y96.751
G1 F1200 X77.545 Y96.67 E133.04986
G1 X157.505 Y96.67 E139.69856
G1 X157.624 Y96.709 E139.70897
G1 X157.705 Y96.87 E139.72396
G1 X157.705 Y97.63 E139.78715
G1 X157.666 Y97.749 E139.79757
G1 X157.505 Y97.83 E139.81255
G1 X77.545 Y97.83 E146.46125
G1 X77.426 Y97.791 E146.47167
G1 X77.345 Y97.63 E146.48665
G1 X77.345 Y96.87 E146.54985
G1 X77.384 Y96.751 E146.56026
G0 F6000 X77.004 Y96.626
G1 F1200 X77.095 Y96.474 E146.57499
G1 X77.365 Y96.313 E146.60113
G1 X77.545 Y96.27 E146.61652
G1 X157.505 Y96.27 E153.26522
G1 X157.749 Y96.329 E153.28609
G1 X157.901 Y96.42 E153.30082
G1 X158.062 Y96.69 E153.32696
G1 X158.105 Y96.87 E153.34235
G1 X158.105 Y97.63 E153.40554
G1 X158.046 Y97.874 E153.42642
G1 X157.955 Y98.026 E153.44115
G1 X157.685 Y98.187 E153.46729
G1 X157.505 Y98.23 E153.48268
G1 X77.545 Y98.23 E160.13138
G1 X77.301 Y98.171 E160.15225
G1 X77.149 Y98.08 E160.16698
G1 X76.988 Y97.81 E160.19312
G1 X76.945 Y97.63 E160.20851
G1 X76.945 Y96.87 E160.2717
G1 X77.004 Y96.626 E160.29258
G1 F1500 E153.79258
;MESH:90deg_h40_w80_t36.STL(1)
G0 F6000 X76.88 Y96.626
G0 X76.892 Y98.283
G0 X157.314 Y98.295
G0 X157.314 Y97.438
;TYPE:WALL-OUTER
G1 F1500 E160.29258
G1 F1263.2 X77.734 Y97.438 E167.52176
G1 X77.734 Y97.058 E167.55628
G1 X157.259 Y97.058 E174.78047
G0 F1080 X157.314 Y97.058
G0 X157.314 Y97.438
G0 F6000 X156.714 Y97.438
G1 F1500 E168.28047
;MESH:NONMESH
G0 F300 X156.714 Y97.438 Z1
G0 F6000 X157.324 Y97.448
;TIME_ELAPSED:111.450683
;LAYER:1
;note -- min layer time used
M106 S1.7
;TYPE:WALL-OUTER
;MESH:90deg_h40_w80_t36.STL(1)
G1 F1500 E174.78047
G1 F960.7 X77.724 Y97.448 E182.39205
G1 X77.724 Y97.048 E182.4303
G1 X157.289 Y97.048 E190.03854
G0 F1890 X157.324 Y97.048
G0 X157.324 Y97.448
G0 F10500 X156.724 Y97.448
G1 F1500 E183.53854
;MESH:NONMESH
G0 F300 X156.724 Y97.448 Z1.5
G0 F10500 X157.324 Y97.448
;TIME_ELAPSED:122.325301
;LAYER:2
;note -- min layer time used
M106 S3.4
;TYPE:WALL-OUTER
;MESH:90deg_h40_w80_t36.STL(1)
G1 F1500 E190.03854
G1 F960.5 X77.724 Y97.448 E197.65012
G1 X77.724 Y97.048 E197.68837
G1 X157.289 Y97.048 E205.2966
G0 F2700 X157.324 Y97.048
G0 X157.324 Y97.448
G0 F15000 X156.724 Y97.448
G1 F1500 E198.7966
;MESH:NONMESH
G0 F300 X156.724 Y97.448 Z2
G0 F15000 X157.324 Y97.448
;TIME_ELAPSED:133.203631
;LAYER:3
;note -- min layer time used
M106 S5.1
;TYPE:WALL-OUTER
;MESH:90deg_h40_w80_t36.STL(1)
G1 F1500 E205.2966
G1 F960.5 X77.724 Y97.448 E212.90819
G1 X77.724 Y97.048 E212.94643
G1 X157.289 Y97.048 E220.55467
G0 F2700 X157.324 Y97.048
G0 X157.324 Y97.448
G0 F15000 X156.724 Y97.448
G1 F1500 E214.05467
;MESH:NONMESH
G0 F300 X156.724 Y97.448 Z2.5
G0 F15000 X157.324 Y97.448
;TIME_ELAPSED:144.081961
;LAYER:4
;note -- min layer time used
;TYPE:WALL-OUTER
;MESH:90deg_h40_w80_t36.STL(1)
G1 F1500 E220.55467
G1 F960.5 X77.724 Y97.448 E228.16625
G1 X77.724 Y97.048 E228.2045
G1 X157.289 Y97.048 E235.81274
G0 F2700 X157.324 Y97.048
G0 X157.324 Y97.448
G0 F15000 X156.724 Y97.448
G1 F1500 E229.31274
;MESH:NONMESH
G0 F300 X156.724 Y97.448 Z3
G0 F15000 X157.324 Y97.448
;TIME_ELAPSED:154.960291
;LAYER:5
;note -- min layer time used
;TYPE:WALL-OUTER
;MESH:90deg_h40_w80_t36.STL(1)
G1 F1500 E235.81274
G1 F960.5 X77.724 Y97.448 E243.42432
G1 X77.724 Y97.048 E243.46257
G1 X157.289 Y97.048 E251.0708
G0 F2700 X157.324 Y97.048
G0 X157.324 Y97.448
G0 F15000 X156.724 Y97.448
G1 F1500 E244.5708
;MESH:NONMESH
G0 F300 X156.724 Y97.448 Z3.5
G0 F15000 X157.324 Y97.448
;TIME_ELAPSED:165.838621
;LAYER:6
;note -- min layer time used
;TYPE:WALL-OUTER
;MESH:90deg_h40_w80_t36.STL(1)
G1 F1500 E251.0708
G1 F960.5 X77.724 Y97.448 E258.68238
G1 X77.724 Y97.048 E258.72063
G1 X157.289 Y97.048 E266.32887
G0 F2700 X157.324 Y97.048
G0 X157.324 Y97.448
G0 F15000 X156.724 Y97.448
G1 F1500 E259.82887
;MESH:NONMESH
G0 F300 X156.724 Y97.448 Z4
G0 F15000 X157.324 Y97.448
;TIME_ELAPSED:176.716951
;LAYER:7
;note -- min layer time used
;TYPE:WALL-OUTER
;MESH:90deg_h40_w80_t36.STL(1)
G1 F1500 E266.32887
G1 F960.5 X77.724 Y97.448 E273.94045
G1 X77.724 Y97.048 E273.9787
G1 X157.289 Y97.048 E281.58693
G0 F2700 X157.324 Y97.048
G0 X157.324 Y97.448
G0 F15000 X156.724 Y97.448
G1 F1500 E275.08693
;MESH:NONMESH
G0 F300 X156.724 Y97.448 Z4.5
G0 F15000 X157.324 Y97.448
;TIME_ELAPSED:187.595281
;LAYER:8
;note -- min layer time used
;TYPE:WALL-OUTER
;MESH:90deg_h40_w80_t36.STL(1)
G1 F1500 E281.58693
G1 F960.5 X77.724 Y97.448 E289.19852
G1 X77.724 Y97.048 E289.23677
G1 X157.289 Y97.048 E296.845
G0 F2700 X157.324 Y97.048
G0 X157.324 Y97.448
G0 F15000 X156.724 Y97.448
G1 F1500 E290.345
;MESH:NONMESH
G0 F300 X156.724 Y97.448 Z5
G0 F15000 X157.324 Y97.448
;TIME_ELAPSED:198.473611
;LAYER:9
;note -- min layer time used
;TYPE:WALL-OUTER
;MESH:90deg_h40_w80_t36.STL(1)
G1 F1500 E296.845
G1 F960.5 X77.724 Y97.448 E304.45658
G1 X77.724 Y97.048 E304.49483
G1 X157.289 Y97.048 E312.10307
G0 F2700 X157.324 Y97.048
G0 X157.324 Y97.448
G0 F15000 X156.724 Y97.448
G1 F1500 E305.60307
;MESH:NONMESH
G0 F300 X156.724 Y97.448 Z5.5
G0 F15000 X157.324 Y97.448
;TIME_ELAPSED:209.351941
;LAYER:10
;note -- min layer time used
;TYPE:WALL-OUTER
;MESH:90deg_h40_w80_t36.STL(1)
G1 F1500 E312.10307
G1 F960.5 X77.724 Y97.448 E319.71465
G1 X77.724 Y97.048 E319.7529
G1 X157.289 Y97.048 E327.36113
G0 F2700 X157.324 Y97.048
G0 X157.324 Y97.448
G0 F15000 X156.724 Y97.448
G1 F1500 E320.86113
;MESH:NONMESH
G0 F300 X156.724 Y97.448 Z6
G0 F15000 X157.324 Y97.448
;TIME_ELAPSED:220.230271
;LAYER:11
;note -- min layer time used
;TYPE:WALL-OUTER
;MESH:90deg_h40_w80_t36.STL(1)
G1 F1500 E327.36113
G1 F960.5 X77.724 Y97.448 E334.97272
G1 X77.724 Y97.048 E335.01096
G1 X157.289 Y97.048 E342.6192
G0 F2700 X157.324 Y97.048
G0 X157.324 Y97.448
G0 F15000 X156.724 Y97.448
G1 F1500 E336.1192
;MESH:NONMESH
G0 F300 X156.724 Y97.448 Z6.5
G0 F15000 X157.324 Y97.448
;TIME_ELAPSED:231.108601
;LAYER:12
;note -- min layer time used
;TYPE:WALL-OUTER
;MESH:90deg_h40_w80_t36.STL(1)
G1 F1500 E342.6192
G1 F960.5 X77.724 Y97.448 E350.23078
G1 X77.724 Y97.048 E350.26903
G1 X157.289 Y97.048 E357.87727
G0 F2700 X157.324 Y97.048
G0 X157.324 Y97.448
G0 F15000 X156.724 Y97.448
G1 F1500 E351.37727
;MESH:NONMESH
G0 F300 X156.724 Y97.448 Z7
G0 F15000 X157.324 Y97.448
;TIME_ELAPSED:241.986931
;LAYER:13
;note -- min layer time used
;TYPE:WALL-OUTER
;MESH:90deg_h40_w80_t36.STL(1)
G1 F1500 E357.87727
G1 F960.5 X77.724 Y97.448 E365.48885
G1 X77.724 Y97.048 E365.5271
G1 X157.289 Y97.048 E373.13533
G0 F2700 X157.324 Y97.048
G0 X157.324 Y97.448
G0 F15000 X156.724 Y97.448
G1 F1500 E366.63533
;MESH:NONMESH
G0 F300 X156.724 Y97.448 Z7.5
G0 F15000 X157.324 Y97.448
;TIME_ELAPSED:252.865261
;LAYER:14
;note -- min layer time used
;TYPE:WALL-OUTER
;MESH:90deg_h40_w80_t36.STL(1)
G1 F1500 E373.13533
G1 F960.5 X77.724 Y97.448 E380.74691
G1 X77.724 Y97.048 E380.78516
G1 X157.289 Y97.048 E388.3934
G0 F2700 X157.324 Y97.048
G0 X157.324 Y97.448
G0 F15000 X156.724 Y97.448
G1 F1500 E381.8934
;MESH:NONMESH
G0 F300 X156.724 Y97.448 Z8
G0 F15000 X157.324 Y97.448
;TIME_ELAPSED:263.743591
;LAYER:15
;note -- min layer time used
;TYPE:WALL-OUTER
;MESH:90deg_h40_w80_t36.STL(1)
G1 F1500 E388.3934
G1 F960.5 X77.724 Y97.448 E396.00498
G1 X77.724 Y97.048 E396.04323
G1 X157.289 Y97.048 E403.65146
G0 F2700 X157.324 Y97.048
G0 X157.324 Y97.448
G0 F15000 X156.724 Y97.448
G1 F1500 E397.15146
;MESH:NONMESH
G0 F300 X156.724 Y97.448 Z8.5
G0 F15000 X157.324 Y97.448
;TIME_ELAPSED:274.621921
;LAYER:16
;note -- min layer time used
;TYPE:WALL-OUTER
;MESH:90deg_h40_w80_t36.STL(1)
G1 F1500 E403.65146
G1 F960.5 X77.724 Y97.448 E411.26305
G1 X77.724 Y97.048 E411.3013
G1 X157.289 Y97.048 E418.90953
G0 F2700 X157.324 Y97.048
G0 X157.324 Y97.448
G0 F15000 X156.724 Y97.448
G1 F1500 E412.40953
;MESH:NONMESH
G0 F300 X156.724 Y97.448 Z9
G0 F15000 X157.324 Y97.448
;TIME_ELAPSED:285.500251
;LAYER:17
;note -- min layer time used
;TYPE:WALL-OUTER
;MESH:90deg_h40_w80_t36.STL(1)
G1 F1500 E418.90953
G1 F960.5 X77.724 Y97.448 E426.52111
G1 X77.724 Y97.048 E426.55936
G1 X157.289 Y97.048 E434.1676
G0 F2700 X157.324 Y97.048
G0 X157.324 Y97.448
G0 F15000 X156.724 Y97.448
G1 F1500 E427.6676
;MESH:NONMESH
G0 F300 X156.724 Y97.448 Z9.5
G0 F15000 X157.324 Y97.448
;TIME_ELAPSED:296.378581
;LAYER:18
;note -- min layer time used
;TYPE:WALL-OUTER
;MESH:90deg_h40_w80_t36.STL(1)
G1 F1500 E434.1676
G1 F960.5 X77.724 Y97.448 E441.77918
G1 X77.724 Y97.048 E441.81743
G1 X157.289 Y97.048 E449.42566
G0 F2700 X157.324 Y97.048
G0 X157.324 Y97.448
G0 F15000 X156.724 Y97.448
G1 F1500 E442.92566
;MESH:NONMESH
G0 F300 X156.724 Y97.448 Z10
G0 F15000 X157.324 Y97.448
;TIME_ELAPSED:307.256912
;LAYER:19
;note -- min layer time used
;TYPE:WALL-OUTER
;MESH:90deg_h40_w80_t36.STL(1)
G1 F1500 E449.42566
G1 F960.5 X77.724 Y97.448 E457.03724
G1 X77.724 Y97.048 E457.07549
G1 X157.289 Y97.048 E464.68373
G0 F2700 X157.324 Y97.048
G0 X157.324 Y97.448
G0 F15000 X156.724 Y97.448
G1 F1500 E458.18373
;MESH:NONMESH
G0 F300 X156.724 Y97.448 Z10.5
G0 F15000 X157.324 Y97.448
;TIME_ELAPSED:318.135242
;LAYER:20
;note -- min layer time used
;TYPE:WALL-OUTER
;MESH:90deg_h40_w80_t36.STL(1)
G1 F1500 E464.68373
G1 F960.5 X77.724 Y97.448 E472.29531
G1 X77.724 Y97.048 E472.33356
G1 X157.289 Y97.048 E479.94179
G0 F2700 X157.324 Y97.048
G0 X157.324 Y97.448
G0 F15000 X156.724 Y97.448
G1 F1500 E473.44179
;MESH:NONMESH
G0 F300 X156.724 Y97.448 Z11
G0 F15000 X157.324 Y97.448
;TIME_ELAPSED:329.013572
;LAYER:21
;note -- min layer time used
;TYPE:WALL-OUTER
;MESH:90deg_h40_w80_t36.STL(1)
G1 F1500 E479.94179
G1 F960.5 X77.724 Y97.448 E487.55338
G1 X77.724 Y97.048 E487.59163
G1 X157.289 Y97.048 E495.19986
G0 F2700 X157.324 Y97.048
G0 X157.324 Y97.448
G0 F15000 X156.724 Y97.448
G1 F1500 E488.69986
;MESH:NONMESH
G0 F300 X156.724 Y97.448 Z11.5
G0 F15000 X157.324 Y97.448
;TIME_ELAPSED:339.891902
;LAYER:22
;note -- min layer time used
;TYPE:WALL-OUTER
;MESH:90deg_h40_w80_t36.STL(1)
G1 F1500 E495.19986
G1 F960.5 X77.724 Y97.448 E502.81144
G1 X77.724 Y97.048 E502.84969
G1 X157.289 Y97.048 E510.45793
G0 F2700 X157.324 Y97.048
G0 X157.324 Y97.448
G0 F15000 X156.724 Y97.448
G1 F1500 E503.95793
;MESH:NONMESH
G0 F300 X156.724 Y97.448 Z12
G0 F15000 X157.324 Y97.448
;TIME_ELAPSED:350.770232
;LAYER:23
;note -- min layer time used
;TYPE:WALL-OUTER
;MESH:90deg_h40_w80_t36.STL(1)
G1 F1500 E510.45793
G1 F960.5 X77.724 Y97.448 E518.06951
G1 X77.724 Y97.048 E518.10776
G1 X157.289 Y97.048 E525.71599
G0 F2700 X157.324 Y97.048
G0 X157.324 Y97.448
G0 F15000 X156.724 Y97.448
G1 F1500 E519.21599
;MESH:NONMESH
G0 F300 X156.724 Y97.448 Z12.5
G0 F15000 X157.324 Y97.448
;TIME_ELAPSED:361.648562
;LAYER:24
;note -- min layer time used
;TYPE:WALL-OUTER
;MESH:90deg_h40_w80_t36.STL(1)
G1 F1500 E525.71599
G1 F960.5 X77.724 Y97.448 E533.32758
G1 X77.724 Y97.048 E533.36582
G1 X157.289 Y97.048 E540.97406
G0 F2700 X157.324 Y97.048
G0 X157.324 Y97.448
G0 F15000 X156.724 Y97.448
G1 F1500 E534.47406
;MESH:NONMESH
G0 F300 X156.724 Y97.448 Z13
G0 F15000 X157.324 Y97.448
;TIME_ELAPSED:372.526892
;LAYER:25
;note -- min layer time used
;TYPE:WALL-OUTER
;MESH:90deg_h40_w80_t36.STL(1)
G1 F1500 E540.97406
G1 F960.5 X77.724 Y97.448 E548.58564
G1 X77.724 Y97.048 E548.62389
G1 X157.289 Y97.048 E556.23213
G0 F2700 X157.324 Y97.048
G0 X157.324 Y97.448
G0 F15000 X156.724 Y97.448
G1 F1500 E549.73213
;MESH:NONMESH
G0 F300 X156.724 Y97.448 Z13.5
G0 F15000 X157.324 Y97.448
;TIME_ELAPSED:383.405222
;LAYER:26
;note -- min layer time used
;TYPE:WALL-OUTER
;MESH:90deg_h40_w80_t36.STL(1)
G1 F1500 E556.23213
G1 F960.5 X77.724 Y97.448 E563.84371
G1 X77.724 Y97.048 E563.88196
G1 X157.289 Y97.048 E571.49019
G0 F2700 X157.324 Y97.048
G0 X157.324 Y97.448
G0 F15000 X156.724 Y97.448
G1 F1500 E564.99019
;MESH:NONMESH
G0 F300 X156.724 Y97.448 Z14
G0 F15000 X157.324 Y97.448
;TIME_ELAPSED:394.283552
;LAYER:27
;note -- min layer time used
;TYPE:WALL-OUTER
;MESH:90deg_h40_w80_t36.STL(1)
G1 F1500 E571.49019
G1 F960.5 X77.724 Y97.448 E579.10177
G1 X77.724 Y97.048 E579.14002
G1 X157.289 Y97.048 E586.74826
G0 F2700 X157.324 Y97.048
G0 X157.324 Y97.448
G0 F15000 X156.724 Y97.448
G1 F1500 E580.24826
;MESH:NONMESH
G0 F300 X156.724 Y97.448 Z14.5
G0 F15000 X157.324 Y97.448
;TIME_ELAPSED:405.161882
;LAYER:28
;note -- min layer time used
;TYPE:WALL-OUTER
;MESH:90deg_h40_w80_t36.STL(1)
G1 F1500 E586.74826
G1 F960.5 X77.724 Y97.448 E594.35984
G1 X77.724 Y97.048 E594.39809
G1 X157.289 Y97.048 E602.00632
G0 F2700 X157.324 Y97.048
G0 X157.324 Y97.448
G0 F15000 X156.724 Y97.448
G1 F1500 E595.50632
;MESH:NONMESH
G0 F300 X156.724 Y97.448 Z15
G0 F15000 X157.324 Y97.448
;TIME_ELAPSED:416.040212
;LAYER:29
;note -- min layer time used
;TYPE:WALL-OUTER
;MESH:90deg_h40_w80_t36.STL(1)
G1 F1500 E602.00632
G1 F960.5 X77.724 Y97.448 E609.61791
G1 X77.724 Y97.048 E609.65616
G1 X157.289 Y97.048 E617.26439
G0 F2700 X157.324 Y97.048
G0 X157.324 Y97.448
G0 F15000 X156.724 Y97.448
G1 F1500 E610.76439
;MESH:NONMESH
G0 F300 X156.724 Y97.448 Z15.5
G0 F15000 X157.324 Y97.448
;TIME_ELAPSED:426.918542
;LAYER:30
;note -- min layer time used
;TYPE:WALL-OUTER
;MESH:90deg_h40_w80_t36.STL(1)
G1 F1500 E617.26439
G1 F960.5 X77.724 Y97.448 E624.87597
G1 X77.724 Y97.048 E624.91422
G1 X157.289 Y97.048 E632.52246
G0 F2700 X157.324 Y97.048
G0 X157.324 Y97.448
G0 F15000 X156.724 Y97.448
G1 F1500 E626.02246
;MESH:NONMESH
G0 F300 X156.724 Y97.448 Z16
G0 F15000 X157.324 Y97.448
;TIME_ELAPSED:437.796872
;LAYER:31
;note -- min layer time used
;TYPE:WALL-OUTER
;MESH:90deg_h40_w80_t36.STL(1)
G1 F1500 E632.52246
G1 F960.5 X77.724 Y97.448 E640.13404
G1 X77.724 Y97.048 E640.17229
G1 X157.289 Y97.048 E647.78052
G0 F2700 X157.324 Y97.048
G0 X157.324 Y97.448
G0 F15000 X156.724 Y97.448
G1 F1500 E641.28052
;MESH:NONMESH
G0 F300 X156.724 Y97.448 Z16.5
G0 F15000 X157.324 Y97.448
;TIME_ELAPSED:448.675202
;LAYER:32
;note -- min layer time used
;TYPE:WALL-OUTER
;MESH:90deg_h40_w80_t36.STL(1)
G1 F1500 E647.78052
G1 F960.5 X77.724 Y97.448 E655.3921
G1 X77.724 Y97.048 E655.43035
G1 X157.289 Y97.048 E663.03859
G0 F2700 X157.324 Y97.048
G0 X157.324 Y97.448
G0 F15000 X156.724 Y97.448
G1 F1500 E656.53859
;MESH:NONMESH
G0 F300 X156.724 Y97.448 Z17
G0 F15000 X157.324 Y97.448
;TIME_ELAPSED:459.553532
;LAYER:33
;note -- min layer time used
;TYPE:WALL-OUTER
;MESH:90deg_h40_w80_t36.STL(1)
G1 F1500 E663.03859
G1 F960.5 X77.724 Y97.448 E670.65017
G1 X77.724 Y97.048 E670.68842
G1 X157.289 Y97.048 E678.29665
G0 F2700 X157.324 Y97.048
G0 X157.324 Y97.448
G0 F15000 X156.724 Y97.448
G1 F1500 E671.79665
;MESH:NONMESH
G0 F300 X156.724 Y97.448 Z17.5
G0 F15000 X157.324 Y97.448
;TIME_ELAPSED:470.431862
;LAYER:34
;note -- min layer time used
;TYPE:WALL-OUTER
;MESH:90deg_h40_w80_t36.STL(1)
G1 F1500 E678.29665
G1 F960.5 X77.724 Y97.448 E685.90824
G1 X77.724 Y97.048 E685.94649
G1 X157.289 Y97.048 E693.55472
G0 F2700 X157.324 Y97.048
G0 X157.324 Y97.448
G0 F15000 X156.724 Y97.448
G1 F1500 E687.05472
;MESH:NONMESH
G0 F300 X156.724 Y97.448 Z18
G0 F15000 X157.324 Y97.448
;TIME_ELAPSED:481.310192
;LAYER:35
;note -- min layer time used
;TYPE:WALL-OUTER
;MESH:90deg_h40_w80_t36.STL(1)
G1 F1500 E693.55472
G1 F960.5 X77.724 Y97.448 E701.1663
G1 X77.724 Y97.048 E701.20455
G1 X157.289 Y97.048 E708.81279
G0 F2700 X157.324 Y97.048
G0 X157.324 Y97.448
G0 F15000 X156.724 Y97.448
G1 F1500 E702.31279
;MESH:NONMESH
G0 F300 X156.724 Y97.448 Z18.5
G0 F15000 X157.324 Y97.448
;TIME_ELAPSED:492.188522
;LAYER:36
;note -- min layer time used
;TYPE:WALL-OUTER
;MESH:90deg_h40_w80_t36.STL(1)
G1 F1500 E708.81279
G1 F960.5 X77.724 Y97.448 E716.42437
G1 X77.724 Y97.048 E716.46262
G1 X157.289 Y97.048 E724.07085
G0 F2700 X157.324 Y97.048
G0 X157.324 Y97.448
G0 F15000 X156.724 Y97.448
G1 F1500 E717.57085
;MESH:NONMESH
G0 F300 X156.724 Y97.448 Z19
G0 F15000 X157.324 Y97.448
;TIME_ELAPSED:503.066852
;LAYER:37
;note -- min layer time used
;TYPE:WALL-OUTER
;MESH:90deg_h40_w80_t36.STL(1)
G1 F1500 E724.07085
G1 F960.5 X77.724 Y97.448 E731.68244
G1 X77.724 Y97.048 E731.72068
G1 X157.289 Y97.048 E739.32892
G0 F2700 X157.324 Y97.048
G0 X157.324 Y97.448
G0 F15000 X156.724 Y97.448
G1 F1500 E732.82892
;MESH:NONMESH
G0 F300 X156.724 Y97.448 Z19.5
G0 F15000 X157.324 Y97.448
;TIME_ELAPSED:513.945182
;LAYER:38
;note -- min layer time used
;TYPE:WALL-OUTER
;MESH:90deg_h40_w80_t36.STL(1)
G1 F1500 E739.32892
G1 F960.5 X77.724 Y97.448 E746.9405
G1 X77.724 Y97.048 E746.97875
G1 X157.289 Y97.048 E754.58699
G0 F2700 X157.324 Y97.048
G0 X157.324 Y97.448
G0 F15000 X156.724 Y97.448
G1 F1500 E748.08699
;MESH:NONMESH
G0 F300 X156.724 Y97.448 Z20
G0 F15000 X157.324 Y97.448
;TIME_ELAPSED:524.823513
;LAYER:39
;note -- min layer time used
;TYPE:WALL-OUTER
;MESH:90deg_h40_w80_t36.STL(1)
G1 F1500 E754.58699
G1 F960.5 X77.724 Y97.448 E762.19857
G1 X77.724 Y97.048 E762.23682
G1 X157.289 Y97.048 E769.84505
G0 F2700 X157.324 Y97.048
G0 X157.324 Y97.448
G0 F15000 X156.724 Y97.448
G1 F1500 E763.34505
;MESH:NONMESH
G0 F300 X156.724 Y97.448 Z20.5
G0 F15000 X157.324 Y97.448
;TIME_ELAPSED:535.701843
;LAYER:40
;note -- min layer time used
;TYPE:WALL-OUTER
;MESH:90deg_h40_w80_t36.STL(1)
G1 F1500 E769.84505
G1 F960.5 X77.724 Y97.448 E777.45663
G1 X77.724 Y97.048 E777.49488
G1 X157.289 Y97.048 E785.10312
G0 F2700 X157.324 Y97.048
G0 X157.324 Y97.448
G0 F15000 X156.724 Y97.448
G1 F1500 E778.60312
;MESH:NONMESH
G0 F300 X156.724 Y97.448 Z21
G0 F15000 X157.324 Y97.448
;TIME_ELAPSED:546.580173
;LAYER:41
;note -- min layer time used
;TYPE:WALL-OUTER
;MESH:90deg_h40_w80_t36.STL(1)
G1 F1500 E785.10312
G1 F960.5 X77.724 Y97.448 E792.7147
G1 X77.724 Y97.048 E792.75295
G1 X157.289 Y97.048 E800.36118
G0 F2700 X157.324 Y97.048
G0 X157.324 Y97.448
G0 F15000 X156.724 Y97.448
G1 F1500 E793.86118
;MESH:NONMESH
G0 F300 X156.724 Y97.448 Z21.5
G0 F15000 X157.324 Y97.448
;TIME_ELAPSED:557.458503
;LAYER:42
;note -- min layer time used
;TYPE:WALL-OUTER
;MESH:90deg_h40_w80_t36.STL(1)
G1 F1500 E800.36118
G1 F960.5 X77.724 Y97.448 E807.97277
G1 X77.724 Y97.048 E808.01102
G1 X157.289 Y97.048 E815.61925
G0 F2700 X157.324 Y97.048
G0 X157.324 Y97.448
G0 F15000 X156.724 Y97.448
G1 F1500 E809.11925
;MESH:NONMESH
G0 F300 X156.724 Y97.448 Z22
G0 F15000 X157.324 Y97.448
;TIME_ELAPSED:568.336833
;LAYER:43
;note -- min layer time used
;TYPE:WALL-OUTER
;MESH:90deg_h40_w80_t36.STL(1)
G1 F1500 E815.61925
G1 F960.5 X77.724 Y97.448 E823.23083
G1 X77.724 Y97.048 E823.26908
G1 X157.289 Y97.048 E830.87732
G0 F2700 X157.324 Y97.048
G0 X157.324 Y97.448
G0 F15000 X156.724 Y97.448
;TIME_ELAPSED:578.727992
G1 F1500 E824.37732
M140 S0
M107
G91 ;Relative positioning
G1 E-2 F2700 ;Retract a bit
G1 E-2 Z0.2 F2400 ;Retract and raise Z
G1 X5 Y5 F3000 ;Wipe out
G1 Z10 ;Raise Z more
G90 ;Absolute positioning

G1 X0 Y235 ;Present print
M106 S0 ;Turn-off fan
M104 S0 ;Turn-off hotend
M140 S0 ;Turn-off bed

M84 X Y E ;Disable all steppers but Z

M82 ;absolute extrusion mode
M104 S0
;End of Gcode
;SETTING_3 {"global_quality": "[general]\\nversion = 4\\nname = Standard 0.2 luc
;SETTING_3 \\ndefinition = creality_ender3\\n\\n[metadata]\\ntype = quality_chan
;SETTING_3 ges\\nquality_type = standard\\nsetting_version = 25\\n\\n[values]\\n
;SETTING_3 adhesion_type = brim\\nbridge_settings_enabled = True\\nlayer_height 
;SETTING_3 = 0.5\\nlayer_height_0 = 0.5\\nraft_smoothing = 2\\nretraction_combin
;SETTING_3 g = noskin\\nsupport_enable = True\\nsupport_structure = tree\\nsuppo
;SETTING_3 rt_type = buildplate\\n\\n", "extruder_quality": ["[general]\\nversio
;SETTING_3 n = 4\\nname = Standard 0.2 luc\\ndefinition = creality_ender3\\n\\n[
;SETTING_3 metadata]\\ntype = quality_changes\\nquality_type = standard\\nintent
;SETTING_3 _category = default\\nposition = 0\\nsetting_version = 25\\n\\n[value
;SETTING_3 s]\\nalternate_extra_perimeter = False\\nbridge_skin_material_flow = 
;SETTING_3 80\\nbridge_wall_material_flow = 90\\nbrim_inside_margin = 1.5\\nbrim
;SETTING_3 _width = 4.4\\ncoasting_enable = True\\ncoasting_volume = 0.1\\ncool_
;SETTING_3 fan_speed = 2\\nhole_xy_offset = 0.1\\ninfill_material_flow = 145.0\\
;SETTING_3 ninfill_overlap = 60\\ninfill_pattern = cubicsubdiv\\nmaterial_altern
;SETTING_3 ate_walls = False\\nmaterial_print_temperature = 212\\nraft_airgap = 
;SETTING_3 0.26\\nraft_margin = 2\\nretract_at_layer_change = True\\nretraction_
;SETTING_3 hop_enabled = False\\nretraction_hop_only_when_collides = True\\nskin
;SETTING_3 _overlap = 15.0\\nspeed_infill = 45\\nspeed_print = 100\\nsupport_bot
;SETTING_3 tom_enable = False\\nsupport_bottom_height = =extruderValue(support_b
;SETTING_3 ottom_extruder_nr, 'support_interface_height')\\nsupport_interface_de
;SETTING_3 nsity = 65\\nsupport_interface_height = 0.6\\nsupport_interface_mater
;SETTING_3 ial_flow = 105\\nsupport_interface_pattern = zigzag\\nsupport_materia
;SETTING_3 l_flow = 115\\nsupport_roof_enable = False\\nsupport_tree_tip_diamete
;SETTING_3 r = 1.2\\nsupport_z_distance = 0.17\\nsupport_z_seam_away_from_model 
;SETTING_3 = False\\nsupport_z_seam_min_distance = 1.2\\ntop_bottom_pattern = zi
;SETTING_3 gzag\\ntop_bottom_thickness = 2\\nwall_0_wipe_dist = 0.6\\nwall_line_
;SETTING_3 count = 5\\nwall_material_flow = 115\\nxy_offset_layer_0 = -0.02\\nz_
;SETTING_3 seam_corner = z_seam_corner_inner\\nz_seam_type = sharpest_corner\\n\
;SETTING_3 \n"]}
